{
"type": "FeatureCollection",
"name": "refinement_v3",
"crs": { "type": "name", "properties": { "name": "urn:ogc:def:crs:EPSG::32618" } },
"features": [
{ "type": "Feature", "properties": { "name": "shelf_shoaling", "refinement_level": 1, "zmin": -30.0, "zmax": -8.0, "why": "100 m across the shoaling band, ring-wide (v1.5 rule)." }, "geometry": { "type": "Polygon", "coordinates": [ [ [ 622957.367463899543509, 4478714.297171428799629 ], [ 589359.605396344326437, 4478237.943795710802078 ], [ 590057.198499560705386, 4489314.893486901186407 ], [ 586901.435822147876024, 4492574.55726301856339 ], [ 585424.784738348447718, 4493366.014706729911268 ], [ 585054.739600812783465, 4494019.23453526571393 ], [ 583765.291035394417122, 4495368.485924792475998 ], [ 582106.690765416948125, 4496017.254364831373096 ], [ 579644.251283232821152, 4495011.337699416093528 ], [ 577581.587885277229361, 4492415.775377693586051 ], [ 575284.562282037222758, 4489535.907307608984411 ], [ 574734.016737119527534, 4489110.739250546321273 ], [ 574049.763203555368818, 4488712.26111057959497 ], [ 573666.857710631331429, 4489128.102896047756076 ], [ 572625.351231337175705, 4488812.962133947759867 ], [ 572354.504467817838304, 4488024.225591923110187 ], [ 571725.46474680211395, 4487409.693996034562588 ], [ 570375.89042007108219, 4486795.386640348471701 ], [ 568116.581081393756904, 4485256.801116799935699 ], [ 567492.29721613926813, 4485351.844356471672654 ], [ 566908.376971327583306, 4484875.218349287286401 ], [ 566417.036077135708183, 4484304.348436266183853 ], [ 566290.852427108446136, 4484086.424897080287337 ], [ 566073.048378464882262, 4483965.604223126545548 ], [ 565647.113026335835457, 4483835.965500912629068 ], [ 565390.455917927320115, 4483882.671079332008958 ], [ 565113.302975868456997, 4483831.296084014698863 ], [ 564352.844661227194592, 4483489.016811882145703 ], [ 563778.511748091084883, 4483225.331542636267841 ], [ 563617.522951810620725, 4483321.870058186352253 ], [ 563390.995169765083119, 4483592.695584816858172 ], [ 563225.801756996545009, 4483935.380951563827693 ], [ 562189.378762107342482, 4484179.475148842670023 ], [ 559359.160617682151496, 4485355.52788909804076 ], [ 559282.0079952996457, 4482970.125000932253897 ], [ 560721.459030305966735, 4481911.66792184766382 ], [ 561117.211109697818756, 4470183.679945140145719 ], [ 574278.312542089959607, 4467322.679548878222704 ], [ 574994.99318576103542, 4445669.22037907037884 ], [ 566062.347751976689324, 4438589.143740453757346 ], [ 565305.274315580143593, 4427482.484266996383667 ], [ 558406.498898291494697, 4395464.290736425668001 ], [ 538150.844553623814136, 4394555.653640551492572 ], [ 526580.802551897824742, 4393397.096431316807866 ], [ 527465.939361964468844, 4385631.232329249382019 ], [ 521931.572816602129024, 4369853.967660166323185 ], [ 514222.658247359911911, 4352523.236190222203732 ], [ 520816.531686429108959, 4336446.418912610039115 ], [ 510379.385457307682373, 4319036.137507479637861 ], [ 503637.621475216990802, 4315112.858007537201047 ], [ 501299.333257174759638, 4314002.419276490807533 ], [ 501301.067416030738968, 4303460.298415481112897 ], [ 625816.797740505076945, 4301684.865647538565099 ], [ 622957.367463899543509, 4478714.297171428799629 ] ] ] } },
{ "type": "Feature", "properties": { "name": "inland_floodplain", "refinement_level": 1, "zmin": 0.0, "zmax": 6.0, "why": "100 m on land 0..6 m: the Sandy HWM ceiling on v3 is 5.79 m (185 marks). v1.5 used 9 m; on 15,000 km2 of coastal plain the top 3 m buy nothing but cells. 2026-08-25: zmax 6 -> 5 tried as lever L1; 2026-08-26 RESTORED to 6 (user) - the two levers together saved only 1.3% of faces, not worth the resolution." }, "geometry": { "type": "Polygon", "coordinates": [ [ [ 622957.367463899543509, 4478714.297171428799629 ], [ 589359.605396344326437, 4478237.943795710802078 ], [ 590057.198499560705386, 4489314.893486901186407 ], [ 586901.435822147876024, 4492574.55726301856339 ], [ 585424.784738348447718, 4493366.014706729911268 ], [ 585054.739600812783465, 4494019.23453526571393 ], [ 583765.291035394417122, 4495368.485924792475998 ], [ 582106.690765416948125, 4496017.254364831373096 ], [ 579644.251283232821152, 4495011.337699416093528 ], [ 577581.587885277229361, 4492415.775377693586051 ], [ 575284.562282037222758, 4489535.907307608984411 ], [ 574734.016737119527534, 4489110.739250546321273 ], [ 574049.763203555368818, 4488712.26111057959497 ], [ 573666.857710631331429, 4489128.102896047756076 ], [ 572625.351231337175705, 4488812.962133947759867 ], [ 572354.504467817838304, 4488024.225591923110187 ], [ 571725.46474680211395, 4487409.693996034562588 ], [ 570375.89042007108219, 4486795.386640348471701 ], [ 568116.581081393756904, 4485256.801116799935699 ], [ 567492.29721613926813, 4485351.844356471672654 ], [ 566908.376971327583306, 4484875.218349287286401 ], [ 566417.036077135708183, 4484304.348436266183853 ], [ 566290.852427108446136, 4484086.424897080287337 ], [ 566073.048378464882262, 4483965.604223126545548 ], [ 565647.113026335835457, 4483835.965500912629068 ], [ 565390.455917927320115, 4483882.671079332008958 ], [ 565113.302975868456997, 4483831.296084014698863 ], [ 564352.844661227194592, 4483489.016811882145703 ], [ 563778.511748091084883, 4483225.331542636267841 ], [ 563617.522951810620725, 4483321.870058186352253 ], [ 563390.995169765083119, 4483592.695584816858172 ], [ 563225.801756996545009, 4483935.380951563827693 ], [ 562189.378762107342482, 4484179.475148842670023 ], [ 559359.160617682151496, 4485355.52788909804076 ], [ 559282.0079952996457, 4482970.125000932253897 ], [ 560721.459030305966735, 4481911.66792184766382 ], [ 561117.211109697818756, 4470183.679945140145719 ], [ 574278.312542089959607, 4467322.679548878222704 ], [ 574994.99318576103542, 4445669.22037907037884 ], [ 566062.347751976689324, 4438589.143740453757346 ], [ 565305.274315580143593, 4427482.484266996383667 ], [ 558406.498898291494697, 4395464.290736425668001 ], [ 538150.844553623814136, 4394555.653640551492572 ], [ 526580.802551897824742, 4393397.096431316807866 ], [ 527465.939361964468844, 4385631.232329249382019 ], [ 521931.572816602129024, 4369853.967660166323185 ], [ 514222.658247359911911, 4352523.236190222203732 ], [ 520816.531686429108959, 4336446.418912610039115 ], [ 510379.385457307682373, 4319036.137507479637861 ], [ 503637.621475216990802, 4315112.858007537201047 ], [ 501299.333257174759638, 4314002.419276490807533 ], [ 501301.067416030738968, 4303460.298415481112897 ], [ 625816.797740505076945, 4301684.865647538565099 ], [ 622957.367463899543509, 4478714.297171428799629 ] ] ] } },
{ "type": "Feature", "properties": { "name": "low_water", "refinement_level": 2, "zmin": -20.0, "zmax": 3.0, "why": "50 m over every back-bay, estuary and tidal marsh the domain exists to COMPUTE, and the land below 3 m that flooded. v1.5's bay_water, ring-wide. 2026-08-25: zmax 3 -> 2 tried as lever L2; 2026-08-26 RESTORED to 3 (user) - the two levers together saved only 1.3% of faces; the count driver is the 25 m surf_dune band, not this." }, "geometry": { "type": "Polygon", "coordinates": [ [ [ 622957.367463899543509, 4478714.297171428799629 ], [ 589359.605396344326437, 4478237.943795710802078 ], [ 590057.198499560705386, 4489314.893486901186407 ], [ 586901.435822147876024, 4492574.55726301856339 ], [ 585424.784738348447718, 4493366.014706729911268 ], [ 585054.739600812783465, 4494019.23453526571393 ], [ 583765.291035394417122, 4495368.485924792475998 ], [ 582106.690765416948125, 4496017.254364831373096 ], [ 579644.251283232821152, 4495011.337699416093528 ], [ 577581.587885277229361, 4492415.775377693586051 ], [ 575284.562282037222758, 4489535.907307608984411 ], [ 574734.016737119527534, 4489110.739250546321273 ], [ 574049.763203555368818, 4488712.26111057959497 ], [ 573666.857710631331429, 4489128.102896047756076 ], [ 572625.351231337175705, 4488812.962133947759867 ], [ 572354.504467817838304, 4488024.225591923110187 ], [ 571725.46474680211395, 4487409.693996034562588 ], [ 570375.89042007108219, 4486795.386640348471701 ], [ 568116.581081393756904, 4485256.801116799935699 ], [ 567492.29721613926813, 4485351.844356471672654 ], [ 566908.376971327583306, 4484875.218349287286401 ], [ 566417.036077135708183, 4484304.348436266183853 ], [ 566290.852427108446136, 4484086.424897080287337 ], [ 566073.048378464882262, 4483965.604223126545548 ], [ 565647.113026335835457, 4483835.965500912629068 ], [ 565390.455917927320115, 4483882.671079332008958 ], [ 565113.302975868456997, 4483831.296084014698863 ], [ 564352.844661227194592, 4483489.016811882145703 ], [ 563778.511748091084883, 4483225.331542636267841 ], [ 563617.522951810620725, 4483321.870058186352253 ], [ 563390.995169765083119, 4483592.695584816858172 ], [ 563225.801756996545009, 4483935.380951563827693 ], [ 562189.378762107342482, 4484179.475148842670023 ], [ 559359.160617682151496, 4485355.52788909804076 ], [ 559282.0079952996457, 4482970.125000932253897 ], [ 560721.459030305966735, 4481911.66792184766382 ], [ 561117.211109697818756, 4470183.679945140145719 ], [ 574278.312542089959607, 4467322.679548878222704 ], [ 574994.99318576103542, 4445669.22037907037884 ], [ 566062.347751976689324, 4438589.143740453757346 ], [ 565305.274315580143593, 4427482.484266996383667 ], [ 558406.498898291494697, 4395464.290736425668001 ], [ 538150.844553623814136, 4394555.653640551492572 ], [ 526580.802551897824742, 4393397.096431316807866 ], [ 527465.939361964468844, 4385631.232329249382019 ], [ 521931.572816602129024, 4369853.967660166323185 ], [ 514222.658247359911911, 4352523.236190222203732 ], [ 520816.531686429108959, 4336446.418912610039115 ], [ 510379.385457307682373, 4319036.137507479637861 ], [ 503637.621475216990802, 4315112.858007537201047 ], [ 501299.333257174759638, 4314002.419276490807533 ], [ 501301.067416030738968, 4303460.298415481112897 ], [ 625816.797740505076945, 4301684.865647538565099 ], [ 622957.367463899543509, 4478714.297171428799629 ] ] ] } },
{ "type": "Feature", "properties": { "name": "narrows_cut", "refinement_level": 3, "zmin": -40.0, "zmax": 2.0, "why": "25 m across the Verrazzano Narrows (v1.5 verbatim)." }, "geometry": { "type": "Polygon", "coordinates": [ [ [ 582935.0, 4493101.0 ], [ 582935.0, 4497591.0 ], [ 578234.0, 4497591.0 ], [ 578234.0, 4493101.0 ], [ 582935.0, 4493101.0 ] ] ] } },
{ "type": "Feature", "properties": { "name": "arthur_kill_cut", "refinement_level": 3, "zmin": -40.0, "zmax": 2.0, "why": "25 m across the Arthur Kill mouth (v1.5 verbatim)." }, "geometry": { "type": "Polygon", "coordinates": [ [ [ 564831.0, 4482390.0 ], [ 564831.0, 4485756.0 ], [ 560567.0, 4485756.0 ], [ 560567.0, 4482390.0 ], [ 564831.0, 4482390.0 ] ] ] } },
{ "type": "Feature", "properties": { "name": "cape_may_canal", "refinement_level": 3, "zmin": -40.0, "zmax": 2.0, "why": "25 m along the Cape May Canal + its Delaware Bay mouth (NOAA 8536110 on the forced wedge). ~100 m wide: at 50 m it is 2 cells." }, "geometry": { "type": "Polygon", "coordinates": [ [ [ 509094.054589741746895, 4310673.500031905248761 ], [ 509094.054589741746895, 4315117.261580501683056 ], [ 502166.468799185357057, 4315117.261580501683056 ], [ 502166.468799185357057, 4310673.500031905248761 ], [ 509094.054589741746895, 4310673.500031905248761 ] ] ] } },
{ "type": "Feature", "properties": { "name": "surf_dune_00", "refinement_level": 3, "zmin": -8.0, "zmax": 3.0, "why": "25 m surf zone / foredune / barrier: 2.5 km buffer of ONE shoreline segment, clipped to the ring. Split per segment so each polygon's bbox is small - the first probe (one ring-wide L3 polygon) hit 158 GB RSS and was killed, 2026-08-24." }, "geometry": { "type": "Polygon", "coordinates": [ [ [ 589609.888630218221806, 4461608.090143024921417 ], [ 589602.649912501685321, 4461362.858583956025541 ], [ 589571.409155051107518, 4461119.517400283366442 ], [ 589516.467223438434303, 4460880.410100628621876 ], [ 589438.35323849960696, 4460647.839418997056782 ], [ 589337.819480611011386, 4460424.045138189569116 ], [ 589215.834144818363711, 4460211.182519467547536 ], [ 589073.572016589343548, 4460011.301546212285757 ], [ 588912.403157987282611, 4459826.327181463129818 ], [ 588733.879713224247098, 4459658.040829469449818 ], [ 588539.72096066433005, 4459508.063179794698954 ], [ 588331.796755232382566, 4459377.838599191978574 ], [ 588112.109520689817145, 4459268.62122156098485 ], [ 587882.774965198594145, 4459181.462869952432811 ], [ 587646.001705895061605, 4459117.202926937490702 ], [ 587404.069998699589632, 4459076.460250895470381 ], [ 587159.309778206050396, 4459059.627216069027781 ], [ 586914.07821913715452, 4459066.86593378521502 ], [ 586670.737035464029759, 4459098.10669123660773 ], [ 586431.629735809168778, 4459153.048622848466039 ], [ 586199.0590541777201, 4459231.162607788108289 ], [ 585975.264773369766772, 4459331.696365676820278 ], [ 585762.402154647978023, 4459453.681701469235122 ], [ 585562.521181393181905, 4459595.943829697556794 ], [ 585377.546816643793136, 4459757.112688300199807 ], [ 585209.260464649647474, 4459935.636133062653244 ], [ 585059.282814975245856, 4460129.794885623268783 ], [ 584929.058234372874722, 4460337.719091054983437 ], [ 584819.840856741880998, 4460557.406325597316027 ], [ 584732.682505132979713, 4460786.740881089121103 ], [ 584668.422562118037604, 4461023.514140392653644 ], [ 584627.679886076133698, 4461265.445847587659955 ], [ 582371.84562121075578, 4480334.186994816176593 ], [ 582355.012586384429596, 4480578.947215310297906 ], [ 582362.251304100966081, 4480824.178774379193783 ], [ 582393.492061551543884, 4481067.519958051852882 ], [ 582448.4339931642171, 4481306.627257706597447 ], [ 582526.547978103044443, 4481539.197939338162541 ], [ 582627.081735991640016, 4481762.992220145650208 ], [ 582749.067071784287691, 4481975.854838867671788 ], [ 582891.329200013307855, 4482175.735812122933567 ], [ 583052.498058615368791, 4482360.710176872089505 ], [ 583231.021503378404304, 4482528.996528865769506 ], [ 583425.180255938321352, 4482678.97417854052037 ], [ 583633.104461370268837, 4482809.19875914324075 ], [ 583852.791695912834257, 4482918.416136774234474 ], [ 584082.126251404057257, 4483005.574488382786512 ], [ 584318.899510707589798, 4483069.834431397728622 ], [ 584560.83121790306177, 4483110.577107439748943 ], [ 584805.591438396601006, 4483127.410142266191542 ], [ 585050.822997465496883, 4483120.171424550004303 ], [ 585294.164181138738059, 4483088.930667098611593 ], [ 585533.271480793482624, 4483033.988735486753285 ], [ 585765.842162424931303, 4482955.874750547111034 ], [ 585989.636443232884631, 4482855.340992658399045 ], [ 586202.49906195467338, 4482733.355656865984201 ], [ 586402.380035209469497, 4482591.09352863766253 ], [ 586587.354399958858266, 4482429.924670035019517 ], [ 586755.640751953003928, 4482251.40122527256608 ], [ 586905.618401627405547, 4482057.242472711950541 ], [ 587035.84298222977668, 4481849.318267280235887 ], [ 587145.060359860770404, 4481629.631032737903297 ], [ 587232.218711469671689, 4481400.29647724609822 ], [ 587296.478654484613799, 4481163.52321794256568 ], [ 587337.221330526517704, 4480921.591510747559369 ], [ 589593.055595391895622, 4461852.85036351904273 ], [ 589609.888630218221806, 4461608.090143024921417 ] ] ] } },
{ "type": "Feature", "properties": { "name": "surf_dune_01", "refinement_level": 3, "zmin": -8.0, "zmax": 3.0, "why": "25 m surf zone / foredune / barrier: 2.5 km buffer of ONE shoreline segment, clipped to the ring. Split per segment so each polygon's bbox is small - the first probe (one ring-wide L3 polygon) hit 158 GB RSS and was killed, 2026-08-24." }, "geometry": { "type": "Polygon", "coordinates": [ [ [ 585070.859825536492281, 4438580.878649661317468 ], [ 584988.152995666489005, 4438349.901384783908725 ], [ 584883.204690803890117, 4438128.143025518395007 ], [ 584757.025620495085604, 4437917.739226091653109 ], [ 584610.830958163831383, 4437720.716290107928216 ], [ 584446.02863832633011, 4437538.971656147390604 ], [ 584264.205797412781976, 4437374.255624384619296 ], [ 584067.113488775561564, 4437228.154500248841941 ], [ 583856.649819088634104, 4437102.075317433103919 ], [ 583634.841668542125262, 4436997.23228739015758 ], [ 583403.825170878553763, 4436914.635105811059475 ], [ 583165.825141256791539, 4436855.079228707589209 ], [ 582923.133650066098198, 4436819.138211732730269 ], [ 582678.087949035456404, 4436807.158186526037753 ], [ 582433.047962221316993, 4436819.254527281038463 ], [ 582190.373558649211191, 4436855.310739623382688 ], [ 581952.40182548481971, 4436914.979582517407835 ], [ 581721.424560607061721, 4436997.686412387527525 ], [ 581499.666201341897249, 4437102.634717249311507 ], [ 581289.262401914224029, 4437228.813787558116019 ], [ 581092.239465931197628, 4437375.008449889719486 ], [ 580910.494831969961524, 4437539.810769727453589 ], [ 580745.778800207306631, 4437721.633610640652478 ], [ 580599.677676071878523, 4437918.725919278338552 ], [ 580473.598493256256916, 4438129.189588964916766 ], [ 580368.755463212844916, 4438350.997739511542022 ], [ 580286.158281633979641, 4438582.014237174764276 ], [ 580226.602404530509375, 4438820.014266796410084 ], [ 580190.661387555301189, 4439062.705757987685502 ], [ 580178.68136234942358, 4439307.751459018327296 ], [ 580190.777703104540706, 4439552.791445831768215 ], [ 580226.833915446419269, 4439795.465849404223263 ], [ 584658.520364242140204, 4462047.455838842317462 ], [ 584718.189207135816105, 4462285.427572007291019 ], [ 584800.89603700581938, 4462516.404836884699762 ], [ 584905.844341868418269, 4462738.16319615021348 ], [ 585032.023412177222781, 4462948.566995576955378 ], [ 585178.218074508477002, 4463145.58993156068027 ], [ 585343.020394345978275, 4463327.334565521217883 ], [ 585524.843235259526409, 4463492.050597283989191 ], [ 585721.935543896746822, 4463638.151721419766545 ], [ 585932.399213583674282, 4463764.230904235504568 ], [ 586154.207364130183123, 4463869.073934278450906 ], [ 586385.223861793754622, 4463951.671115857549012 ], [ 586623.223891415516846, 4464011.226992961019278 ], [ 586865.915382606210187, 4464047.168009935878217 ], [ 587110.961083636851981, 4464059.148035142570734 ], [ 587356.001070450991392, 4464047.051694387570024 ], [ 587598.675474023097195, 4464010.995482045225799 ], [ 587836.647207187488675, 4463951.326639151200652 ], [ 588067.624472065246664, 4463868.619809281080961 ], [ 588289.382831330411136, 4463763.67150441929698 ], [ 588499.786630758084357, 4463637.492434110492468 ], [ 588696.809566741110757, 4463491.297771778889 ], [ 588878.554200702346861, 4463326.495451941154897 ], [ 589043.270232465001754, 4463144.672611027956009 ], [ 589189.371356600429863, 4462947.580302390269935 ], [ 589315.45053941605147, 4462737.116632703691721 ], [ 589420.29356945946347, 4462515.308482157066464 ], [ 589502.890751038328744, 4462284.291984493844211 ], [ 589562.44662814179901, 4462046.291954872198403 ], [ 589598.387645117007196, 4461803.600463680922985 ], [ 589610.367670322884806, 4461558.554762650281191 ], [ 589598.27132956776768, 4461313.514775836840272 ], [ 589562.215117225889117, 4461070.840372264385223 ], [ 585130.528668430168182, 4438818.850382826291025 ], [ 585070.859825536492281, 4438580.878649661317468 ] ] ] } },
{ "type": "Feature", "properties": { "name": "surf_dune_02", "refinement_level": 3, "zmin": -8.0, "zmax": 3.0, "why": "25 m surf zone / foredune / barrier: 2.5 km buffer of ONE shoreline segment, clipped to the ring. Split per segment so each polygon's bbox is small - the first probe (one ring-wide L3 polygon) hit 158 GB RSS and was killed, 2026-08-24." }, "geometry": { "type": "Polygon", "coordinates": [ [ [ 582725.584172918810509, 4422036.405004794709384 ], [ 582655.639508802676573, 4421801.24833242688328 ], [ 582562.982262807199731, 4421574.079779668711126 ], [ 582448.504774862900376, 4421357.087103867903352 ], [ 582313.309525758377276, 4421152.360063110478222 ], [ 582158.698519647819921, 4420961.870290716178715 ], [ 581986.160745038883761, 4420787.452307323925197 ], [ 581797.357835020055063, 4420630.785853461362422 ], [ 581594.108064824831672, 4420493.379712720401585 ], [ 581378.368840847746469, 4420376.557181352749467 ], [ 581152.217849750886671, 4420281.443324194289744 ], [ 580917.833049205248244, 4420208.954139686189592 ], [ 580677.471692967694253, 4420159.787738300859928 ], [ 580433.448592293774709, 4420134.417619360610843 ], [ 580188.113823039690033, 4420133.088110979646444 ], [ 579943.830093146767467, 4420155.81201705057174 ], [ 579702.949988472973928, 4420202.370493936352432 ], [ 579467.793316104914993, 4420272.315158052369952 ], [ 579240.624763347092085, 4420364.972404047846794 ], [ 579023.632087545585819, 4420479.449891992844641 ], [ 578818.90504678862635, 4420614.645141096785665 ], [ 578628.415274393861182, 4420769.256147207692266 ], [ 578453.997291001724079, 4420941.793921816162765 ], [ 578297.330837138928473, 4421130.596831834875047 ], [ 578159.924696398782544, 4421333.846602030098438 ], [ 578043.102165030315518, 4421549.585826007649302 ], [ 577947.988307872437872, 4421775.736817104741931 ], [ 577875.499123363988474, 4422010.121617649681866 ], [ 577826.332721978542395, 4422250.482973887585104 ], [ 577800.962603038409725, 4422494.506074561737478 ], [ 577799.633094657678157, 4422739.840843815356493 ], [ 577822.357000728952698, 4422984.124573708511889 ], [ 580203.788467400590889, 4439660.577848235145211 ], [ 580250.346944286138751, 4439901.457952909171581 ], [ 580320.291608402272686, 4440136.614625276997685 ], [ 580412.948854397749528, 4440363.78317803516984 ], [ 580527.426342342048883, 4440580.775853835977614 ], [ 580662.621591446571983, 4440785.502894593402743 ], [ 580817.232597557129338, 4440975.99266698770225 ], [ 580989.770372166065499, 4441150.410650379955769 ], [ 581178.573282184894197, 4441307.077104242518544 ], [ 581381.823052380117588, 4441444.483244983479381 ], [ 581597.562276357202791, 4441561.305776351131499 ], [ 581823.713267454062589, 4441656.419633509591222 ], [ 582058.098067999701016, 4441728.908818017691374 ], [ 582298.459424237255007, 4441778.075219403021038 ], [ 582542.482524911174551, 4441803.445338343270123 ], [ 582787.817294165259227, 4441804.774846724234521 ], [ 583032.101024058181792, 4441782.050940653309226 ], [ 583272.981128731975332, 4441735.492463767528534 ], [ 583508.137801100034267, 4441665.547799651511014 ], [ 583735.306353857857175, 4441572.890553656034172 ], [ 583952.299029659363441, 4441458.413065711036325 ], [ 584157.026070416322909, 4441323.217816607095301 ], [ 584347.515842811088078, 4441168.6068104961887 ], [ 584521.933826203225181, 4440996.069035887718201 ], [ 584678.600280066020787, 4440807.266125869005919 ], [ 584816.006420806166716, 4440604.016355673782527 ], [ 584932.828952174633741, 4440388.277131696231663 ], [ 585027.942809332511388, 4440162.126140599139035 ], [ 585100.431993840960786, 4439927.7413400541991 ], [ 585149.598395226406865, 4439687.379983816295862 ], [ 585174.968514166539535, 4439443.356883142143488 ], [ 585176.298022547271103, 4439198.022113888524473 ], [ 585153.574116475996561, 4438953.738383995369077 ], [ 582772.142649804358371, 4422277.285109468735754 ], [ 582725.584172918810509, 4422036.405004794709384 ] ] ] } },
{ "type": "Feature", "properties": { "name": "surf_dune_03", "refinement_level": 3, "zmin": -8.0, "zmax": 3.0, "why": "25 m surf zone / foredune / barrier: 2.5 km buffer of ONE shoreline segment, clipped to the ring. Split per segment so each polygon's bbox is small - the first probe (one ring-wide L3 polygon) hit 158 GB RSS and was killed, 2026-08-24." }, "geometry": { "type": "Polygon", "coordinates": [ [ [ 579515.652525305864401, 4400891.934347967617214 ], [ 579443.659834326477721, 4400657.396570535376668 ], [ 579349.025085588451475, 4400431.044674300588667 ], [ 579232.659663454862311, 4400215.058551762253046 ], [ 579095.684230552637018, 4400011.518267349340022 ], [ 578939.417935178964399, 4399822.384025268256664 ], [ 578765.365707182325423, 4399649.477291660383344 ], [ 578575.203764664824121, 4399494.463252890855074 ], [ 578370.763471086043864, 4399358.834778893738985 ], [ 578154.013698231428862, 4399243.898046013899148 ], [ 577927.041864901199006, 4399150.759957821108401 ], [ 577692.033833925845101, 4399080.317485017701983 ], [ 577451.252861111890525, 4399033.249027126468718 ], [ 577207.017798851826228, 4399010.007879124954343 ], [ 576961.68076430785004, 4399010.81786597520113 ], [ 576717.604487237404101, 4399035.671187060885131 ], [ 576477.139555614325218, 4399084.328491312451661 ], [ 576242.601778181619011, 4399156.321182291954756 ], [ 576016.249881947296672, 4399250.95593102928251 ], [ 575800.263759408844635, 4399367.321353163570166 ], [ 575596.723474996164441, 4399504.296786065213382 ], [ 575407.589232914615422, 4399660.563081438653171 ], [ 575234.682499306858517, 4399834.615309435874224 ], [ 575079.668460537679493, 4400024.77725195325911 ], [ 574944.039986540097743, 4400229.217545531690121 ], [ 574829.103253660374321, 4400445.967318386770785 ], [ 574735.965165467350744, 4400672.939151716418564 ], [ 574665.522692664409988, 4400907.947182692587376 ], [ 574618.454234772711061, 4401148.728155505843461 ], [ 574595.213086771895178, 4401392.963217766024172 ], [ 574596.023073622025549, 4401638.30025231000036 ], [ 574620.876394707011059, 4401882.376529380679131 ], [ 577825.533107841387391, 4423005.693466483615339 ], [ 577874.190412093070336, 4423246.158398106694221 ], [ 577946.183103072457016, 4423480.696175538934767 ], [ 578040.817851810483262, 4423707.048071773722768 ], [ 578157.183273944072425, 4423923.034194312058389 ], [ 578294.158706846297719, 4424126.574478724971414 ], [ 578450.425002219970338, 4424315.708720806054771 ], [ 578624.477230216609314, 4424488.615454413928092 ], [ 578814.639172734110616, 4424643.629493183456361 ], [ 579019.079466312890872, 4424779.25796718057245 ], [ 579235.829239167505875, 4424894.194700060412288 ], [ 579462.801072497735731, 4424987.332788253203034 ], [ 579697.809103473089635, 4425057.775261056609452 ], [ 579938.590076287044212, 4425104.843718947842717 ], [ 580182.825138547108509, 4425128.084866949357092 ], [ 580428.162173091084696, 4425127.274880099110305 ], [ 580672.238450161530636, 4425102.421559013426304 ], [ 580912.703381784609519, 4425053.764254761859775 ], [ 581147.241159217315726, 4424981.771563782356679 ], [ 581373.593055451638065, 4424887.136815045028925 ], [ 581589.579177990090102, 4424770.77139291074127 ], [ 581793.119462402770296, 4424633.795960009098053 ], [ 581982.253704484319314, 4424477.529664635658264 ], [ 582155.16043809207622, 4424303.477436638437212 ], [ 582310.174476861255243, 4424113.315494121052325 ], [ 582445.802950858836994, 4423908.875200542621315 ], [ 582560.739683738444, 4423692.12542768754065 ], [ 582653.877771931583993, 4423465.153594357892871 ], [ 582724.320244734524749, 4423230.14556338172406 ], [ 582771.388702626223676, 4422989.364590568467975 ], [ 582794.629850627039559, 4422745.129528308287263 ], [ 582793.819863776909187, 4422499.792493764311075 ], [ 582768.966542691923678, 4422255.716216693632305 ], [ 579564.309829557547346, 4401132.399279590696096 ], [ 579515.652525305864401, 4400891.934347967617214 ] ] ] } },
{ "type": "Feature", "properties": { "name": "surf_dune_04", "refinement_level": 3, "zmin": -8.0, "zmax": 3.0, "why": "25 m surf zone / foredune / barrier: 2.5 km buffer of ONE shoreline segment, clipped to the ring. Split per segment so each polygon's bbox is small - the first probe (one ring-wide L3 polygon) hit 158 GB RSS and was killed, 2026-08-24." }, "geometry": { "type": "Polygon", "coordinates": [ [ [ 569204.19062836538069, 4376895.066830892115831 ], [ 569075.153980346396565, 4376686.403321706689894 ], [ 568926.286078595556319, 4376491.392387588508427 ], [ 568759.020602385979146, 4376311.912090435624123 ], [ 568574.968409690307453, 4376149.690923625603318 ], [ 568375.902023737318814, 4376006.291165671311319 ], [ 568163.738562644459307, 4375883.093834634870291 ], [ 567940.521276522544213, 4375781.285388158634305 ], [ 567708.399869859684259, 4375701.846297237090766 ], [ 567469.609798692748882, 4375645.541603741236031 ], [ 567226.450741942855529, 4375612.913552650250494 ], [ 566981.264454250806011, 4375604.276369930244982 ], [ 566736.412213599542156, 4375619.713236373849213 ], [ 566494.252080916427076, 4375659.075486517511308 ], [ 566257.116190657252446, 4375721.984040375798941 ], [ 566027.288291077013128, 4375807.833054185844958 ], [ 565806.981750485370867, 4375915.795755013823509 ], [ 565598.31824129994493, 4376044.832403032109141 ], [ 565403.307307181297801, 4376193.700304783880711 ], [ 565223.827010028879158, 4376360.965780992992222 ], [ 565061.605843218043447, 4376545.017973688431084 ], [ 564918.206085264449939, 4376744.084359642118216 ], [ 564795.008754227426834, 4376956.2478207340464 ], [ 564693.200307751307264, 4377179.465106856077909 ], [ 564613.761216829763725, 4377411.586513519287109 ], [ 564557.456523334374651, 4377650.376584686338902 ], [ 564524.828472242690623, 4377893.535641436465085 ], [ 564516.191289523034357, 4378138.721929128281772 ], [ 564531.628155966522172, 4378383.574169779196382 ], [ 564570.990406110649928, 4378625.734302463009953 ], [ 564633.898959968937561, 4378862.870192721486092 ], [ 564719.747973778517917, 4379092.698092302307487 ], [ 574796.39043442485854, 4402496.050264894962311 ], [ 574904.353135252837092, 4402716.356805486604571 ], [ 575033.389783271821216, 4402925.020314672030509 ], [ 575182.257685022661462, 4403120.031248790211976 ], [ 575349.523161232238635, 4403299.51154594309628 ], [ 575533.575353927910328, 4403461.732712753117085 ], [ 575732.641739880898967, 4403605.132470707409084 ], [ 575944.805200973758474, 4403728.329801743850112 ], [ 576168.022487095673569, 4403830.138248220086098 ], [ 576400.143893758533522, 4403909.577339141629636 ], [ 576638.933964925468899, 4403965.882032637484372 ], [ 576882.093021675362252, 4403998.510083728469908 ], [ 577127.27930936741177, 4404007.14726644847542 ], [ 577372.131550018675625, 4403991.71040000487119 ], [ 577614.291682701790705, 4403952.348149861209095 ], [ 577851.427572960965335, 4403889.439596002921462 ], [ 578081.255472541204654, 4403803.590582192875445 ], [ 578301.562013132846914, 4403695.627881364896894 ], [ 578510.225522318272851, 4403566.591233346611261 ], [ 578705.23645643691998, 4403417.723331594839692 ], [ 578884.716753589338623, 4403250.45785538572818 ], [ 579046.937920400174335, 4403066.405662690289319 ], [ 579190.337678353767842, 4402867.339276736602187 ], [ 579313.535009390790947, 4402655.175815644674003 ], [ 579415.343455866910517, 4402431.958529522642493 ], [ 579494.782546788454056, 4402199.837122859433293 ], [ 579551.08724028384313, 4401961.047051692381501 ], [ 579583.715291375527158, 4401717.887994942255318 ], [ 579592.352474095183425, 4401472.701707250438631 ], [ 579576.915607651695609, 4401227.849466599524021 ], [ 579537.553357507567853, 4400985.689333915710449 ], [ 579474.64480364928022, 4400748.553443657234311 ], [ 579388.795789839699864, 4400518.725544076412916 ], [ 569312.153329193359241, 4377115.373371483758092 ], [ 569204.19062836538069, 4376895.066830892115831 ] ] ] } },
{ "type": "Feature", "properties": { "name": "surf_dune_05", "refinement_level": 3, "zmin": -8.0, "zmax": 3.0, "why": "25 m surf zone / foredune / barrier: 2.5 km buffer of ONE shoreline segment, clipped to the ring. Split per segment so each polygon's bbox is small - the first probe (one ring-wide L3 polygon) hit 158 GB RSS and was killed, 2026-08-24." }, "geometry": { "type": "Polygon", "coordinates": [ [ [ 556927.645131235243753, 4360768.38368037249893 ], [ 556751.879578390275128, 4360597.218885420821607 ], [ 556560.183300997829065, 4360444.10633260011673 ], [ 556354.402439000783488, 4360310.520579492673278 ], [ 556136.518774591502734, 4360197.748129926621914 ], [ 555908.630646565579809, 4360106.875044238753617 ], [ 555672.932742172270082, 4360038.776479921303689 ], [ 555431.694961076485924, 4359994.108263374306262 ], [ 555187.24055498407688, 4359973.300573941320181 ], [ 554941.923753458075225, 4359976.553801046684384 ], [ 554698.107091401005164, 4360003.836614334024489 ], [ 554458.138656552298926, 4360054.886265398934484 ], [ 554224.329476119484752, 4360129.211118193343282 ], [ 553998.931260323384777, 4360226.09538375493139 ], [ 553784.114717197255231, 4360344.606013644486666 ], [ 553581.948647482087836, 4360483.601685712113976 ], [ 553394.380020944401622, 4360641.743795651942492 ], [ 553223.215225993306376, 4360817.509348496794701 ], [ 553070.102673172135837, 4361009.205625889822841 ], [ 552936.516920064692385, 4361214.986487886868417 ], [ 552823.744470498641022, 4361432.870152295567095 ], [ 552732.871384811005555, 4361660.758280321955681 ], [ 552664.772820493206382, 4361896.456184715032578 ], [ 552620.104603946208954, 4362137.693965811282396 ], [ 552599.296914513339289, 4362382.14837190322578 ], [ 552602.550141618587077, 4362627.465173428878188 ], [ 552629.832954906509258, 4362871.28183548618108 ], [ 552680.882605970837176, 4363111.250270335003734 ], [ 552755.207458765129559, 4363345.059450767934322 ], [ 552852.091724327066913, 4363570.457666563801467 ], [ 552970.602354216855019, 4363785.274209690280259 ], [ 553109.598026284249499, 4363987.44027940556407 ], [ 565027.856044040410779, 4379619.779718141071498 ], [ 565185.998153980472125, 4379807.34834467805922 ], [ 565361.76370682544075, 4379978.513139629736543 ], [ 565553.459984217886813, 4380131.62569245044142 ], [ 565759.24084621493239, 4380265.211445557884872 ], [ 565977.124510624213144, 4380377.983895123936236 ], [ 566205.012638650136068, 4380468.856980811804533 ], [ 566440.710543043445796, 4380536.95554512925446 ], [ 566681.948324139229953, 4380581.623761676251888 ], [ 566926.402730231638998, 4380602.431451109237969 ], [ 567171.719531757640652, 4380599.178224003873765 ], [ 567415.536193814710714, 4380571.895410716533661 ], [ 567655.504628663416952, 4380520.845759651623666 ], [ 567889.313809096231125, 4380446.520906857214868 ], [ 568114.712024892331101, 4380349.63664129562676 ], [ 568329.528568018460646, 4380231.126011406071484 ], [ 568531.694637733628042, 4380092.130339338444173 ], [ 568719.263264271314256, 4379933.988229398615658 ], [ 568890.428059222409502, 4379758.222676553763449 ], [ 569043.54061204358004, 4379566.526399160735309 ], [ 569177.126365151023492, 4379360.745537163689733 ], [ 569289.898814717074856, 4379142.861872754991055 ], [ 569380.771900404710323, 4378914.973744728602469 ], [ 569448.870464722509496, 4378679.275840335525572 ], [ 569493.538681269506924, 4378438.038059239275753 ], [ 569514.346370702376589, 4378193.58365314733237 ], [ 569511.093143597128801, 4377948.266851621679962 ], [ 569483.81033030920662, 4377704.450189564377069 ], [ 569432.760679244878702, 4377464.481754715554416 ], [ 569358.435826450586319, 4377230.672574282623827 ], [ 569261.551560888648964, 4377005.274358486756682 ], [ 569143.040930998860858, 4376790.457815360277891 ], [ 569004.045258931466378, 4376588.29174564499408 ], [ 557085.787241175305098, 4360955.952306909486651 ], [ 556927.645131235243753, 4360768.38368037249893 ] ] ] } },
{ "type": "Feature", "properties": { "name": "surf_dune_06", "refinement_level": 3, "zmin": -8.0, "zmax": 3.0, "why": "25 m surf zone / foredune / barrier: 2.5 km buffer of ONE shoreline segment, clipped to the ring. Split per segment so each polygon's bbox is small - the first probe (one ring-wide L3 polygon) hit 158 GB RSS and was killed, 2026-08-24." }, "geometry": { "type": "Polygon", "coordinates": [ [ [ 551801.856363860773854, 4354071.364370289258659 ], [ 551625.778721592272632, 4353900.52063908893615 ], [ 551433.803327322704718, 4353747.75819412060082 ], [ 551227.779009043239057, 4353614.548221239820123 ], [ 551009.689893563278019, 4353502.173605303280056 ], [ 550781.63629828451667, 4353411.716575294733047 ], [ 550545.814503996283747, 4353344.04828186146915 ], [ 550304.495603490853682, 4353299.820407659746706 ], [ 550060.003629698418081, 4353279.458891296759248 ], [ 549814.693173979525454, 4353283.15982530452311 ], [ 549570.926710123079829, 4353310.887567666359246 ], [ 549331.051842432352714, 4353362.375085064209998 ], [ 549097.378697012085468, 4353437.126524562016129 ], [ 548872.157673991518095, 4353534.421988932415843 ], [ 548657.557774940505624, 4353653.324469666928053 ], [ 548455.645714199286886, 4353792.688870877958834 ], [ 548268.36601528909523, 4353951.17303719650954 ], [ 548097.522284087957814, 4354127.250679465010762 ], [ 547944.75983911997173, 4354319.226073734462261 ], [ 547811.549866238725372, 4354525.250392014160752 ], [ 547699.175250303000212, 4354743.33950749412179 ], [ 547608.718220294453204, 4354971.393102772533894 ], [ 547541.049926860956475, 4355207.214897060766816 ], [ 547496.822052659466863, 4355448.533797565847635 ], [ 547476.460536296013743, 4355693.025771358981729 ], [ 547480.161470303777605, 4355938.336227077059448 ], [ 547507.889212665264495, 4356182.102690934203565 ], [ 547559.376730064046569, 4356421.97755862493068 ], [ 547634.128169561503455, 4356655.65070404484868 ], [ 547731.423633932019584, 4356880.871727065183222 ], [ 547850.326114666648209, 4357095.471626116894186 ], [ 547989.690515877213329, 4357297.383686858229339 ], [ 553112.367626578779891, 4363991.066101986914873 ], [ 553270.851792897214182, 4364178.345800897106528 ], [ 553446.929435165715404, 4364349.189532097429037 ], [ 553638.904829435283318, 4364501.951977065764368 ], [ 553844.929147714748979, 4364635.161949946545064 ], [ 554063.018263194710016, 4364747.536565883085132 ], [ 554291.071858473471366, 4364837.99359589163214 ], [ 554526.893652761704288, 4364905.661889324896038 ], [ 554768.212553267134354, 4364949.889763526618481 ], [ 555012.704527059569955, 4364970.251279889605939 ], [ 555258.014982778462581, 4364966.550345881842077 ], [ 555501.781446634908207, 4364938.822603520005941 ], [ 555741.656314325635321, 4364887.33508612215519 ], [ 555975.329459745902568, 4364812.583646624349058 ], [ 556200.550482766469941, 4364715.288182253949344 ], [ 556415.150381817482412, 4364596.385701519437134 ], [ 556617.06244255870115, 4364457.021300308406353 ], [ 556804.342141468892805, 4364298.537133989855647 ], [ 556975.185872670030221, 4364122.459491721354425 ], [ 557127.948317638016306, 4363930.484097451902926 ], [ 557261.158290519262664, 4363724.459779172204435 ], [ 557373.532906454987824, 4363506.370663692243397 ], [ 557463.989936463534832, 4363278.317068413831294 ], [ 557531.658229897031561, 4363042.495274125598371 ], [ 557575.886104098521173, 4362801.176373620517552 ], [ 557596.247620461974293, 4362556.684399827383459 ], [ 557592.54668645421043, 4362311.373944109305739 ], [ 557564.818944092723541, 4362067.607480252161622 ], [ 557513.331426693941467, 4361827.732612561434507 ], [ 557438.579987196484581, 4361594.059467141516507 ], [ 557341.284522825968452, 4361368.838444121181965 ], [ 557222.382042091339827, 4361154.238545069471002 ], [ 557083.017640880774707, 4360952.326484328135848 ], [ 551960.340530179208145, 4354258.644069199450314 ], [ 551801.856363860773854, 4354071.364370289258659 ] ] ] } },
{ "type": "Feature", "properties": { "name": "surf_dune_07", "refinement_level": 3, "zmin": -8.0, "zmax": 3.0, "why": "25 m surf zone / foredune / barrier: 2.5 km buffer of ONE shoreline segment, clipped to the ring. Split per segment so each polygon's bbox is small - the first probe (one ring-wide L3 polygon) hit 158 GB RSS and was killed, 2026-08-24." }, "geometry": { "type": "Polygon", "coordinates": [ [ [ 537382.724724078900181, 4344605.151377032510936 ], [ 537159.735512474086136, 4344502.844348411075771 ], [ 536927.792212491156533, 4344422.886720941402018 ], [ 536689.128564902115613, 4344366.04853028524667 ], [ 536446.043031099950895, 4344332.877159290015697 ], [ 536200.876657659420744, 4344323.692066391929984 ], [ 535955.990530778188258, 4344338.581709056161344 ], [ 535713.743037726613693, 4344377.402691884897649 ], [ 535476.46715428866446, 4344439.781147590838373 ], [ 535246.447976930066943, 4344525.116337546147406 ], [ 535025.900716069969349, 4344632.586437223479152 ], [ 534816.94936239393428, 4344761.156450813636184 ], [ 534621.606231662328355, 4344909.588178801350296 ], [ 534441.752585009438917, 4345076.452142505906522 ], [ 534279.120511370478198, 4345260.141350739635527 ], [ 534135.276246518478729, 4345458.8867760123685 ], [ 534011.605089357239194, 4345670.774391232989728 ], [ 533909.298060735571198, 4345893.763602837920189 ], [ 533829.340433265897445, 4346125.706902820616961 ], [ 533772.502242610207759, 4346364.370550409890711 ], [ 533739.330871615093201, 4346607.456084211356938 ], [ 533730.145778716891073, 4346852.62245765235275 ], [ 533745.035421381122433, 4347097.508584533818066 ], [ 533783.856404209393077, 4347339.756077584810555 ], [ 533846.234859915450215, 4347577.031961022876203 ], [ 533931.570049871341325, 4347807.05113838147372 ], [ 534039.040149548673071, 4348027.598399241454899 ], [ 534167.610163138480857, 4348236.549752918072045 ], [ 534316.041891126544215, 4348431.892883649095893 ], [ 534482.905854831100442, 4348611.746530302800238 ], [ 534666.595063064596616, 4348774.378603940829635 ], [ 534865.340488336980343, 4348918.222868793644011 ], [ 548610.379597546881996, 4357872.714045329019427 ], [ 548822.26721276761964, 4357996.385202489793301 ], [ 549045.256424372433685, 4358098.692231111228466 ], [ 549277.199724355363287, 4358178.649858580902219 ], [ 549515.863371944404207, 4358235.488049237057567 ], [ 549758.948905746568926, 4358268.659420232288539 ], [ 550004.115279187099077, 4358277.844513130374253 ], [ 550249.001406068331562, 4358262.954870466142893 ], [ 550491.248899119906127, 4358224.133887637406588 ], [ 550728.52478255785536, 4358161.755431931465864 ], [ 550958.543959916452877, 4358076.420241976156831 ], [ 551179.091220776550472, 4357968.950142298825085 ], [ 551388.042574452585541, 4357840.380128708668053 ], [ 551583.385705184191465, 4357691.948400720953941 ], [ 551763.239351837080903, 4357525.084437016397715 ], [ 551925.871425476041622, 4357341.39522878266871 ], [ 552069.715690328041092, 4357142.649803509935737 ], [ 552193.386847489280626, 4356930.762188289314508 ], [ 552295.693876110948622, 4356707.772976684384048 ], [ 552375.651503580622375, 4356475.829676701687276 ], [ 552432.489694236312062, 4356237.166029112413526 ], [ 552465.661065231426619, 4355994.080495310947299 ], [ 552474.846158129628748, 4355748.914121869951487 ], [ 552459.956515465397388, 4355504.027994988486171 ], [ 552421.135532637126744, 4355261.780501937493682 ], [ 552358.757076931069605, 4355024.504618499428034 ], [ 552273.421886975178495, 4354794.485441140830517 ], [ 552165.951787297846749, 4354573.938180280849338 ], [ 552037.381773708038963, 4354364.986826604232192 ], [ 551888.950045719975606, 4354169.643695873208344 ], [ 551722.086082015419379, 4353989.790049219503999 ], [ 551538.396873781923205, 4353827.157975581474602 ], [ 551339.651448509539478, 4353683.313710728660226 ], [ 537594.612339299637824, 4344728.82253419328481 ], [ 537382.724724078900181, 4344605.151377032510936 ] ] ] } },
{ "type": "Feature", "properties": { "name": "surf_dune_08", "refinement_level": 3, "zmin": -8.0, "zmax": 3.0, "why": "25 m surf zone / foredune / barrier: 2.5 km buffer of ONE shoreline segment, clipped to the ring. Split per segment so each polygon's bbox is small - the first probe (one ring-wide L3 polygon) hit 158 GB RSS and was killed, 2026-08-24." }, "geometry": { "type": "Polygon", "coordinates": [ [ [ 529611.465763895888813, 4331920.162286491133273 ], [ 529449.995342992828228, 4331735.45110715739429 ], [ 529271.197584715555422, 4331567.456231542862952 ], [ 529076.794409217080101, 4331417.795542136766016 ], [ 528868.658025349024683, 4331287.910353189334273 ], [ 528648.792900267057121, 4331179.051530073396862 ], [ 528419.316455316031352, 4331092.267442763783038 ], [ 528182.438674105564132, 4331028.393869461491704 ], [ 527940.440819159266539, 4330988.045947595499456 ], [ 527695.653462109621614, 4330971.612249709665775 ], [ 527450.434039019630291, 4330979.251041296869516 ], [ 527207.144146983977407, 4331010.888756619766355 ], [ 526968.126800658879802, 4331066.22070718370378 ], [ 526735.683867749641649, 4331144.71401605848223 ], [ 526512.053900766419247, 4331245.612749770283699 ], [ 526299.390578539692797, 4331367.945198356173933 ], [ 526099.741965116234496, 4331510.533233462832868 ], [ 525915.030785782379098, 4331672.003654366359115 ], [ 525747.035910168313421, 4331850.801412642933428 ], [ 525597.375220761750825, 4332045.204588142223656 ], [ 525467.490031814435497, 4332253.340972010046244 ], [ 525358.631208698498085, 4332473.206097091548145 ], [ 525271.847121388651431, 4332702.682542042806745 ], [ 525207.973548086825758, 4332939.560323253273964 ], [ 525167.625626220717095, 4333181.558178199455142 ], [ 525151.191928334301338, 4333426.345535249449313 ], [ 525158.830719921854325, 4333671.564958339557052 ], [ 525190.468435244634748, 4333914.85485037509352 ], [ 525245.800385809037834, 4334153.872196699492633 ], [ 525324.293694683699869, 4334386.315129608847201 ], [ 525425.192428395152092, 4334609.945096592418849 ], [ 525547.524876981158741, 4334822.608418819494545 ], [ 534126.711952807498164, 4348174.921460946090519 ], [ 534269.299987914389931, 4348374.570074369199574 ], [ 534430.770408817450516, 4348559.281253702938557 ], [ 534609.568167094723321, 4348727.276129317469895 ], [ 534803.971342593198642, 4348876.93681872356683 ], [ 535012.10772646125406, 4349006.822007670998573 ], [ 535231.972851543221623, 4349115.680830786935985 ], [ 535461.449296494247392, 4349202.464918096549809 ], [ 535698.327077704714611, 4349266.338491398841143 ], [ 535940.324932651012205, 4349306.686413264833391 ], [ 536185.112289700657129, 4349323.120111150667071 ], [ 536430.331712790648453, 4349315.48131956346333 ], [ 536673.621604826301336, 4349283.843604240566492 ], [ 536912.638951151398942, 4349228.511653676629066 ], [ 537145.081884060637094, 4349150.018344801850617 ], [ 537368.711851043859497, 4349049.119611090049148 ], [ 537581.375173270585947, 4348926.787162504158914 ], [ 537781.023786694044247, 4348784.199127397499979 ], [ 537965.734966027899645, 4348622.728706493973732 ], [ 538133.729841641965322, 4348443.930948217399418 ], [ 538283.390531048527919, 4348249.52777271810919 ], [ 538413.275719995843247, 4348041.391388850286603 ], [ 538522.134543111780658, 4347821.526263768784702 ], [ 538608.918630421627313, 4347592.049818817526102 ], [ 538672.792203723452985, 4347355.172037607058883 ], [ 538713.140125589561649, 4347113.174182660877705 ], [ 538729.573823475977406, 4346868.386825610883534 ], [ 538721.935031888424419, 4346623.167402520775795 ], [ 538690.297316565643996, 4346379.877510485239327 ], [ 538634.965366001240909, 4346140.860164160840213 ], [ 538556.472057126578875, 4345908.417231251485646 ], [ 538455.573323415126652, 4345684.787264267913997 ], [ 538333.240874829120003, 4345472.123942040838301 ], [ 529754.053799002780579, 4332119.810899914242327 ], [ 529611.465763895888813, 4331920.162286491133273 ] ] ] } },
{ "type": "Feature", "properties": { "name": "surf_dune_09", "refinement_level": 3, "zmin": -8.0, "zmax": 3.0, "why": "25 m surf zone / foredune / barrier: 2.5 km buffer of ONE shoreline segment, clipped to the ring. Split per segment so each polygon's bbox is small - the first probe (one ring-wide L3 polygon) hit 158 GB RSS and was killed, 2026-08-24." }, "geometry": { "type": "Polygon", "coordinates": [ [ [ 526198.532021419960074, 4326393.900942551903427 ], [ 526040.252916681231, 4326206.447904164902866 ], [ 525864.362358324928209, 4326035.41156861372292 ], [ 525672.554268579930067, 4325882.439109308645129 ], [ 525466.675864203134552, 4325749.003734655678272 ], [ 525248.709866773453541, 4325636.390500254929066 ], [ 525020.755407998454757, 4325545.683933116495609 ], [ 524785.007813928532414, 4325477.757587065920234 ], [ 524543.737462767632678, 4325433.265629947185516 ], [ 524299.267919889069162, 4325412.636543630622327 ], [ 524053.953560631314758, 4325416.068997493945062 ], [ 523810.156896376633085, 4325443.529935128986835 ], [ 523570.225822274573147, 4325494.754892696626484 ], [ 523336.471005728410091, 4325569.250545851886272 ], [ 523111.143633404804859, 4325666.299460731446743 ], [ 522896.413731075823307, 4325784.96700323279947 ], [ 522694.34926508407807, 4325924.110340051352978 ], [ 522506.896226696786471, 4326082.389444789849222 ], [ 522335.859891145897564, 4326258.280003146268427 ], [ 522182.887431840703357, 4326450.0880928914994 ], [ 522049.452057187561877, 4326655.966497267596424 ], [ 521936.838822787627578, 4326873.932494697161019 ], [ 521846.13225564872846, 4327101.886953472159803 ], [ 521778.205909597803839, 4327337.634547542780638 ], [ 521733.713952479534782, 4327578.904898703098297 ], [ 521713.084866162855178, 4327823.374441581778228 ], [ 521716.517320025828667, 4328068.688800839707255 ], [ 521743.978257661568932, 4328312.485465094447136 ], [ 521795.203215228801128, 4328552.41653919685632 ], [ 521869.698868383886293, 4328786.171355742961168 ], [ 521966.747783263388555, 4329011.498728065751493 ], [ 522085.415325764741283, 4329226.22863039560616 ], [ 525524.659321755054407, 4334786.341270293109119 ], [ 525663.802658573607914, 4334988.405736284330487 ], [ 525822.081763312453404, 4335175.858774671331048 ], [ 525997.972321668639779, 4335346.895110222510993 ], [ 526189.780411413754337, 4335499.867569527588785 ], [ 526395.658815790433437, 4335633.302944180555642 ], [ 526613.624813220230862, 4335745.916178581304848 ], [ 526841.579271995229647, 4335836.622745719738305 ], [ 527077.326866065035574, 4335904.54909177031368 ], [ 527318.59721722593531, 4335949.041048889048398 ], [ 527563.066760104615241, 4335969.670135205611587 ], [ 527808.381119362311438, 4335966.237681342288852 ], [ 528052.177783616934903, 4335938.776743707247078 ], [ 528292.108857718994841, 4335887.55178613960743 ], [ 528525.863674265216105, 4335813.056132984347641 ], [ 528751.191046588821337, 4335716.007218104787171 ], [ 528965.920948917861097, 4335597.339675603434443 ], [ 529167.985414909548126, 4335458.196338784880936 ], [ 529355.438453296897933, 4335299.917234046384692 ], [ 529526.474788847728632, 4335124.026675689965487 ], [ 529679.447248152922839, 4334932.218585944734514 ], [ 529812.882622806122527, 4334726.34018156863749 ], [ 529925.495857206056826, 4334508.374184139072895 ], [ 530016.202424344839528, 4334280.419725364074111 ], [ 530084.12877039576415, 4334044.672131293453276 ], [ 530128.620727514033206, 4333803.401780133135617 ], [ 530149.249813830829225, 4333558.932237254455686 ], [ 530145.817359967739321, 4333313.617877996526659 ], [ 530118.356422332115471, 4333069.821213741786778 ], [ 530067.131464764825068, 4332829.890139639377594 ], [ 529992.635811609681696, 4332596.135323093272746 ], [ 529895.58689673023764, 4332370.807950770482421 ], [ 529776.919354228884913, 4332156.078048440627754 ], [ 526337.675358238513581, 4326595.965408543124795 ], [ 526198.532021419960074, 4326393.900942551903427 ] ] ] } },
{ "type": "Feature", "properties": { "name": "surf_dune_10", "refinement_level": 3, "zmin": -8.0, "zmax": 3.0, "why": "25 m surf zone / foredune / barrier: 2.5 km buffer of ONE shoreline segment, clipped to the ring. Split per segment so each polygon's bbox is small - the first probe (one ring-wide L3 polygon) hit 158 GB RSS and was killed, 2026-08-24." }, "geometry": { "type": "Polygon", "coordinates": [ [ [ 522949.722786228579935, 4318903.086578395217657 ], [ 522818.677950537938159, 4318695.678363426588476 ], [ 522667.934571437363047, 4318502.113515753298998 ], [ 522498.944390072138049, 4318324.25617067143321 ], [ 522313.334874268388376, 4318163.819191640242934 ], [ 522112.893545127706602, 4318022.347674472257495 ], [ 521899.550762222148478, 4317901.204067213460803 ], [ 521675.361133176076692, 4317801.555049025453627 ], [ 521442.483726671722252, 4317724.360294428654015 ], [ 521203.161279437481426, 4317670.36323110666126 ], [ 520959.698597467213403, 4317640.083880298770964 ], [ 520714.440359478467144, 4317633.813848704099655 ], [ 520469.748536374885589, 4317651.613520155660808 ], [ 520227.979644175095018, 4317693.311474086716771 ], [ 519991.462049475347158, 4317758.506136406213045 ], [ 519762.473546006251127, 4317846.569646878167987 ], [ 519543.21941823407542, 4317956.653905753977597 ], [ 519335.811203265679069, 4318087.698741445317864 ], [ 519142.246355592214968, 4318238.44212054554373 ], [ 518964.389010509941727, 4318407.432301910594106 ], [ 518803.952031478867866, 4318593.041817714460194 ], [ 518662.480514310707804, 4318793.483146855607629 ], [ 518541.336907052027527, 4319006.825929760932922 ], [ 518441.68788886454422, 4319231.015558807179332 ], [ 518364.493134267162532, 4319463.892965311184525 ], [ 518310.49607094557723, 4319703.215412545017898 ], [ 518280.216720137337688, 4319946.678094515576959 ], [ 518273.946688543073833, 4320191.93633250426501 ], [ 518291.746359994693194, 4320436.62815560773015 ], [ 518333.444313925749157, 4320678.397047807462513 ], [ 518398.638976245478261, 4320914.914642507210374 ], [ 518486.702486716734711, 4321143.903145976364613 ], [ 521924.993062807479873, 4328921.878239373676479 ], [ 522035.077321683987975, 4329141.132367146201432 ], [ 522166.122157374629751, 4329348.540582114830613 ], [ 522316.865536475204863, 4329542.105429788120091 ], [ 522485.855717840429861, 4329719.962774869985878 ], [ 522671.465233644179534, 4329880.399753901176155 ], [ 522871.906562784861308, 4330021.871271069161594 ], [ 523085.249345690419432, 4330143.014878327958286 ], [ 523309.438974736491218, 4330242.663896515965462 ], [ 523542.316381240845658, 4330319.858651112765074 ], [ 523781.638828475086484, 4330373.855714434757829 ], [ 524025.101510445354506, 4330404.135065242648125 ], [ 524270.359748434100766, 4330410.405096837319434 ], [ 524515.051571537740529, 4330392.605425385758281 ], [ 524756.820463737472892, 4330350.907471454702318 ], [ 524993.338058437220752, 4330285.712809135206044 ], [ 525222.326561906258576, 4330197.649298663251102 ], [ 525441.580689678550698, 4330087.565039787441492 ], [ 525648.988904646830633, 4329956.520204096101224 ], [ 525842.553752320352942, 4329805.776824995875359 ], [ 526020.411097402567975, 4329636.786643630824983 ], [ 526180.848076433758251, 4329451.177127826958895 ], [ 526322.319593601860106, 4329250.73579868581146 ], [ 526443.463200860540383, 4329037.393015780486166 ], [ 526543.112219047965482, 4328813.203386734239757 ], [ 526620.306973645347171, 4328580.325980230234563 ], [ 526674.30403696699068, 4328341.003532996401191 ], [ 526704.583387775230221, 4328097.54085102584213 ], [ 526710.853419369435869, 4327852.282613037154078 ], [ 526693.053747917874716, 4327607.590789933688939 ], [ 526651.355793986818753, 4327365.821897733956575 ], [ 526586.161131667089649, 4327129.304303034208715 ], [ 526498.097621195833199, 4326900.315799565054476 ], [ 523059.807045105088037, 4319122.34070616774261 ], [ 522949.722786228579935, 4318903.086578395217657 ] ] ] } },
{ "type": "Feature", "properties": { "name": "surf_dune_11", "refinement_level": 3, "zmin": -8.0, "zmax": 3.0, "why": "25 m surf zone / foredune / barrier: 2.5 km buffer of ONE shoreline segment, clipped to the ring. Split per segment so each polygon's bbox is small - the first probe (one ring-wide L3 polygon) hit 158 GB RSS and was killed, 2026-08-24." }, "geometry": { "type": "Polygon", "coordinates": [ [ [ 518069.341931535105687, 4313775.346403391100466 ], [ 517874.482614761218429, 4313626.280098466202617 ], [ 517665.950545929837972, 4313497.031141540035605 ], [ 517445.754002859001048, 4313388.844270722940564 ], [ 517216.013598630204797, 4313302.761384721845388 ], [ 516978.941858925041743, 4313239.611508785746992 ], [ 516736.821914193453267, 4313200.002810741774738 ], [ 516491.985511859471444, 4313184.316744005307555 ], [ 516246.790560318739153, 4313192.704373971559107 ], [ 516003.59842099173693, 4313225.084923181682825 ], [ 515764.751167122565676, 4313281.146549243479967 ], [ 515532.549028333218303, 4313360.349348052404821 ], [ 515309.228238154842984, 4313461.930553359910846 ], [ 515096.939497876330279, 4313584.911882627755404 ], [ 514897.727264115412254, 4313728.108958426862955 ], [ 514713.510059583757538, 4313890.142714638262987 ], [ 514546.061996664386243, 4314069.452677613124251 ], [ 514396.995691739546601, 4314264.311994387768209 ], [ 514267.74673481361242, 4314472.844063218683004 ], [ 514159.559863996459171, 4314693.040606290102005 ], [ 514073.476977995072957, 4314922.781010518781841 ], [ 514010.327102059265599, 4315159.85275022406131 ], [ 513970.718404015584383, 4315401.972694954834878 ], [ 513955.032337278476916, 4315646.80909728910774 ], [ 513963.419967245485168, 4315892.004048829898238 ], [ 513995.800516454910394, 4316135.196188157424331 ], [ 514051.862142516823951, 4316374.043442025780678 ], [ 514131.06494132586522, 4316606.245580815710127 ], [ 514232.646146632905584, 4316829.566370993852615 ], [ 514355.627475900808349, 4317041.855111272074282 ], [ 514498.824551700381562, 4317241.067345033399761 ], [ 514660.858307912072632, 4317425.284549565054476 ], [ 518979.357972611906007, 4321874.366967699490488 ], [ 519158.667935586883686, 4322041.815030618570745 ], [ 519353.527252360770945, 4322190.881335543468595 ], [ 519562.059321192151401, 4322320.130292469635606 ], [ 519782.255864262988325, 4322428.317163286730647 ], [ 520011.996268491784576, 4322514.400049287825823 ], [ 520249.06800819694763, 4322577.54992522392422 ], [ 520491.187952928536106, 4322617.158623267896473 ], [ 520736.024355262517929, 4322632.844690004363656 ], [ 520981.21930680325022, 4322624.457060038112104 ], [ 521224.411446130252443, 4322592.076510827988386 ], [ 521463.258699999423698, 4322536.014884766191244 ], [ 521695.460838788771071, 4322456.81208595726639 ], [ 521918.781628967146389, 4322355.230880649760365 ], [ 522131.070369245659094, 4322232.249551381915808 ], [ 522330.282603006577119, 4322089.052475582808256 ], [ 522514.499807538231835, 4321927.018719371408224 ], [ 522681.94787045760313, 4321747.70875639654696 ], [ 522831.014175382442772, 4321552.849439621903002 ], [ 522960.263132308376953, 4321344.317370790988207 ], [ 523068.450003125530202, 4321124.120827719569206 ], [ 523154.532889126916416, 4320894.38042349088937 ], [ 523217.682765062723774, 4320657.308683785609901 ], [ 523257.29146310640499, 4320415.188739054836333 ], [ 523272.977529843512457, 4320170.352336720563471 ], [ 523264.589899876504205, 4319925.157385179772973 ], [ 523232.209350667078979, 4319681.965245852246881 ], [ 523176.147724605165422, 4319443.117991983890533 ], [ 523096.944925796124153, 4319210.915853193961084 ], [ 522995.363720489083789, 4318987.595063015818596 ], [ 522872.382391221181024, 4318775.306322737596929 ], [ 522729.185315421607811, 4318576.094088976271451 ], [ 522567.151559209916741, 4318391.876884444616735 ], [ 518248.651894510083366, 4313942.794466310180724 ], [ 518069.341931535105687, 4313775.346403391100466 ] ] ] } },
{ "type": "Feature", "properties": { "name": "surf_dune_12", "refinement_level": 3, "zmin": -8.0, "zmax": 3.0, "why": "25 m surf zone / foredune / barrier: 2.5 km buffer of ONE shoreline segment, clipped to the ring. Split per segment so each polygon's bbox is small - the first probe (one ring-wide L3 polygon) hit 158 GB RSS and was killed, 2026-08-24." }, "geometry": { "type": "Polygon", "coordinates": [ [ [ 510100.191027961263899, 4306964.511663995683193 ], [ 509892.466272442368791, 4306833.96917075291276 ], [ 509672.946366518968716, 4306724.415861806832254 ], [ 509443.745406887086574, 4306636.906795412302017 ], [ 509207.070724081771914, 4306572.284731714054942 ], [ 508965.201624678156804, 4306531.17201651353389 ], [ 508720.467440322507173, 4306513.964587730355561 ], [ 508475.225094995461404, 4306520.828162312507629 ], [ 508231.836406545655336, 4306551.696640282869339 ], [ 507992.645341092720628, 4306606.272741325199604 ], [ 507759.955439351964742, 4306684.030867752619088 ], [ 507536.007632278488018, 4306784.222166299819946 ], [ 507322.958659676718526, 4306905.881739990785718 ], [ 507122.860299617168494, 4307047.837940627709031 ], [ 506937.639608692203183, 4307208.723652394488454 ], [ 506769.080363407265395, 4307386.989457938820124 ], [ 506618.805881438369397, 4307580.918560104444623 ], [ 506488.263388195249718, 4307788.643315623514354 ], [ 506378.710079249576665, 4308008.163221546448767 ], [ 506291.201012854464352, 4308237.364181178621948 ], [ 506226.578949156682938, 4308474.038863983936608 ], [ 506185.466233955521602, 4308715.907963387668133 ], [ 506168.258805172925349, 4308960.642147743143141 ], [ 506175.122379754669964, 4309205.884493069723248 ], [ 506205.990857725439128, 4309449.273181519471109 ], [ 506260.566958768002223, 4309688.464246972464025 ], [ 506338.325085194897838, 4309921.154148713685572 ], [ 506438.516383741865866, 4310145.101955787278712 ], [ 506560.175957433588337, 4310358.150928388349712 ], [ 506702.132158069696743, 4310558.249288448132575 ], [ 506863.017869836825412, 4310743.469979372806847 ], [ 507041.283675381564535, 4310912.029224658384919 ], [ 514828.33687383873621, 4317582.66104728449136 ], [ 515022.265976003720425, 4317732.935529253445566 ], [ 515229.990731522615533, 4317863.478022496215999 ], [ 515449.510637446015608, 4317973.031331442296505 ], [ 515678.71159707789775, 4318060.540397836826742 ], [ 515915.38627988321241, 4318125.162461535073817 ], [ 516157.25537928682752, 4318166.275176735594869 ], [ 516401.989563642477151, 4318183.482605518773198 ], [ 516647.23190896952292, 4318176.61903093662113 ], [ 516890.620597419328988, 4318145.75055296625942 ], [ 517129.811662872263696, 4318091.174451923929155 ], [ 517362.501564613019582, 4318013.416325496509671 ], [ 517586.449371686496306, 4317913.225026949308813 ], [ 517799.498344288265798, 4317791.565453258343041 ], [ 517999.59670434781583, 4317649.609252621419728 ], [ 518184.817395272781141, 4317488.723540854640305 ], [ 518353.376640557718929, 4317310.457735310308635 ], [ 518503.651122526614927, 4317116.528633144684136 ], [ 518634.193615769734606, 4316908.803877625614405 ], [ 518743.746924715407658, 4316689.283971702679992 ], [ 518831.255991110519972, 4316460.083012070506811 ], [ 518895.878054808301385, 4316223.408329265192151 ], [ 518936.990770009462722, 4315981.539229861460626 ], [ 518954.198198792058975, 4315736.805045505985618 ], [ 518947.33462421031436, 4315491.56270017940551 ], [ 518916.466146239545196, 4315248.17401172965765 ], [ 518861.890045196982101, 4315008.982946276664734 ], [ 518784.131918770086486, 4314776.293044535443187 ], [ 518683.940620223118458, 4314552.345237461850047 ], [ 518562.281046531395987, 4314339.296264860779047 ], [ 518420.324845895287581, 4314139.197904800996184 ], [ 518259.439134128158912, 4313953.977213876321912 ], [ 518081.173328583419789, 4313785.41796859074384 ], [ 510294.120130126248114, 4307114.786145964637399 ], [ 510100.191027961263899, 4306964.511663995683193 ] ] ] } },
{ "type": "Feature", "properties": { "name": "surf_dune_13", "refinement_level": 3, "zmin": -8.0, "zmax": 3.0, "why": "25 m surf zone / foredune / barrier: 2.5 km buffer of ONE shoreline segment, clipped to the ring. Split per segment so each polygon's bbox is small - the first probe (one ring-wide L3 polygon) hit 158 GB RSS and was killed, 2026-08-24." }, "geometry": { "type": "Polygon", "coordinates": [ [ [ 503223.947675143019296, 4306521.265966387465596 ], [ 502981.237156318500638, 4306557.078263849020004 ], [ 502743.205573967425153, 4306616.507906292565167 ], [ 502512.145302349119447, 4306698.98255377355963 ], [ 502290.281578189693391, 4306803.707930353470147 ], [ 502079.7510704358574, 4306929.675473405048251 ], [ 501882.581302965001669, 4307075.67204662784934 ], [ 501700.671128421730828, 4307240.291623213328421 ], [ 501535.772441229142714, 4307421.948826648294926 ], [ 501389.473305887775496, 4307618.894198759458959 ], [ 501300.358920139493421, 4307767.314055481925607 ], [ 501299.950409776007291, 4310250.688407300971448 ], [ 501387.340750703879166, 4310396.744545276276767 ], [ 501533.337323927436955, 4310593.914312747307122 ], [ 501697.956900512916036, 4310775.824487290345132 ], [ 501879.614103947591502, 4310940.723174482584 ], [ 502076.559476058464497, 4311087.022309824824333 ], [ 502286.896325250854716, 4311213.312952665612102 ], [ 502508.598992685205303, 4311318.37885507941246 ], [ 502739.532360479119234, 4311401.208174990490079 ], [ 502977.472414059680887, 4311461.003220768645406 ], [ 503220.127660639642272, 4311497.188133436255157 ], [ 503465.161197545647155, 4311509.414432503283024 ], [ 508665.782653793867212, 4311513.406948608346283 ], [ 508910.834674116573296, 4311501.556888130493462 ], [ 509153.545192941091955, 4311465.744590668939054 ], [ 509391.57677529216744, 4311406.314948225393891 ], [ 509622.637046910473146, 4311323.840300744399428 ], [ 509844.500771069899201, 4311219.114924164488912 ], [ 510055.031278823735192, 4311093.147381112910807 ], [ 510252.201046294590924, 4310947.150807890109718 ], [ 510434.111220837861765, 4310782.531231304630637 ], [ 510599.009908030449878, 4310600.874027869664133 ], [ 510745.309043371817097, 4310403.928655758500099 ], [ 510871.59968621347798, 4310193.591806566342711 ], [ 510976.665588627336547, 4309971.889139131642878 ], [ 511059.49490853829775, 4309740.955771338194609 ], [ 511119.289954316453077, 4309503.015717757865787 ], [ 511155.47486698377179, 4309260.360471177846193 ], [ 511167.701166050508618, 4309015.326934271492064 ], [ 511155.851105573063251, 4308770.274913948960602 ], [ 511120.038808111741673, 4308527.564395124092698 ], [ 511060.609165668138303, 4308289.532812773250043 ], [ 510978.134518186503556, 4308058.472541155293584 ], [ 510873.409141607291531, 4307836.608816995285451 ], [ 510747.441598555713426, 4307626.078309241682291 ], [ 510601.445025332155637, 4307428.908541770651937 ], [ 510436.825448746676557, 4307246.998367227613926 ], [ 510255.16824531200109, 4307082.099680035375059 ], [ 510058.222873201128095, 4306935.800544693134725 ], [ 509847.886024008737877, 4306809.509901852346957 ], [ 509626.18335657438729, 4306704.443999438546598 ], [ 509395.249988780473359, 4306621.614679527468979 ], [ 509157.309935199911706, 4306561.819633749313653 ], [ 508914.654688619950321, 4306525.634721081703901 ], [ 508669.621151713945437, 4306513.408422014676034 ], [ 503468.999695465725381, 4306509.415905909612775 ], [ 503223.947675143019296, 4306521.265966387465596 ] ] ] } },
{ "type": "Feature", "properties": { "name": "coastal_corridor", "refinement_level": 2, "zmin": -20.0, "zmax": 5.0, "why": "50 m along the Monmouth coastal strip, matching v1's working resolution so the open coast stays comparable between the two domains. RESTORED VERBATIM 2026-08-31: this polygon was dropped unrecorded when refinement_v3 was built (STATUS 08-31) — the bay margin/estuaries ran at 50 m while v1.5 had 25 m. User chose verbatim restore over the FINDINGS §38 zmax raise: v1.5<->v3 comparability is the point of the rebuild." }, "geometry": { "type": "Polygon", "coordinates": [ [ [ 576712.090602736920118, 4439244.435618843883276 ], [ 591202.419561862829141, 4439404.909566074609756 ], [ 590666.062407851917669, 4483804.586260628886521 ], [ 576260.96832721028477, 4483643.737557990476489 ], [ 576712.090602736920118, 4439244.435618843883276 ] ] ] } },
{ "type": "Feature", "properties": { "name": "shrewsbury_navesink", "refinement_level": 3, "zmin": -8.0, "zmax": 3.0, "why": "25 m through the behind-barrier estuaries — the conveyance test, and the basin where a throttled inlet has twice been mistaken for a boundary problem. RESTORED VERBATIM 2026-08-31: this polygon was dropped unrecorded when refinement_v3 was built (STATUS 08-31) — the bay margin/estuaries ran at 50 m while v1.5 had 25 m. User chose verbatim restore over the FINDINGS §38 zmax raise: v1.5<->v3 comparability is the point of the rebuild." }, "geometry": { "type": "Polygon", "coordinates": [ [ [ 578152.13543048792053, 4464791.132492125034332 ], [ 588346.065755450981669, 4464903.987043126486242 ], [ 588228.587258015759289, 4474894.023971896618605 ], [ 578048.21524982189294, 4474781.111129491589963 ], [ 578152.13543048792053, 4464791.132492125034332 ] ] ] } },
{ "type": "Feature", "properties": { "name": "bay_fringe", "refinement_level": 3, "zmin": -1.0, "zmax": 2.0, "why": "25 m on the bay MARGIN only. The band is the whole point: the bay interior is deeper than -1 m so it stays at 50 m, and only shoreline, marsh and mudflat — where wetting is threshold-nonlinear — are refined. RESTORED VERBATIM 2026-08-31: this polygon was dropped unrecorded when refinement_v3 was built (STATUS 08-31) — the bay margin/estuaries ran at 50 m while v1.5 had 25 m. User chose verbatim restore over the FINDINGS §38 zmax raise: v1.5<->v3 comparability is the point of the rebuild." }, "geometry": { "type": "Polygon", "coordinates": [ [ [ 559401.921148209134117, 4472390.031128573231399 ], [ 590800.568800935288891, 4472704.388377278111875 ], [ 590504.28859654138796, 4497125.069237785413861 ], [ 559208.10901358735282, 4496810.326558878645301 ], [ 559401.921148209134117, 4472390.031128573231399 ] ] ] } }
]
}
