{
"type": "FeatureCollection",
"name": "refinement_v1_5_raritan.geojson",
"crs": { "type": "name", "properties": { "name": "urn:ogc:def:crs:EPSG::32618" } },
"features": [
{ "type": "Feature", "properties": { "name": "shelf_shoaling", "refinement_level": 1, "zmin": -30.0, "zmax": -8.0, "why": "100 m across the shoaling band. Deeper than -30 m is outside create_active anyway; shallower than -8 m is picked up by the surf gate at 25 m." }, "geometry": { "type": "Polygon", "coordinates": [ [ [ 576712.090602736920118, 4439244.435618843883276 ], [ 632117.108570634154603, 4440007.575102536007762 ], [ 631222.899119574576616, 4491069.066995481960475 ], [ 576192.977449883706868, 4490303.89204418938607 ], [ 576712.090602736920118, 4439244.435618843883276 ] ] ] } },
{ "type": "Feature", "properties": { "name": "inland_floodplain", "refinement_level": 1, "zmin": 0.0, "zmax": 9.0, "why": "100 m on inland ground so land steps 50 -> 100 -> 200 m rather than jumping two levels at once, which makes a visible stair in the flood edge." }, "geometry": { "type": "Polygon", "coordinates": [ [ [ 559664.792181183816865, 4439091.107753312215209 ], [ 589497.668219896382652, 4439384.592387075535953 ], [ 588944.908289142418653, 4486004.281265298835933 ], [ 559296.314314884482883, 4485710.078371373936534 ], [ 559664.792181183816865, 4439091.107753312215209 ] ] ] } },
{ "type": "Feature", "properties": { "name": "bay_water", "refinement_level": 2, "zmin": -20.0, "zmax": 3.0, "why": "50 m over Raritan / Lower / Sandy Hook Bay — the water this domain exists to COMPUTE. The working resolution for the interior." }, "geometry": { "type": "Polygon", "coordinates": [ [ [ 559401.921148209134117, 4472390.031128573231399 ], [ 590800.568800935288891, 4472704.388377278111875 ], [ 590504.28859654138796, 4497125.069237785413861 ], [ 559208.10901358735282, 4496810.326558878645301 ], [ 559401.921148209134117, 4472390.031128573231399 ] ] ] } },
{ "type": "Feature", "properties": { "name": "coastal_corridor", "refinement_level": 2, "zmin": -20.0, "zmax": 5.0, "why": "50 m along the Monmouth coastal strip, matching v1's working resolution so the open coast stays comparable between the two domains." }, "geometry": { "type": "Polygon", "coordinates": [ [ [ 576712.090602736920118, 4439244.435618843883276 ], [ 591202.419561862829141, 4439404.909566074609756 ], [ 590666.062407851917669, 4483804.586260628886521 ], [ 576260.96832721028477, 4483643.737557990476489 ], [ 576712.090602736920118, 4439244.435618843883276 ] ] ] } },
{ "type": "Feature", "properties": { "name": "narrows_cut", "refinement_level": 3, "zmin": -40.0, "zmax": 2.0, "why": "25 m across the Verrazzano Narrows: ~1.9 km / 25 m = ~76 cells carrying the Upper Bay + Hudson tidal prism. This cut IS the measurement (crs flux), so it is the one place resolution is not negotiable." }, "geometry": { "type": "Polygon", "coordinates": [ [ [ 578280.335347010404803, 4493100.899463043548167 ], [ 582934.910449819872156, 4493151.244928791187704 ], [ 582885.477021661121398, 4497591.420084510929883 ], [ 578233.676859059487469, 4497541.063640928827226 ], [ 578280.335347010404803, 4493100.899463043548167 ] ] ] } },
{ "type": "Feature", "properties": { "name": "arthur_kill_cut", "refinement_level": 3, "zmin": -40.0, "zmax": 2.0, "why": "25 m across the Arthur Kill mouth: ~1.46 km / 25 m = ~58 cells." }, "geometry": { "type": "Polygon", "coordinates": [ [ [ 560593.952500134008005, 4482390.233883951790631 ], [ 564831.330560686415993, 4482425.771336868405342 ], [ 564802.450128975789994, 4485755.816421220079064 ], [ 560566.959930752054788, 4485720.273021642118692 ], [ 560593.952500134008005, 4482390.233883951790631 ] ] ] } },
{ "type": "Feature", "properties": { "name": "surf_dune", "refinement_level": 3, "zmin": -8.0, "zmax": 3.0, "why": "25 m in the surf zone, foredune and barrier. Gated -8..+3 m so it cannot reach back into the bay, which shares part of that depth band." }, "geometry": { "type": "Polygon", "coordinates": [ [ [ 580973.938991163508035, 4439288.758129782043397 ], [ 591202.419561862829141, 4439404.909566074609756 ], [ 590666.062407851917669, 4483804.586260628886521 ], [ 580497.748753068386577, 4483688.163586883805692 ], [ 580973.938991163508035, 4439288.758129782043397 ] ] ] } },
{ "type": "Feature", "properties": { "name": "shrewsbury_navesink", "refinement_level": 3, "zmin": -8.0, "zmax": 3.0, "why": "25 m through the behind-barrier estuaries — the conveyance test, and the basin where a throttled inlet has twice been mistaken for a boundary problem." }, "geometry": { "type": "Polygon", "coordinates": [ [ [ 578152.13543048792053, 4464791.132492125034332 ], [ 588346.065755450981669, 4464903.987043126486242 ], [ 588228.587258015759289, 4474894.023971896618605 ], [ 578048.21524982189294, 4474781.111129491589963 ], [ 578152.13543048792053, 4464791.132492125034332 ] ] ] } },
{ "type": "Feature", "properties": { "name": "bay_fringe", "refinement_level": 3, "zmin": -1.0, "zmax": 2.0, "why": "25 m on the bay MARGIN only. The band is the whole point: the bay interior is deeper than -1 m so it stays at 50 m, and only shoreline, marsh and mudflat — where wetting is threshold-nonlinear — are refined." }, "geometry": { "type": "Polygon", "coordinates": [ [ [ 559401.921148209134117, 4472390.031128573231399 ], [ 590800.568800935288891, 4472704.388377278111875 ], [ 590504.28859654138796, 4497125.069237785413861 ], [ 559208.10901358735282, 4496810.326558878645301 ], [ 559401.921148209134117, 4472390.031128573231399 ] ] ] } }
]
}
