{
"type": "FeatureCollection",
"name": "v3_wavemaker_5m_mhw",
"crs": { "type": "name", "properties": { "name": "urn:ogc:def:crs:EPSG::32618" } },
"features": [
{ "type": "Feature", "properties": { "id": 1, "raw_piece": 0, "length_km": 9.19, "n_vertices": 93, "z_raw_median": -4.39, "z_raw_min": -4.79, "z_raw_max": -3.82, "frac_off_by_1p5m": 0.0, "n_level_flags": 0, "y_south": 4320595, "y_north": 4328078 }, "geometry": { "type": "LineString", "coordinates": [ [ 520337.121312568080612, 4320594.640243702568114 ], [ 520387.941523613757454, 4320680.764027579687536 ], [ 520441.865835597098339, 4320764.894680875353515 ], [ 520499.0296857918147, 4320846.945239867083728 ], [ 520556.19353598653106, 4320928.995798859745264 ], [ 520613.357386181247421, 4321011.046357851475477 ], [ 520670.521236376021989, 4321093.096916844137013 ], [ 520727.685086570738349, 4321175.147475835867226 ], [ 520779.404473116854206, 4321260.640882986597717 ], [ 520829.02686670422554, 4321347.460339645855129 ], [ 520878.649260291538667, 4321434.279796306043863 ], [ 520928.271653878910001, 4321521.099252965301275 ], [ 520977.894047466223128, 4321607.918709624558687 ], [ 521027.516441053536255, 4321694.738166284747422 ], [ 521077.138834640907589, 4321781.557622944004834 ], [ 521130.810617909242865, 4321865.878118720836937 ], [ 521186.162377908418421, 4321949.161866624839604 ], [ 521241.514137907652184, 4322032.44561452884227 ], [ 521296.86589790682774, 4322115.729362433776259 ], [ 521352.217657906003296, 4322199.013110337778926 ], [ 521407.56941790523706, 4322282.296858241781592 ], [ 521462.921177904412616, 4322365.580606146715581 ], [ 521518.27293790364638, 4322448.864354050718248 ], [ 521573.624697902821936, 4322532.148101954720914 ], [ 521628.976457902055699, 4322615.431849859654903 ], [ 521684.328217901231255, 4322698.71559776365757 ], [ 521739.679977900465019, 4322781.999345667660236 ], [ 521795.031737899640575, 4322865.283093572594225 ], [ 521850.383497898874339, 4322948.566841476596892 ], [ 521905.735257898049895, 4323031.850589380599558 ], [ 521953.96457915508654, 4323119.285182766616344 ], [ 521999.141498547629453, 4323208.498668037354946 ], [ 522044.318417940172367, 4323297.712153308093548 ], [ 522089.49533733271528, 4323386.92563857883215 ], [ 522134.672256725258194, 4323476.139123850502074 ], [ 522179.849176117801107, 4323565.352609121240675 ], [ 522225.026095510344021, 4323654.566094391979277 ], [ 522270.203014902886935, 4323743.779579663649201 ], [ 522323.996283026237506, 4323828.032712062820792 ], [ 522378.460227579402272, 4323911.899742198176682 ], [ 522432.924172132508829, 4323995.766772333532572 ], [ 522487.388116685673594, 4324079.633802468888462 ], [ 522541.852061238780152, 4324163.500832604244351 ], [ 522596.316005791944917, 4324247.367862739600241 ], [ 522650.779950345051475, 4324331.234892874024808 ], [ 522705.24389489821624, 4324415.101923009380698 ], [ 522762.365694885840639, 4324497.045081311836839 ], [ 522825.022396124200895, 4324574.981836375780404 ], [ 522887.679097362561151, 4324652.918591439723969 ], [ 522950.335798600921407, 4324730.855346503667533 ], [ 523012.992499839339871, 4324808.792101567611098 ], [ 523075.649201077700127, 4324886.728856632485986 ], [ 523138.305902316060383, 4324964.665611696429551 ], [ 523200.962603554420639, 4325042.602366760373116 ], [ 523263.619304792780895, 4325120.53912182431668 ], [ 523326.276006031141151, 4325198.475876888260245 ], [ 523390.793108983081765, 4325274.831066180951893 ], [ 523457.628050501807593, 4325349.215813220478594 ], [ 523524.46299202053342, 4325423.600560260005295 ], [ 523591.297933539259247, 4325497.985307300463319 ], [ 523658.132875057926867, 4325572.37005433999002 ], [ 523724.967816576652694, 4325646.754801380448043 ], [ 523791.802758095378522, 4325721.139548419974744 ], [ 523853.918754231825005, 4325799.398607566021383 ], [ 523913.867267821566202, 4325879.437196498736739 ], [ 523973.815781411249191, 4325959.475785432383418 ], [ 524033.764295000990387, 4326039.514374365098774 ], [ 524093.712808590673376, 4326119.552963297814131 ], [ 524153.661322180356365, 4326199.59155223146081 ], [ 524213.609835770097561, 4326279.630141164176166 ], [ 524281.771951375296339, 4326352.435817189514637 ], [ 524353.586253301124088, 4326422.025371282361448 ], [ 524425.400555226835422, 4326491.614925376139581 ], [ 524497.214857152546756, 4326561.204479468986392 ], [ 524553.633334249141626, 4326643.591067846864462 ], [ 524608.922253056080081, 4326726.916546886786819 ], [ 524664.21117186313495, 4326810.242025925777853 ], [ 524733.244116719462909, 4326881.463626126758754 ], [ 524808.912842842168175, 4326946.841327883303165 ], [ 524884.581568964757025, 4327012.219029639847577 ], [ 524960.250295087462291, 4327077.596731396391988 ], [ 525035.919021210167557, 4327142.974433152936399 ], [ 525111.587747332872823, 4327208.35213490948081 ], [ 525187.256473455578089, 4327273.729836666025221 ], [ 525255.23093323467765, 4327343.714157515205443 ], [ 525277.122876411420293, 4327441.288451383821666 ], [ 525299.014819588162936, 4327538.86274525243789 ], [ 525320.906762765021995, 4327636.437039121054113 ], [ 525365.902019103523344, 4327724.790791627019644 ], [ 525417.208735810127109, 4327810.625637818127871 ], [ 525468.515452516730875, 4327896.46048401016742 ], [ 525514.009375648456626, 4327985.207110424526036 ], [ 525552.030266790185124, 4328077.697173872962594 ] ] } },
{ "type": "Feature", "properties": { "id": 2, "raw_piece": 0, "length_km": 9.0, "n_vertices": 91, "z_raw_median": -4.42, "z_raw_min": -5.19, "z_raw_max": -3.78, "frac_off_by_1p5m": 0.0, "n_level_flags": 0, "y_south": 4330917, "y_north": 4338372 }, "geometry": { "type": "LineString", "coordinates": [ [ 525780.87948460620828, 4330916.574410412460566 ], [ 525804.643719597370364, 4331013.709682766348124 ], [ 525834.735903002903797, 4331109.008267587982118 ], [ 525866.670404142816551, 4331203.772119540721178 ], [ 525898.604905282729305, 4331298.535971494391561 ], [ 525930.539406422758475, 4331393.29982344713062 ], [ 525962.473907562671229, 4331488.06367539986968 ], [ 525994.408408702583984, 4331582.82752735260874 ], [ 526026.342909842496738, 4331677.5913793053478 ], [ 526058.277410982409492, 4331772.35523125808686 ], [ 526090.211912122438662, 4331867.11908321082592 ], [ 526127.266892645973712, 4331959.981608451344073 ], [ 526164.919116548378952, 4332052.622366409748793 ], [ 526202.571340450784191, 4332145.263124369084835 ], [ 526240.223564353073016, 4332237.903882327489555 ], [ 526277.875788255478255, 4332330.544640286825597 ], [ 526315.528012157883495, 4332423.185398245230317 ], [ 526357.532061201054603, 4332513.903295928612351 ], [ 526400.674814092111774, 4332604.118055657483637 ], [ 526443.817566983168945, 4332694.332815386354923 ], [ 526486.960319874342531, 4332784.547575115226209 ], [ 526530.103072765399702, 4332874.762334845028818 ], [ 526573.245825656456873, 4332964.977094573900104 ], [ 526616.388578547514044, 4333055.191854302771389 ], [ 526659.531331438571215, 4333145.406614031642675 ], [ 526702.945027749286965, 4333235.4722047643736 ], [ 526756.102820846950635, 4333320.173143560998142 ], [ 526809.260613944614306, 4333404.874082357622683 ], [ 526862.418407042277977, 4333489.575021153315902 ], [ 526915.576200139941648, 4333574.275959949940443 ], [ 526968.733993237721734, 4333658.976898746564984 ], [ 527021.891786335385405, 4333743.677837542258203 ], [ 527075.049579433049075, 4333828.378776338882744 ], [ 527128.207372530712746, 4333913.079715135507286 ], [ 527181.365165628376417, 4333997.780653932131827 ], [ 527234.522958726040088, 4334082.481592727825046 ], [ 527287.680751823703758, 4334167.182531524449587 ], [ 527340.838544921367429, 4334251.883470321074128 ], [ 527392.762709794798866, 4334337.285911926999688 ], [ 527438.375186559278518, 4334426.277495593763888 ], [ 527483.987663323874585, 4334515.269079259596765 ], [ 527529.600140088354237, 4334604.260662925429642 ], [ 527575.212616852950305, 4334693.252246592193842 ], [ 527620.825093617429957, 4334782.243830258026719 ], [ 527666.437570381909609, 4334871.235413923859596 ], [ 527712.050047146505676, 4334960.226997590623796 ], [ 527757.662523910985328, 4335049.218581256456673 ], [ 527803.275000675581396, 4335138.21016492228955 ], [ 527848.887477440061048, 4335227.20174858905375 ], [ 527894.499954204657115, 4335316.193332254886627 ], [ 527940.112430969136767, 4335405.184915920719504 ], [ 527985.724907733616419, 4335494.176499587483704 ], [ 528031.337384498212487, 4335583.168083253316581 ], [ 528080.503495534416288, 4335670.231473461724818 ], [ 528130.247799521312118, 4335756.981137558817863 ], [ 528179.992103508324362, 4335843.730801654979587 ], [ 528229.736407495220192, 4335930.48046575114131 ], [ 528279.480711482232437, 4336017.230129848234355 ], [ 528329.225015469128266, 4336103.979793944396079 ], [ 528378.969319456024095, 4336190.729458040557802 ], [ 528428.71362344303634, 4336277.479122137650847 ], [ 528478.45792742993217, 4336364.228786233812571 ], [ 528534.554893938358873, 4336446.906830428168178 ], [ 528592.601290213642642, 4336528.335424174554646 ], [ 528650.647686488809995, 4336609.764017920941114 ], [ 528708.694082763977349, 4336691.19261166639626 ], [ 528766.740479039261118, 4336772.621205412782729 ], [ 528824.786875314428471, 4336854.049799159169197 ], [ 528882.83327158971224, 4336935.478392904624343 ], [ 528940.879667864879593, 4337016.906986651010811 ], [ 529005.625799290719442, 4337093.062864475883543 ], [ 529071.129645600565709, 4337168.622417933307588 ], [ 529136.633491910528392, 4337244.18197138980031 ], [ 529202.137338220491074, 4337319.741524847224355 ], [ 529267.641184530337341, 4337395.301078303717077 ], [ 529333.145030840300024, 4337470.860631761141121 ], [ 529407.981583296321332, 4337536.804412142373621 ], [ 529485.46407634136267, 4337600.021998868323863 ], [ 529562.946569386404008, 4337663.239585595205426 ], [ 529640.429062431561761, 4337726.457172321155667 ], [ 529717.911555476603098, 4337789.674759048037231 ], [ 529795.394048521760851, 4337852.892345773987472 ], [ 529872.876541566802189, 4337916.109932500869036 ], [ 529950.359034611843526, 4337979.327519226819277 ], [ 530027.841527657001279, 4338042.54510595370084 ], [ 530105.324020702042617, 4338105.762692679651082 ], [ 530186.581926705315709, 4338163.522638287395239 ], [ 530273.064198697335087, 4338213.730373061262071 ], [ 530359.546470689238049, 4338263.938107834197581 ], [ 530446.028742681257427, 4338314.145842608064413 ], [ 530526.914888551691547, 4338372.313377003185451 ] ] } },
{ "type": "Feature", "properties": { "id": 3, "raw_piece": 0, "length_km": 10.1, "n_vertices": 102, "z_raw_median": -4.45, "z_raw_min": -5.08, "z_raw_max": -3.8, "frac_off_by_1p5m": 0.0, "n_level_flags": 0, "y_south": 4340660, "y_north": 4347874 }, "geometry": { "type": "LineString", "coordinates": [ [ 531422.015259483712725, 4340659.986384697258472 ], [ 531466.549182065762579, 4340749.522577041760087 ], [ 531511.083104647812434, 4340839.058769385330379 ], [ 531557.19394595513586, 4340927.479777519591153 ], [ 531626.772992066689767, 4340999.304260407574475 ], [ 531696.352038178243674, 4341071.12874329648912 ], [ 531765.931084289797582, 4341142.953226185403764 ], [ 531835.510130401351489, 4341214.777709073387086 ], [ 531902.5894916014513, 4341288.444237132556736 ], [ 531950.586695479112677, 4341376.172615778632462 ], [ 531998.583899356657639, 4341463.90099442563951 ], [ 532046.581103234319016, 4341551.629373071715236 ], [ 532094.578307111863978, 4341639.357751718722284 ], [ 532142.575510989525355, 4341727.086130364798009 ], [ 532191.591512815793976, 4341814.132311593741179 ], [ 532254.428224740666337, 4341891.924005459062755 ], [ 532317.264936665655114, 4341969.715699324384332 ], [ 532380.101648590527475, 4342047.507393189705908 ], [ 532442.938360515516251, 4342125.299087055027485 ], [ 532503.145233873743564, 4342204.986303832381964 ], [ 532557.075993532664143, 4342289.197188892401755 ], [ 532611.006753191468306, 4342373.408073953352869 ], [ 532664.937512850388885, 4342457.61895901337266 ], [ 532718.868272509193048, 4342541.829844073392451 ], [ 532772.799032167997211, 4342626.040729133412242 ], [ 532830.632449646829627, 4342707.581466747447848 ], [ 532889.583571970346384, 4342788.357485322281718 ], [ 532948.53469429386314, 4342869.133503897115588 ], [ 533007.485816617263481, 4342949.909522471949458 ], [ 533066.436938940780237, 4343030.685541046783328 ], [ 533125.388061264296994, 4343111.461559621617198 ], [ 533184.33918358781375, 4343192.237578196451068 ], [ 533243.290305911214091, 4343273.013596771284938 ], [ 533302.241428234730847, 4343353.789615346118808 ], [ 533361.192550558247603, 4343434.565633920952678 ], [ 533421.862066814093851, 4343514.026146124117076 ], [ 533484.453010792843997, 4343592.015720631927252 ], [ 533547.043954771477729, 4343670.005295138806105 ], [ 533609.634898750111461, 4343747.99486964661628 ], [ 533672.225842728745192, 4343825.984444154426455 ], [ 533734.816786707378924, 4343903.974018661305308 ], [ 533797.407730686012655, 4343981.963593169115484 ], [ 533859.998674664762802, 4344059.953167676925659 ], [ 533922.589618643396534, 4344137.942742183804512 ], [ 533985.89759664144367, 4344215.321472866460681 ], [ 534052.948832443333231, 4344289.511308945715427 ], [ 534120.000068245222792, 4344363.701145024970174 ], [ 534187.051304047228768, 4344437.890981103293598 ], [ 534254.10253984911833, 4344512.080817182548344 ], [ 534321.153775651007891, 4344586.270653261803091 ], [ 534388.205011453013867, 4344660.460489341057837 ], [ 534455.256247254903428, 4344734.650325419381261 ], [ 534522.307483056792989, 4344808.840161498636007 ], [ 534589.35871885868255, 4344883.029997577890754 ], [ 534656.409954660688527, 4344957.2198336571455 ], [ 534723.461190462578088, 4345031.409669735468924 ], [ 534790.512426264467649, 4345105.59950581472367 ], [ 534857.563662066473626, 4345179.789341893978417 ], [ 534924.614897868363187, 4345253.979177973233163 ], [ 534992.072488632402383, 4345327.775487406179309 ], [ 535064.074018461862579, 4345397.171306460164487 ], [ 535136.075548291322775, 4345466.567125514149666 ], [ 535208.077078120782971, 4345535.962944569066167 ], [ 535280.078607950126752, 4345605.358763623051345 ], [ 535352.080137779586948, 4345674.754582677036524 ], [ 535424.081667609047145, 4345744.150401731953025 ], [ 535496.083197438507341, 4345813.546220785938203 ], [ 535568.084727267851122, 4345882.942039840854704 ], [ 535640.086257097311318, 4345952.337858894839883 ], [ 535712.087786926771514, 4346021.733677948825061 ], [ 535784.08931675623171, 4346091.129497003741562 ], [ 535856.090846585691907, 4346160.525316057726741 ], [ 535928.092376415035687, 4346229.921135111711919 ], [ 536000.093906244495884, 4346299.31695416662842 ], [ 536076.364829743397422, 4346363.804475708864629 ], [ 536155.067683687782846, 4346425.496134634129703 ], [ 536233.770537632284686, 4346487.187793560326099 ], [ 536312.473391576786526, 4346548.879452485591173 ], [ 536391.17624552117195, 4346610.571111410856247 ], [ 536469.879099465673789, 4346672.262770337052643 ], [ 536548.581953410059214, 4346733.954429262317717 ], [ 536628.12459670228418, 4346794.451058723032475 ], [ 536712.834177001612261, 4346847.595080075785518 ], [ 536797.543757300940342, 4346900.739101427607238 ], [ 536882.253337600268424, 4346953.883122780360281 ], [ 536966.962917899596505, 4347007.027144133113325 ], [ 537052.7928420585813, 4347058.169979983009398 ], [ 537142.378846619278193, 4347102.603613492101431 ], [ 537231.964851179975085, 4347147.037247002124786 ], [ 537321.550855740788393, 4347191.470880511216819 ], [ 537411.136860301485285, 4347235.904514020308852 ], [ 537500.722864862298593, 4347280.338147530332208 ], [ 537590.308869422995485, 4347324.771781039424241 ], [ 537675.668551534879953, 4347376.230589056387544 ], [ 537756.89617323782295, 4347434.557885174639523 ], [ 537838.123794940765947, 4347492.885181293822825 ], [ 537919.351416643592529, 4347551.212477412074804 ], [ 538000.579038346535526, 4347609.539773530326784 ], [ 538081.806660049478523, 4347667.867069648578763 ], [ 538155.841330718947574, 4347734.812884634360671 ], [ 538227.756920042564161, 4347804.297760774381459 ], [ 538299.672509366180748, 4347873.782636914402246 ] ] } },
{ "type": "Feature", "properties": { "id": 4, "raw_piece": 0, "length_km": 9.59, "n_vertices": 97, "z_raw_median": -4.44, "z_raw_min": -5.14, "z_raw_max": -3.98, "frac_off_by_1p5m": 0.0, "n_level_flags": 0, "y_south": 4351940, "y_north": 4356685 }, "geometry": { "type": "LineString", "coordinates": [ [ 542208.99647009477485, 4351939.660239726305008 ], [ 542287.45164410781581, 4352001.666575455106795 ], [ 542365.906818120973185, 4352063.672911184839904 ], [ 542444.361992134014145, 4352125.679246913641691 ], [ 542522.817166147055104, 4352187.685582643374801 ], [ 542601.272340160096064, 4352249.69191837310791 ], [ 542679.727514173137024, 4352311.698254101909697 ], [ 542758.182688186177984, 4352373.704589831642807 ], [ 542838.474355334183201, 4352433.172779572196305 ], [ 542921.906262974138372, 4352488.300964627414942 ], [ 543005.338170614093542, 4352543.429149683564901 ], [ 543088.770078254048713, 4352598.557334739714861 ], [ 543172.201985894003883, 4352653.68551979586482 ], [ 543255.633893533959053, 4352708.813704851083457 ], [ 543339.065801173914224, 4352763.941889907233417 ], [ 543422.497708813869394, 4352819.070074963383377 ], [ 543505.929616453824565, 4352874.198260019533336 ], [ 543589.361524093779735, 4352929.326445074751973 ], [ 543672.793431733734906, 4352984.454630130901933 ], [ 543756.225339373573661, 4353039.582815187051892 ], [ 543839.657247013528831, 4353094.711000243201852 ], [ 543923.089154653484002, 4353149.839185298420489 ], [ 544007.042537853005342, 4353204.146979482844472 ], [ 544092.371622362872586, 4353256.290505799464881 ], [ 544177.700706872623414, 4353308.434032116085291 ], [ 544263.029791382490657, 4353360.5775584327057 ], [ 544348.358875892241485, 4353412.72108474932611 ], [ 544433.687960402108729, 4353464.864611065015197 ], [ 544519.017044911975972, 4353517.008137381635606 ], [ 544604.346129421726801, 4353569.151663698256016 ], [ 544689.675213931594044, 4353621.295190014876425 ], [ 544775.800476930569857, 4353672.08573239762336 ], [ 544862.817355243838392, 4353721.361110514961183 ], [ 544949.834233557106927, 4353770.636488632299006 ], [ 545036.851111870375462, 4353819.911866749636829 ], [ 545123.867990183643997, 4353869.187244866974652 ], [ 545210.884868496912532, 4353918.462622984312475 ], [ 545297.901746810181066, 4353967.738001101650298 ], [ 545384.918625123449601, 4354017.013379218988121 ], [ 545471.935503436718136, 4354066.288757336325943 ], [ 545558.952381749986671, 4354115.564135453663766 ], [ 545645.969260063255206, 4354164.839513571001589 ], [ 545732.986138376523741, 4354214.114891689270735 ], [ 545820.003016689792275, 4354263.390269806608558 ], [ 545907.01989500306081, 4354312.665647923946381 ], [ 545994.036773316329345, 4354361.941026041284204 ], [ 546081.05365162959788, 4354411.216404158622026 ], [ 546168.070529942866415, 4354460.491782275959849 ], [ 546255.08740825613495, 4354509.767160393297672 ], [ 546342.104286569403484, 4354559.042538510635495 ], [ 546429.121164882672019, 4354608.317916627973318 ], [ 546516.138043195940554, 4354657.593294745311141 ], [ 546603.154921509092674, 4354706.868672862648964 ], [ 546690.171799822361208, 4354756.144050979986787 ], [ 546777.188678135629743, 4354805.419429098255932 ], [ 546864.205556448898278, 4354854.694807215593755 ], [ 546951.222434762166813, 4354903.970185332931578 ], [ 547038.239313075435348, 4354953.245563450269401 ], [ 547125.256191388703883, 4355002.520941567607224 ], [ 547212.273069701972418, 4355051.796319684945047 ], [ 547299.289948015240952, 4355101.07169780228287 ], [ 547386.306826328509487, 4355150.347075919620693 ], [ 547473.323704641778022, 4355199.622454036958516 ], [ 547562.398148863925599, 4355244.93642991874367 ], [ 547652.751658397726715, 4355287.787839638069272 ], [ 547743.105167931411415, 4355330.639249357394874 ], [ 547833.458677465212531, 4355373.490659077651799 ], [ 547923.812186998897232, 4355416.342068796977401 ], [ 548014.165696532581933, 4355459.193478516303003 ], [ 548104.519206066383049, 4355502.044888235628605 ], [ 548194.87271560006775, 4355544.896297954954207 ], [ 548285.226225133868866, 4355587.747707674279809 ], [ 548375.579734667553566, 4355630.599117393605411 ], [ 548465.933244201354682, 4355673.450527112931013 ], [ 548556.940272121108137, 4355714.659891065210104 ], [ 548652.029266234952956, 4355745.612810126505792 ], [ 548747.118260348797776, 4355776.565729186870158 ], [ 548842.20725446275901, 4355807.518648248165846 ], [ 548937.29624857660383, 4355838.471567309461534 ], [ 549032.385242690565065, 4355869.424486370757222 ], [ 549127.474236804409884, 4355900.37740543205291 ], [ 549222.563230918254703, 4355931.330324493348598 ], [ 549317.652225032215938, 4355962.283243554644287 ], [ 549412.741219146060757, 4355993.236162615939975 ], [ 549508.471479995176196, 4356021.721174703910947 ], [ 549606.600527939503081, 4356040.974484796635807 ], [ 549704.729575883829966, 4356060.227794890291989 ], [ 549802.858623828156851, 4356079.481104983016849 ], [ 549863.825802944949828, 4356153.689171941019595 ], [ 549918.239112731302157, 4356237.589062990620732 ], [ 549972.652422517770901, 4356321.48895404022187 ], [ 550038.376641642185859, 4356394.577921286225319 ], [ 550119.732476290664636, 4356452.726250313222408 ], [ 550201.088310939259827, 4356510.874579340219498 ], [ 550282.444145587855019, 4356569.022908367216587 ], [ 550363.79998023645021, 4356627.171237394213676 ], [ 550445.155814885045402, 4356685.319566421210766 ] ] } },
{ "type": "Feature", "properties": { "id": 5, "raw_piece": 0, "length_km": 5.17, "n_vertices": 53, "z_raw_median": -4.4, "z_raw_min": -5.36, "z_raw_max": -2.74, "frac_off_by_1p5m": 0.019, "n_level_flags": 0, "y_south": 4358543, "y_north": 4362147 }, "geometry": { "type": "LineString", "coordinates": [ [ 551978.496859419508837, 4358543.3131901063025 ], [ 552063.043342808494344, 4358596.716300002299249 ], [ 552147.589826197479852, 4358650.119409898295999 ], [ 552232.136309586465359, 4358703.522519793361425 ], [ 552316.682792975567281, 4358756.925629689358175 ], [ 552405.859603463322856, 4358801.010007604956627 ], [ 552499.790864589274861, 4358834.879700508899987 ], [ 552599.123908034991473, 4358846.409942475147545 ], [ 552698.456951480708085, 4358857.940184441395104 ], [ 552735.433491688920185, 4358937.800364624708891 ], [ 552745.406212846981362, 4359036.554962494410574 ], [ 552741.469629324041307, 4359136.477449003607035 ], [ 552737.533045801217668, 4359236.399935512803495 ], [ 552770.408022524323314, 4359322.105885922908783 ], [ 552840.485205844743177, 4359393.444433552213013 ], [ 552910.56238916516304, 4359464.782981182448566 ], [ 552980.639572485582903, 4359536.121528811752796 ], [ 553050.716755805886351, 4359607.460076441057026 ], [ 553120.793939126306213, 4359678.798624070361257 ], [ 553190.871122446726076, 4359750.137171699665487 ], [ 553260.948305767145939, 4359821.475719328969717 ], [ 553331.025489087449387, 4359892.81426695920527 ], [ 553401.10267240786925, 4359964.1528145885095 ], [ 553471.179855728289112, 4360035.49136221781373 ], [ 553541.257039048708975, 4360106.82990984711796 ], [ 553615.318418433889747, 4360173.880319484509528 ], [ 553691.607221964746714, 4360238.533381715416908 ], [ 553767.896025495603681, 4360303.186443946324289 ], [ 553844.184829026344232, 4360367.839506177231669 ], [ 553920.473632557201199, 4360432.49256840813905 ], [ 554001.732552213128656, 4360490.541242530569434 ], [ 554084.980348398210481, 4360545.947058383375406 ], [ 554168.228144583292305, 4360601.352874236181378 ], [ 554251.475940768490545, 4360656.75869008898735 ], [ 554334.72373695357237, 4360712.164505941793323 ], [ 554417.971533138654195, 4360767.570321794599295 ], [ 554501.219329323736019, 4360822.976137647405267 ], [ 554546.388275889330544, 4360901.897211124189198 ], [ 554558.644402745645493, 4361001.143306031823158 ], [ 554570.900529601960443, 4361100.389400940388441 ], [ 554583.156656458275393, 4361199.635495848022401 ], [ 554633.407380487886257, 4361284.919227730482817 ], [ 554699.829853500355966, 4361359.672522500157356 ], [ 554766.252326512825675, 4361434.425817269831896 ], [ 554832.674799525295384, 4361509.179112039506435 ], [ 554899.097272537765093, 4361583.932406808249652 ], [ 554965.519745550234802, 4361658.685701577924192 ], [ 555031.942218562704511, 4361733.438996347598732 ], [ 555096.947516878717579, 4361809.263113346882164 ], [ 555150.716879082145169, 4361893.577143545262516 ], [ 555204.486241285456344, 4361977.891173743642867 ], [ 555258.255603488883935, 4362062.205203941091895 ], [ 555312.02496569219511, 4362146.519234139472246 ] ] } },
{ "type": "Feature", "properties": { "id": 6, "raw_piece": 0, "length_km": 32.77, "n_vertices": 329, "z_raw_median": -4.58, "z_raw_min": -6.23, "z_raw_max": -2.26, "frac_off_by_1p5m": 0.006, "n_level_flags": 0, "y_south": 4372957, "y_north": 4400562 }, "geometry": { "type": "LineString", "coordinates": [ [ 561394.748683670768514, 4372956.730218139477074 ], [ 561408.684168912004679, 4373055.754468962550163 ], [ 561422.619654153240845, 4373154.778719785623252 ], [ 561436.555139394360594, 4373253.802970608696342 ], [ 561470.838671633508056, 4373347.173731130547822 ], [ 561509.982891949126497, 4373439.194000722840428 ], [ 561556.746203905553557, 4373527.20025782007724 ], [ 561610.50485566619318, 4373611.521117403171957 ], [ 561664.263507426832803, 4373695.841976986266673 ], [ 561718.022159187472425, 4373780.162836570292711 ], [ 561775.915626120870002, 4373861.602069497108459 ], [ 561836.413299189414829, 4373941.226384585723281 ], [ 561896.910972257959656, 4374020.85069967340678 ], [ 561957.408645326388068, 4374100.475014762021601 ], [ 562017.906318394932896, 4374180.099329850636423 ], [ 562078.403991463477723, 4374259.723644939251244 ], [ 562138.901664531906135, 4374339.347960027866066 ], [ 562202.034047356923111, 4374416.568641626276076 ], [ 562275.786464789765887, 4374484.100714916363358 ], [ 562349.538882222608663, 4374551.632788206450641 ], [ 562428.176421222509816, 4374612.295239560306072 ], [ 562516.178042310406454, 4374659.789604340679944 ], [ 562604.179663398303092, 4374707.283969121053815 ], [ 562702.839091431815177, 4374722.416027620434761 ], [ 562802.092014309600927, 4374728.06769008282572 ], [ 562901.756110807531513, 4374719.878192584961653 ], [ 563001.420207305345684, 4374711.688695087097585 ], [ 563101.084303803276271, 4374703.49919759016484 ], [ 563199.252249107696116, 4374714.765106859616935 ], [ 563287.257948642130941, 4374754.486556011252105 ], [ 563338.406307291006669, 4374837.966920701786876 ], [ 563374.299496633117087, 4374931.303296027705073 ], [ 563410.19268597511109, 4375024.639671352691948 ], [ 563446.085875317221507, 4375117.976046677678823 ], [ 563481.97906465921551, 4375211.312422002665699 ], [ 563517.872254001325928, 4375304.648797328583896 ], [ 563550.021421271259896, 4375399.228874928317964 ], [ 563577.109448735369369, 4375495.490179553627968 ], [ 563604.197476199478842, 4375591.751484178006649 ], [ 563631.285503663588315, 4375688.012788803316653 ], [ 563658.373531127814204, 4375784.274093428626657 ], [ 563711.683548415778205, 4375868.339185991324484 ], [ 563767.849918150459416, 4375951.075749316252768 ], [ 563824.016287885140628, 4376033.812312641181052 ], [ 563880.182657619705424, 4376116.548875966109335 ], [ 563925.263195349369198, 4376204.580444291234016 ], [ 563954.318075339309871, 4376300.266461811028421 ], [ 563983.372955329250544, 4376395.952479330822825 ], [ 564012.427835319191217, 4376491.63849685061723 ], [ 564041.482715309015475, 4376587.324514370411634 ], [ 564070.537595298956148, 4376683.010531889274716 ], [ 564099.592475288896821, 4376778.696549409069121 ], [ 564129.015758717898279, 4376874.244054712355137 ], [ 564170.198479506419972, 4376965.370250224135816 ], [ 564211.381200294825248, 4377056.496445735916495 ], [ 564258.17161836696323, 4377144.629338515922427 ], [ 564310.964413656853139, 4377229.558254471980035 ], [ 564363.757208946743049, 4377314.487170428037643 ], [ 564416.550004236749373, 4377399.416086384095252 ], [ 564469.342799526639283, 4377484.34500234015286 ], [ 564522.135594816529192, 4377569.273918296210468 ], [ 564574.928390106535517, 4377654.202834252268076 ], [ 564627.721185396425426, 4377739.131750208325684 ], [ 564680.513980686315335, 4377824.060666164383292 ], [ 564742.106349818408489, 4377902.161449710838497 ], [ 564811.263487285701558, 4377974.392262645997107 ], [ 564880.420624753111042, 4378046.623075581155717 ], [ 564949.577762220520526, 4378118.85388851724565 ], [ 565018.73489968793001, 4378191.084701452404261 ], [ 565087.892037155339494, 4378263.315514387562871 ], [ 565151.03334833541885, 4378340.713728328235447 ], [ 565212.004168919520453, 4378419.976323777809739 ], [ 565272.97498950373847, 4378499.238919226452708 ], [ 565333.945810087840073, 4378578.501514675095677 ], [ 565394.916630671941675, 4378657.764110123738647 ], [ 565452.488287033280358, 4378739.437462533824146 ], [ 565507.130188625887968, 4378823.188657093793154 ], [ 565561.772090218611993, 4378906.939851654693484 ], [ 565616.413991811219603, 4378990.691046215593815 ], [ 565671.055893403827213, 4379074.442240776494145 ], [ 565725.697794996434823, 4379158.193435337394476 ], [ 565780.339696589042433, 4379241.944629897363484 ], [ 565834.981598181650043, 4379325.695824458263814 ], [ 565889.623499774257652, 4379409.447019019164145 ], [ 565943.545486654620618, 4379493.631589557044208 ], [ 565991.984788528992794, 4379581.1166399018839 ], [ 566040.424090403481387, 4379668.601690247654915 ], [ 566088.863392277969979, 4379756.086740592494607 ], [ 566137.302694152342156, 4379843.571790938265622 ], [ 566185.741996026830748, 4379931.056841283105314 ], [ 566234.18129790131934, 4380018.541891628876328 ], [ 566282.620599775691517, 4380106.026941973716021 ], [ 566331.059901650180109, 4380193.511992318555713 ], [ 566379.499203524668701, 4380280.997042664326727 ], [ 566427.938505399040878, 4380368.48209300916642 ], [ 566476.37780727352947, 4380455.967143354937434 ], [ 566524.817109148018062, 4380543.452193699777126 ], [ 566573.256411022390239, 4380630.937244045548141 ], [ 566621.695712896878831, 4380718.422294390387833 ], [ 566670.135014771367423, 4380805.907344736158848 ], [ 566718.5743166457396, 4380893.39239508099854 ], [ 566762.374129554140382, 4380983.26968601718545 ], [ 566805.552629786427133, 4381073.467341849580407 ], [ 566848.731130018597469, 4381163.664997681975365 ], [ 566891.90963025088422, 4381253.862653515301645 ], [ 566935.088130483054556, 4381344.060309347696602 ], [ 566978.266630715224892, 4381434.25796518009156 ], [ 567021.445130947511643, 4381524.455621012486517 ], [ 567064.623631179681979, 4381614.653276844881475 ], [ 567107.80213141196873, 4381704.850932678207755 ], [ 567156.589266550494358, 4381792.108036149293184 ], [ 567206.217388366232626, 4381878.924218541011214 ], [ 567255.845510181854479, 4381965.740400932729244 ], [ 567305.473631997592747, 4382052.556583324447274 ], [ 567355.101753813331015, 4382139.372765715233982 ], [ 567401.320766685879789, 4382227.908571604639292 ], [ 567441.643884290126152, 4382319.418386305682361 ], [ 567481.9670018942561, 4382410.92820100672543 ], [ 567522.290119498502463, 4382502.438015708699822 ], [ 567562.613237102632411, 4382593.947830409742892 ], [ 567611.466443674988113, 4382681.097552755847573 ], [ 567662.01967643306125, 4382767.378319197334349 ], [ 567712.572909191134386, 4382853.659085638821125 ], [ 567763.126141949207522, 4382939.939852079376578 ], [ 567813.679374707397074, 4383026.220618520863354 ], [ 567864.23260746547021, 4383112.50138496235013 ], [ 567914.785840223543346, 4383198.782151403836906 ], [ 567965.339072981616482, 4383285.062917845323682 ], [ 568015.892305739689618, 4383371.343684286810458 ], [ 568066.44553849787917, 4383457.624450728297234 ], [ 568116.998771255952306, 4383543.905217168852687 ], [ 568167.552004014025442, 4383630.185983610339463 ], [ 568218.105236772098579, 4383716.466750051826239 ], [ 568268.658469530171715, 4383802.747516493313015 ], [ 568318.529974120436236, 4383889.400682208128273 ], [ 568363.812558880192228, 4383978.560580804012716 ], [ 568409.095143639948219, 4384067.720479398965836 ], [ 568454.377728399587795, 4384156.880377993918955 ], [ 568499.660313159343787, 4384246.040276588872075 ], [ 568544.942897918983363, 4384335.200175183825195 ], [ 568590.225482678739354, 4384424.360073778778315 ], [ 568635.508067438495345, 4384513.519972373731434 ], [ 568680.790652198134921, 4384602.679870968684554 ], [ 568726.073236957890913, 4384691.839769563637674 ], [ 568771.355821717646904, 4384780.999668159522116 ], [ 568816.63840647728648, 4384870.159566754475236 ], [ 568861.920991237042472, 4384959.319465349428356 ], [ 568907.203575996798463, 4385048.479363944381475 ], [ 568952.486160756438039, 4385137.639262539334595 ], [ 568997.768745516194031, 4385226.799161134287715 ], [ 569044.118418500060216, 4385315.395446369424462 ], [ 569092.231058659148403, 4385403.060569748282433 ], [ 569140.343698818353005, 4385490.72569312620908 ], [ 569188.456338977441192, 4385578.390816504135728 ], [ 569236.568979136645794, 4385666.055939882993698 ], [ 569284.681619295850396, 4385753.721063260920346 ], [ 569332.794259454938583, 4385841.386186638846993 ], [ 569380.906899614143185, 4385929.051310016773641 ], [ 569429.019539773347788, 4386016.716433395631611 ], [ 569477.132179932435974, 4386104.381556773558259 ], [ 569525.244820091640577, 4386192.046680151484907 ], [ 569573.357460250845179, 4386279.711803530342877 ], [ 569621.470100409933366, 4386367.376926908269525 ], [ 569669.582740569137968, 4386455.042050286196172 ], [ 569718.041319769108668, 4386542.514864993281662 ], [ 569767.102289823698811, 4386629.652808607555926 ], [ 569816.163259878172539, 4386716.790752221830189 ], [ 569865.224229932646267, 4386803.928695836104453 ], [ 569914.285199987119995, 4386891.066639450378716 ], [ 569963.346170041593723, 4386978.204583064652979 ], [ 570012.407140096183866, 4387065.342526678927243 ], [ 570061.468110150657594, 4387152.480470293201506 ], [ 570110.529080205131322, 4387239.61841390747577 ], [ 570159.59005025960505, 4387326.75635752081871 ], [ 570208.651020314078778, 4387413.894301135092974 ], [ 570257.711990368668921, 4387501.032244749367237 ], [ 570306.772960423142649, 4387588.1701883636415 ], [ 570355.833930477616377, 4387675.308131977915764 ], [ 570404.894900532090105, 4387762.446075592190027 ], [ 570453.955870586563833, 4387849.584019206464291 ], [ 570503.016840641153976, 4387936.721962820738554 ], [ 570552.077810695627704, 4388023.859906435012817 ], [ 570601.138780750101432, 4388110.997850049287081 ], [ 570650.19975080457516, 4388198.135793663561344 ], [ 570699.260720859048888, 4388285.273737277835608 ], [ 570748.321690913639031, 4388372.411680892109871 ], [ 570799.298061174340546, 4388458.423979986459017 ], [ 570851.552732321782969, 4388543.685045798309147 ], [ 570903.807403469108976, 4388628.946111609227955 ], [ 570956.062074616434984, 4388714.207177421078086 ], [ 571008.316745763760991, 4388799.468243231996894 ], [ 571060.571416911086999, 4388884.729309043847024 ], [ 571112.826088058413006, 4388969.990374854765832 ], [ 571165.080759205739014, 4389055.25144066568464 ], [ 571217.335430353065021, 4389140.512506477534771 ], [ 571269.590101500391029, 4389225.773572288453579 ], [ 571321.844772647717036, 4389311.03463810030371 ], [ 571374.099443795159459, 4389396.295703911222517 ], [ 571426.354114942485467, 4389481.556769723072648 ], [ 571478.608786089811474, 4389566.817835533991456 ], [ 571530.863457237137482, 4389652.078901344910264 ], [ 571583.118128384463489, 4389737.339967156760395 ], [ 571635.372799531789497, 4389822.601032967679203 ], [ 571687.627470679115504, 4389907.862098779529333 ], [ 571739.882141826441512, 4389993.123164590448141 ], [ 571792.136812973767519, 4390078.384230402298272 ], [ 571844.391484121093526, 4390163.64529621321708 ], [ 571896.646155268419534, 4390248.90636202506721 ], [ 571948.900826415861957, 4390334.167427835986018 ], [ 572001.155497563187964, 4390419.428493646904826 ], [ 572053.410168710513972, 4390504.689559458754957 ], [ 572105.664839857839979, 4390589.950625269673765 ], [ 572157.919511005165987, 4390675.211691081523895 ], [ 572210.174182152491994, 4390760.472756892442703 ], [ 572262.428853299818002, 4390845.733822704292834 ], [ 572312.600778224761598, 4390932.181350724771619 ], [ 572359.2916812421754, 4391020.611886035650969 ], [ 572405.982584259589203, 4391109.042421346530318 ], [ 572452.673487277003005, 4391197.472956658340991 ], [ 572499.364390294416808, 4391285.90349196922034 ], [ 572546.05529331183061, 4391374.33402728009969 ], [ 572592.746196329244412, 4391462.764562591910362 ], [ 572639.437099346658215, 4391551.195097902789712 ], [ 572686.128002364072017, 4391639.625633213669062 ], [ 572732.81890538148582, 4391728.056168525479734 ], [ 572779.509808398899622, 4391816.486703836359084 ], [ 572826.200711416313425, 4391904.917239147238433 ], [ 572875.572043234831654, 4391991.850231452845037 ], [ 572926.400952232768759, 4392077.968882220797241 ], [ 572977.229861230705865, 4392164.087532988749444 ], [ 573028.05877022864297, 4392250.206183756701648 ], [ 573078.887679226580076, 4392336.324834523722529 ], [ 573129.716588224633597, 4392422.443485291674733 ], [ 573180.545497222570702, 4392508.562136059626937 ], [ 573231.374406220507808, 4392594.680786827579141 ], [ 573282.203315218444914, 4392680.799437595531344 ], [ 573333.032224216498435, 4392766.918088363483548 ], [ 573383.86113321443554, 4392853.036739131435752 ], [ 573434.690042212372646, 4392939.155389899387956 ], [ 573485.518951210309751, 4393025.274040667340159 ], [ 573536.347860208246857, 4393111.392691435292363 ], [ 573587.176769206300378, 4393197.511342202313244 ], [ 573636.472693912568502, 4393284.410022440366447 ], [ 573676.166409708210267, 4393376.194601353257895 ], [ 573715.860125503735617, 4393467.979180267080665 ], [ 573755.553841299260966, 4393559.763759180903435 ], [ 573795.247557094902731, 4393651.548338093794882 ], [ 573834.941272890428081, 4393743.332917007617652 ], [ 573874.634988685953431, 4393835.117495921440423 ], [ 573917.461968517280184, 4393925.446287097409368 ], [ 573962.010699974372983, 4394014.975112207233906 ], [ 574006.559431431349367, 4394104.503937317058444 ], [ 574051.108162888442166, 4394194.032762426882982 ], [ 574095.65689434541855, 4394283.56158753670752 ], [ 574140.205625802511349, 4394373.090412646532059 ], [ 574184.754357259604149, 4394462.61923775728792 ], [ 574229.303088716580532, 4394552.148062867112458 ], [ 574273.851820173673332, 4394641.676887976936996 ], [ 574318.400551630649716, 4394731.205713086761534 ], [ 574362.949283087742515, 4394820.734538196586072 ], [ 574407.498014544718899, 4394910.263363306410611 ], [ 574452.046746001811698, 4394999.792188416235149 ], [ 574485.914632567553781, 4395093.817075089551508 ], [ 574518.80530519830063, 4395188.253316299058497 ], [ 574551.695977828931063, 4395282.689557509496808 ], [ 574584.586650459677912, 4395377.125798719935119 ], [ 574617.477323090308346, 4395471.562039929442108 ], [ 574650.367995721055195, 4395565.998281139880419 ], [ 574683.258668351685628, 4395660.43452235031873 ], [ 574716.149340982432477, 4395754.870763559825718 ], [ 574749.040013613179326, 4395849.30700477026403 ], [ 574781.93068624380976, 4395943.743245980702341 ], [ 574814.821358874556608, 4396038.179487190209329 ], [ 574847.712031505187042, 4396132.61572840064764 ], [ 574880.602704135933891, 4396227.051969611085951 ], [ 574913.493376766564324, 4396321.48821082059294 ], [ 574946.384049397311173, 4396415.924452031031251 ], [ 574979.274722027941607, 4396510.360693241469562 ], [ 575012.165394658688456, 4396604.796934450976551 ], [ 575045.056067289318889, 4396699.233175661414862 ], [ 575077.946739920065738, 4396793.669416871853173 ], [ 575110.837412550812587, 4396888.105658082291484 ], [ 575143.728085181443021, 4396982.541899291798472 ], [ 575176.61875781218987, 4397076.978140502236784 ], [ 575209.509430442820303, 4397171.414381712675095 ], [ 575242.400103073567152, 4397265.850622922182083 ], [ 575281.965382064692676, 4397357.549962867982686 ], [ 575324.842217029887252, 4397447.891409742645919 ], [ 575367.719051995198242, 4397538.232856617309153 ], [ 575410.595886960392818, 4397628.574303491972387 ], [ 575453.472721925703809, 4397718.915750365704298 ], [ 575496.349556890898384, 4397809.257197240367532 ], [ 575532.316212014760822, 4397902.534038266167045 ], [ 575567.568074200884439, 4397996.114518134854734 ], [ 575602.819936387008056, 4398089.694998003542423 ], [ 575638.071798573248088, 4398183.27547787129879 ], [ 575673.323660759371705, 4398276.855957739986479 ], [ 575708.575522945495322, 4398370.436437608674169 ], [ 575743.827385131618939, 4398464.016917477361858 ], [ 575782.369541510241106, 4398556.162967375479639 ], [ 575826.940760163008235, 4398645.68059953674674 ], [ 575871.51197881589178, 4398735.198231698945165 ], [ 575916.083197468658909, 4398824.715863860212266 ], [ 575960.654416121426038, 4398914.233496021479368 ], [ 576005.225634774193168, 4399003.751128183677793 ], [ 576049.796853426960297, 4399093.268760344944894 ], [ 576094.368072079843841, 4399182.786392506211996 ], [ 576141.246142066665925, 4399270.96769505739212 ], [ 576196.72683854890056, 4399354.165605595335364 ], [ 576252.207535031135194, 4399437.363516133278608 ], [ 576307.688231513253413, 4399520.56142667029053 ], [ 576363.168927995488048, 4399603.759337208233774 ], [ 576418.826216588960961, 4399686.80732305534184 ], [ 576491.919120387756266, 4399755.05267025437206 ], [ 576565.012024186551571, 4399823.298017453402281 ], [ 576638.104927985463291, 4399891.543364651501179 ], [ 576711.197831784258597, 4399959.788711850531399 ], [ 576784.290735583053902, 4400028.034059048630297 ], [ 576867.91761161852628, 4400079.956095540896058 ], [ 576960.214927877532318, 4400118.44252706412226 ], [ 577052.512244136538357, 4400156.928958587348461 ], [ 577151.812417009146884, 4400160.62431878875941 ], [ 577251.812175601487979, 4400160.844049256294966 ], [ 577351.811934193829075, 4400161.063779723830521 ], [ 577433.837162159150466, 4400177.647370157763362 ], [ 577424.695379479904659, 4400277.228632498532534 ], [ 577411.865796313853934, 4400375.922297529876232 ], [ 577374.695845871348865, 4400468.757607537321746 ], [ 577337.525895428960212, 4400561.592917543835938 ] ] } },
{ "type": "Feature", "properties": { "id": 7, "raw_piece": 0, "length_km": 36.1, "n_vertices": 362, "z_raw_median": -4.81, "z_raw_min": -6.33, "z_raw_max": -3.24, "frac_off_by_1p5m": 0.019, "n_level_flags": 0, "y_south": 4402960, "y_north": 4438701 }, "geometry": { "type": "LineString", "coordinates": [ [ 577701.56967479782179, 4402959.714065653271973 ], [ 577722.797873975127004, 4403057.434910715557635 ], [ 577744.026073152432218, 4403155.155755777843297 ], [ 577761.032871433417313, 4403253.16544583812356 ], [ 577753.313097852864303, 4403352.867026045918465 ], [ 577745.593324272427708, 4403452.568606252782047 ], [ 577741.162373250233941, 4403552.148283315822482 ], [ 577756.241879542241804, 4403651.004787855781615 ], [ 577771.321385834249668, 4403749.86129239667207 ], [ 577786.400892126257531, 4403848.717796937562525 ], [ 577801.48039841838181, 4403947.574301478452981 ], [ 577816.559904710389674, 4404046.430806018412113 ], [ 577831.639411002397537, 4404145.287310559302568 ], [ 577846.718917294521816, 4404244.143815100193024 ], [ 577847.548844608594663, 4404343.979217384010553 ], [ 577846.129413605318405, 4404443.969142954796553 ], [ 577844.709982602158561, 4404543.959068524651229 ], [ 577848.826530983904377, 4404643.772821924649179 ], [ 577856.600635649403557, 4404743.470180448144674 ], [ 577864.374740315019153, 4404843.167538972571492 ], [ 577872.148844980634749, 4404942.864897496066988 ], [ 577879.922949646250345, 4405042.562256020493805 ], [ 577887.697054311865941, 4405142.259614543989301 ], [ 577895.471158977365121, 4405241.956973068416119 ], [ 577903.245263642980717, 4405341.654331591911614 ], [ 577911.019368308596313, 4405441.351690116338432 ], [ 577921.735196160734631, 4405540.685772878117859 ], [ 577938.448187586269341, 4405639.27926108893007 ], [ 577955.161179011804052, 4405737.872749300673604 ], [ 577971.874170437338762, 4405836.466237511485815 ], [ 577988.587161862873472, 4405935.059725722298026 ], [ 578005.300153288408183, 4406033.653213933110237 ], [ 578022.013144713942893, 4406132.246702143922448 ], [ 578038.726136139361188, 4406230.840190355665982 ], [ 578054.909185629105195, 4406329.492425980046391 ], [ 578060.196034254040569, 4406429.352574345655739 ], [ 578065.482882879092358, 4406529.212722711265087 ], [ 578070.769731504027732, 4406629.072871076874435 ], [ 578076.056580129079521, 4406728.933019442483783 ], [ 578081.343428754014894, 4406828.793167808093131 ], [ 578086.630277378950268, 4406928.653316173702478 ], [ 578091.917126004002057, 4407028.513464539311826 ], [ 578097.203974628937431, 4407128.373612904921174 ], [ 578102.490823253872804, 4407228.233761270530522 ], [ 578107.777671878924593, 4407328.09390963613987 ], [ 578113.064520503859967, 4407427.954058001749218 ], [ 578118.351369128911756, 4407527.814206368289888 ], [ 578123.63821775384713, 4407627.674354733899236 ], [ 578128.925066378782503, 4407727.534503099508584 ], [ 578134.211915003834292, 4407827.394651465117931 ], [ 578139.498763628769666, 4407927.254799830727279 ], [ 578144.785612253821455, 4408027.114948196336627 ], [ 578150.072460878756829, 4408126.975096561945975 ], [ 578155.359309503692202, 4408226.835244927555323 ], [ 578160.646158128743991, 4408326.69539329316467 ], [ 578165.933006753679365, 4408426.555541658774018 ], [ 578171.219855378614739, 4408526.415690024383366 ], [ 578176.506704003666528, 4408626.275838389992714 ], [ 578181.793552628601901, 4408726.135986756533384 ], [ 578187.08040125365369, 4408825.996135122142732 ], [ 578192.367249878589064, 4408925.85628348775208 ], [ 578197.654098503524438, 4409025.716431853361428 ], [ 578202.940947128576227, 4409125.576580218970776 ], [ 578208.2277957535116, 4409225.436728584580123 ], [ 578213.514644378446974, 4409325.296876950189471 ], [ 578218.801493003498763, 4409425.157025315798819 ], [ 578225.464863019995391, 4409524.918393285013735 ], [ 578234.490864811348729, 4409624.510216703638434 ], [ 578243.516866602702066, 4409724.102040121331811 ], [ 578252.542868394055404, 4409823.693863539025187 ], [ 578261.568870185408741, 4409923.285686956718564 ], [ 578270.594871976762079, 4410022.877510374411941 ], [ 578279.620873768115416, 4410122.469333792105317 ], [ 578288.646875559585169, 4410222.061157209798694 ], [ 578297.672877350938506, 4410321.65298062749207 ], [ 578306.698879142291844, 4410421.244804045185447 ], [ 578315.724880933645181, 4410520.836627462878823 ], [ 578324.750882724998519, 4410620.4284508805722 ], [ 578333.776884516351856, 4410720.020274298265576 ], [ 578342.802886307705194, 4410819.612097715958953 ], [ 578351.828888099058531, 4410919.203921133652329 ], [ 578360.854889890528284, 4411018.795744551345706 ], [ 578373.019220811896957, 4411118.020145297981799 ], [ 578387.241595921106637, 4411217.003598694689572 ], [ 578401.463971030316316, 4411315.987052091397345 ], [ 578415.686346139409579, 4411414.970505487173796 ], [ 578429.908721248619258, 4411513.953958883881569 ], [ 578444.131096357828937, 4411612.93741227965802 ], [ 578458.353471467038617, 4411711.920865676365793 ], [ 578472.575846576248296, 4411810.904319072142243 ], [ 578486.798221685457975, 4411909.887772468850017 ], [ 578493.296684422413819, 4412009.625086163170636 ], [ 578498.482129844487645, 4412109.490551443770528 ], [ 578503.667575266561471, 4412209.356016725301743 ], [ 578508.853020688635297, 4412309.221482005901635 ], [ 578514.038466110709123, 4412409.086947286501527 ], [ 578519.22391153278295, 4412508.952412568032742 ], [ 578524.409356954856776, 4412608.817877848632634 ], [ 578529.594802376930602, 4412708.683343129232526 ], [ 578534.780247799004428, 4412808.548808410763741 ], [ 578539.965693221078254, 4412908.414273691363633 ], [ 578549.862162547535263, 4413007.85054277908057 ], [ 578562.80871640285477, 4413107.008934976533055 ], [ 578575.755270258057863, 4413206.167327174916863 ], [ 578588.70182411337737, 4413305.325719372369349 ], [ 578601.648377968580462, 4413404.484111570753157 ], [ 578614.594931823899969, 4413503.642503768205643 ], [ 578627.541485679103062, 4413602.800895966589451 ], [ 578640.488039534306154, 4413701.959288164041936 ], [ 578642.370857712579891, 4413801.831025658175349 ], [ 578642.265234493068419, 4413901.830969876609743 ], [ 578642.159611273556948, 4414001.830914095044136 ], [ 578642.053988054045476, 4414101.830858313478529 ], [ 578641.948364834534004, 4414201.830802532844245 ], [ 578642.710073712398298, 4414301.793761883862317 ], [ 578651.328250410733745, 4414401.421704904176295 ], [ 578659.946427109185606, 4414501.049647924490273 ], [ 578668.564603807521053, 4414600.677590943872929 ], [ 578677.182780505856499, 4414700.305533964186907 ], [ 578685.800957204191945, 4414799.933476984500885 ], [ 578694.419133902527392, 4414899.561420003883541 ], [ 578703.037310600862838, 4414999.189363024197519 ], [ 578711.655487299198285, 4415098.817306044511497 ], [ 578720.273663997533731, 4415198.445249063894153 ], [ 578728.891840695869178, 4415298.073192084208131 ], [ 578737.510017394204624, 4415397.701135104522109 ], [ 578746.12819409254007, 4415497.329078123904765 ], [ 578754.746370790991932, 4415596.957021144218743 ], [ 578763.364547489327379, 4415696.584964164532721 ], [ 578771.982724187662825, 4415796.212907183915377 ], [ 578781.69356323115062, 4415895.728303913027048 ], [ 578793.564609223743901, 4415995.02119523473084 ], [ 578805.435655216220766, 4416094.314086556434631 ], [ 578817.306701208814047, 4416193.606977878138423 ], [ 578829.177747201290913, 4416292.899869199842215 ], [ 578841.048793193767779, 4416392.192760522477329 ], [ 578852.91983918636106, 4416491.48565184418112 ], [ 578864.790885178837925, 4416590.778543165884912 ], [ 578876.661931171431206, 4416690.071434487588704 ], [ 578888.532977163908072, 4416789.364325809292495 ], [ 578900.404023156384937, 4416888.657217130996287 ], [ 578912.275069148978218, 4416987.950108452700078 ], [ 578924.146115141455084, 4417087.24299977440387 ], [ 578936.017161134048365, 4417186.535891096107662 ], [ 578947.888207126525231, 4417285.828782418742776 ], [ 578959.759253119002096, 4417385.121673740446568 ], [ 578971.630299111595377, 4417484.414565062150359 ], [ 578983.501345104072243, 4417583.707456383854151 ], [ 578995.372391096665524, 4417683.000347705557942 ], [ 579007.24343708914239, 4417782.293239027261734 ], [ 579019.114483081735671, 4417881.586130348965526 ], [ 579030.985529074212536, 4417980.879021670669317 ], [ 579045.38305414840579, 4418079.813360217958689 ], [ 579061.607223720289767, 4418178.488465090282261 ], [ 579077.831393292290159, 4418277.163569963537157 ], [ 579094.055562864174135, 4418375.838674836792052 ], [ 579110.279732436174527, 4418474.513779710046947 ], [ 579126.503902008058503, 4418573.18888458237052 ], [ 579142.728071580058895, 4418671.863989455625415 ], [ 579158.952241151942872, 4418770.53909432888031 ], [ 579175.176410723943263, 4418869.214199202135205 ], [ 579191.400580295943655, 4418967.889304074458778 ], [ 579207.624749867827632, 4419066.564408947713673 ], [ 579223.848919439828023, 4419165.239513820968568 ], [ 579240.073089011712, 4419263.914618694223464 ], [ 579256.297258583712392, 4419362.589723566547036 ], [ 579272.521428155596368, 4419461.264828439801931 ], [ 579288.74559772759676, 4419559.939933313056827 ], [ 579304.969767299480736, 4419658.615038186311722 ], [ 579321.193936871481128, 4419757.290143058635294 ], [ 579337.41810644348152, 4419855.96524793189019 ], [ 579353.642276015365496, 4419954.640352805145085 ], [ 579369.866445587365888, 4420053.31545767839998 ], [ 579386.090615159249865, 4420151.990562550723553 ], [ 579402.314784731250256, 4420250.665667423978448 ], [ 579418.538954303134233, 4420349.340772297233343 ], [ 579434.763123875134625, 4420448.015877170488238 ], [ 579450.987293447018601, 4420546.690982042811811 ], [ 579467.211463019018993, 4420645.366086916066706 ], [ 579483.435632590902969, 4420744.041191789321601 ], [ 579499.659802162903361, 4420842.716296661645174 ], [ 579515.883971734903753, 4420941.391401534900069 ], [ 579532.108141306787729, 4421040.066506408154964 ], [ 579548.332310878788121, 4421138.74161128140986 ], [ 579564.556480450672098, 4421237.416716153733432 ], [ 579580.780650022672489, 4421336.091821026988328 ], [ 579597.004819594556466, 4421434.766925900243223 ], [ 579613.228989166556858, 4421533.442030773498118 ], [ 579629.453158738440834, 4421632.117135645821691 ], [ 579645.677328310441226, 4421730.792240519076586 ], [ 579661.901497882441618, 4421829.467345392331481 ], [ 579678.125667454325594, 4421928.142450265586376 ], [ 579689.834550891886465, 4422027.380421148613095 ], [ 579698.331715131062083, 4422127.018758147023618 ], [ 579706.828879370354116, 4422226.657095146365464 ], [ 579715.326043609646149, 4422326.295432144775987 ], [ 579723.823207848821767, 4422425.933769144117832 ], [ 579732.3203720881138, 4422525.572106142528355 ], [ 579740.817536327405833, 4422625.210443140938878 ], [ 579749.31470056658145, 4422724.848780140280724 ], [ 579757.811864805873483, 4422824.487117138691247 ], [ 579766.309029045165516, 4422924.125454138033092 ], [ 579774.806193284341134, 4423023.763791136443615 ], [ 579783.303357523633167, 4423123.40212813578546 ], [ 579791.8005217629252, 4423223.040465134195983 ], [ 579800.297686002100818, 4423322.678802133537829 ], [ 579808.794850241392851, 4423422.317139131948352 ], [ 579817.292014480684884, 4423521.955476130358875 ], [ 579825.789178719860502, 4423621.59381312970072 ], [ 579834.286342959152535, 4423721.232150128111243 ], [ 579842.783507198444568, 4423820.870487127453089 ], [ 579855.871349783963524, 4423919.990250785835087 ], [ 579869.8154212590307, 4424019.01329290587455 ], [ 579883.759492734214291, 4424118.036335025914013 ], [ 579897.703564209281467, 4424217.059377145953476 ], [ 579911.647635684465058, 4424316.082419265992939 ], [ 579925.591707159532234, 4424415.105461386032403 ], [ 579939.535778634715825, 4424514.128503506071866 ], [ 579953.479850109783001, 4424613.151545626111329 ], [ 579967.423921584850177, 4424712.174587746150792 ], [ 579981.367993060033768, 4424811.197629866190255 ], [ 579995.312064535100944, 4424910.220671986229718 ], [ 580009.256136010284536, 4425009.243714106269181 ], [ 580023.200207485351712, 4425108.266756226308644 ], [ 580037.144278960535303, 4425207.289798346348107 ], [ 580051.088350435602479, 4425306.31284046638757 ], [ 580065.03242191078607, 4425405.335882586427033 ], [ 580078.976493385853246, 4425504.358924706466496 ], [ 580092.920564861036837, 4425603.381966826505959 ], [ 580106.864636336104013, 4425702.4050089456141 ], [ 580120.808707811287604, 4425801.428051065653563 ], [ 580134.75277928635478, 4425900.451093185693026 ], [ 580148.696850761421956, 4425999.474135305732489 ], [ 580162.640922236605547, 4426098.497177425771952 ], [ 580176.584993711672723, 4426197.520219545811415 ], [ 580190.529065186856315, 4426296.543261665850878 ], [ 580204.47313666192349, 4426395.566303785890341 ], [ 580218.417208137107082, 4426494.589345905929804 ], [ 580232.361279612174258, 4426593.612388025969267 ], [ 580246.305351087357849, 4426692.63543014600873 ], [ 580260.442542612669058, 4426791.629285457544029 ], [ 580276.384139713831246, 4426890.350435581989586 ], [ 580292.325736814877018, 4426989.071585706435144 ], [ 580308.267333916039206, 4427087.792735830880702 ], [ 580324.208931017084979, 4427186.513885955326259 ], [ 580340.150528118247166, 4427285.235036078840494 ], [ 580356.092125219292939, 4427383.956186203286052 ], [ 580372.033722320455126, 4427482.677336327731609 ], [ 580387.975319421500899, 4427581.398486452177167 ], [ 580403.916916522663087, 4427680.119636576622725 ], [ 580419.858513623708859, 4427778.840786701068282 ], [ 580435.800110724871047, 4427877.56193682551384 ], [ 580451.741707825916819, 4427976.283086949028075 ], [ 580467.683304927079007, 4428075.004237073473632 ], [ 580483.624902028124779, 4428173.72538719791919 ], [ 580499.566499129286967, 4428272.446537322364748 ], [ 580515.50809623033274, 4428371.167687446810305 ], [ 580531.449693331494927, 4428469.888837571255863 ], [ 580548.631863947724923, 4428568.396212962456048 ], [ 580566.651671331026591, 4428666.759247389622033 ], [ 580584.671478714328259, 4428765.12228181771934 ], [ 580602.691286097629927, 4428863.485316245816648 ], [ 580620.711093480931595, 4428961.848350673913956 ], [ 580638.730900864349678, 4429060.211385102011263 ], [ 580656.750708247651346, 4429158.574419530108571 ], [ 580674.770515630953014, 4429256.937453957274556 ], [ 580692.790323014254682, 4429355.300488385371864 ], [ 580710.81013039755635, 4429453.663522813469172 ], [ 580728.829937780858018, 4429552.026557241566479 ], [ 580746.849745164276101, 4429650.389591669663787 ], [ 580764.869552547577769, 4429748.752626096829772 ], [ 580782.889359930879436, 4429847.11566052492708 ], [ 580800.909167314181104, 4429945.478694953024387 ], [ 580818.928974697482772, 4430043.841729381121695 ], [ 580836.94878208078444, 4430142.204763809219003 ], [ 580854.968589464086108, 4430240.567798236384988 ], [ 580872.988396847504191, 4430338.930832664482296 ], [ 580891.008204230805859, 4430437.293867092579603 ], [ 580909.028011614107527, 4430535.656901520676911 ], [ 580927.047818997409195, 4430634.019935948774219 ], [ 580945.067626380710863, 4430732.382970375940204 ], [ 580963.08743376401253, 4430830.746004804037511 ], [ 580981.107241147314198, 4430929.109039232134819 ], [ 580999.127048530732282, 4431027.472073660232127 ], [ 581017.146855914033949, 4431125.835108088329434 ], [ 581035.166663297335617, 4431224.198142516426742 ], [ 581053.186470680637285, 4431322.561176943592727 ], [ 581071.206278063938953, 4431420.924211371690035 ], [ 581089.226085447240621, 4431519.287245799787343 ], [ 581107.245892830658704, 4431617.65028022788465 ], [ 581125.265700213960372, 4431716.013314655981958 ], [ 581143.28550759726204, 4431814.376349083147943 ], [ 581161.305314980563708, 4431912.739383511245251 ], [ 581179.325122363865376, 4432011.102417939342558 ], [ 581197.344929747167043, 4432109.465452367439866 ], [ 581215.364737130468711, 4432207.828486795537174 ], [ 581233.384544513886794, 4432306.191521222703159 ], [ 581251.404351897188462, 4432404.554555650800467 ], [ 581269.42415928049013, 4432502.917590078897774 ], [ 581287.443966663791798, 4432601.280624506995082 ], [ 581305.463774047093466, 4432699.64365893509239 ], [ 581323.483581430395134, 4432798.006693362258375 ], [ 581341.503388813696802, 4432896.369727790355682 ], [ 581359.523196197114885, 4432994.73276221845299 ], [ 581376.241223832243122, 4433093.319626344367862 ], [ 581392.110334571101703, 4433192.052454341202974 ], [ 581407.979445309960283, 4433290.785282338969409 ], [ 581423.848556048702449, 4433389.518110335804522 ], [ 581439.717666787561029, 4433488.250938333570957 ], [ 581455.58677752641961, 4433586.983766331337392 ], [ 581471.455888265161775, 4433685.716594328172505 ], [ 581487.324999004020356, 4433784.44942232593894 ], [ 581503.194109742878936, 4433883.182250322774053 ], [ 581519.063220481621101, 4433981.915078320540488 ], [ 581534.932331220479682, 4434080.647906318306923 ], [ 581550.801441959338263, 4434179.380734315142035 ], [ 581566.670552698196843, 4434278.113562312908471 ], [ 581582.539663436939009, 4434376.846390309743583 ], [ 581598.408774175797589, 4434475.579218307510018 ], [ 581614.27788491465617, 4434574.312046304345131 ], [ 581630.146995653398335, 4434673.044874302111566 ], [ 581646.016106392256916, 4434771.777702299878001 ], [ 581661.885217131115496, 4434870.510530296713114 ], [ 581677.754327869857661, 4434969.243358294479549 ], [ 581693.623438608716242, 4435067.976186291314662 ], [ 581709.492549347574823, 4435166.709014289081097 ], [ 581725.361660086433403, 4435265.441842285916209 ], [ 581741.230770825175568, 4435364.174670283682644 ], [ 581757.099881564034149, 4435462.90749828144908 ], [ 581772.96899230289273, 4435561.640326278284192 ], [ 581788.838103041634895, 4435660.373154276050627 ], [ 581804.707213780493475, 4435759.10598227288574 ], [ 581820.576324519352056, 4435857.838810270652175 ], [ 581836.445435258094221, 4435956.571638267487288 ], [ 581852.314545996952802, 4436055.304466265253723 ], [ 581868.183656735811383, 4436154.037294263020158 ], [ 581884.052767474669963, 4436252.77012225985527 ], [ 581899.921878213412128, 4436351.502950257621706 ], [ 581915.790988952270709, 4436450.235778254456818 ], [ 581931.66009969112929, 4436548.968606252223253 ], [ 581950.822696190793067, 4436647.106041891500354 ], [ 581970.525885655893944, 4436745.145749789662659 ], [ 581990.229075121111237, 4436843.185457688756287 ], [ 582009.932264586328529, 4436941.225165587849915 ], [ 582029.635454051429406, 4437039.264873486943543 ], [ 582049.338643516646698, 4437137.304581386037171 ], [ 582069.04183298186399, 4437235.344289284199476 ], [ 582088.745022446964867, 4437333.383997183293104 ], [ 582108.44821191218216, 4437431.423705082386732 ], [ 582128.151401377399452, 4437529.46341298148036 ], [ 582147.854590842500329, 4437627.503120880573988 ], [ 582167.557780307717621, 4437725.542828778736293 ], [ 582187.260969772934914, 4437823.582536677829921 ], [ 582206.964159238035791, 4437921.622244576923549 ], [ 582227.820380142773502, 4438019.410383576527238 ], [ 582250.744554914184846, 4438116.747335507534444 ], [ 582273.668729685479775, 4438214.084287437610328 ], [ 582296.592904456774704, 4438311.421239367686212 ], [ 582319.517079228069633, 4438408.758191297762096 ], [ 582342.441253999480978, 4438506.09514322783798 ], [ 582365.365428770775907, 4438603.432095157913864 ], [ 582388.289603542070836, 4438700.769047087989748 ] ] } },
{ "type": "Feature", "properties": { "id": 8, "raw_piece": 0, "length_km": 13.9, "n_vertices": 140, "z_raw_median": -5.2, "z_raw_min": -6.24, "z_raw_max": -3.03, "frac_off_by_1p5m": 0.05, "n_level_flags": 0, "y_south": 4440271, "y_north": 4453805 }, "geometry": { "type": "LineString", "coordinates": [ [ 582554.618422327097505, 4440270.837586887180805 ], [ 582569.922521857428364, 4440369.659570967778563 ], [ 582585.226621387875639, 4440468.481555047444999 ], [ 582600.530720918206498, 4440567.303539128042758 ], [ 582615.834820448537357, 4440666.125523208640516 ], [ 582631.138919978984632, 4440764.947507288306952 ], [ 582646.443019509315491, 4440863.76949136890471 ], [ 582661.74711903964635, 4440962.591475449502468 ], [ 582677.051218570093624, 4441061.413459529168904 ], [ 582692.355318100424483, 4441160.235443609766662 ], [ 582707.659417630871758, 4441259.05742769036442 ], [ 582722.963517161202617, 4441357.879411770030856 ], [ 582738.267616691533476, 4441456.701395850628614 ], [ 582753.571716221980751, 4441555.523379931226373 ], [ 582768.87581575231161, 4441654.345364010892808 ], [ 582784.179915282642469, 4441753.167348091490567 ], [ 582799.484014813089743, 4441851.989332172088325 ], [ 582814.788114343420602, 4441950.811316251754761 ], [ 582830.092213873751462, 4442049.633300332352519 ], [ 582845.396313404198736, 4442148.455284412950277 ], [ 582860.700412934529595, 4442247.277268492616713 ], [ 582883.345813914085738, 4442344.659144265577197 ], [ 582906.510127384332009, 4442441.939227435737848 ], [ 582929.674440854578279, 4442539.219310604967177 ], [ 582952.838754324824549, 4442636.499393774196506 ], [ 582976.003067794954404, 4442733.779476943425834 ], [ 582999.167381265200675, 4442831.059560113586485 ], [ 583022.331694735446945, 4442928.339643282815814 ], [ 583045.496008205693215, 4443025.619726452045143 ], [ 583068.66032167582307, 4443122.899809621274471 ], [ 583097.933960526017472, 4443218.50509374961257 ], [ 583127.616175906383432, 4443313.998371471650898 ], [ 583157.298391286865808, 4443409.49164919462055 ], [ 583186.980606667348184, 4443504.984926916658878 ], [ 583216.662822047830559, 4443600.478204638697207 ], [ 583240.995595900923945, 4443697.395718981511891 ], [ 583262.725386398145929, 4443795.006252249702811 ], [ 583284.455176895367913, 4443892.616785517893732 ], [ 583306.184967392706312, 4443990.227318787015975 ], [ 583327.914757889928296, 4444087.837852055206895 ], [ 583349.64454838715028, 4444185.448385323397815 ], [ 583371.374338884372264, 4444283.058918591588736 ], [ 583393.104129381594248, 4444380.669451860710979 ], [ 583414.833919878816232, 4444478.279985128901899 ], [ 583436.563710376154631, 4444575.890518397092819 ], [ 583458.293500873376615, 4444673.50105166528374 ], [ 583480.023291370598599, 4444771.111584934405982 ], [ 583501.753081867820583, 4444868.722118202596903 ], [ 583523.482872365042567, 4444966.332651470787823 ], [ 583545.212662862380967, 4445063.943184738978744 ], [ 583566.942453359602951, 4445161.553718008100986 ], [ 583588.672243856824934, 4445259.164251276291907 ], [ 583610.402034354046918, 4445356.774784544482827 ], [ 583632.131824851268902, 4445454.385317812673748 ], [ 583653.861615348490886, 4445551.99585108179599 ], [ 583675.591405845829286, 4445649.606384349986911 ], [ 583697.32119634305127, 4445747.216917618177831 ], [ 583719.050986840273254, 4445844.827450886368752 ], [ 583740.780777337495238, 4445942.437984155490994 ], [ 583762.510567834717222, 4446040.048517423681915 ], [ 583784.240358331939206, 4446137.659050691872835 ], [ 583805.970148829277605, 4446235.269583960063756 ], [ 583827.699939326499589, 4446332.880117229185998 ], [ 583849.429729823721573, 4446430.490650497376919 ], [ 583871.159520320943557, 4446528.101183765567839 ], [ 583892.889310818165541, 4446625.711717033758759 ], [ 583914.61910131550394, 4446723.322250302881002 ], [ 583936.348891812725924, 4446820.932783571071923 ], [ 583961.274621079326607, 4446917.699535623192787 ], [ 583990.559805511147715, 4447013.31531869713217 ], [ 584019.844989942968823, 4447108.931101770140231 ], [ 584049.130174374789931, 4447204.546884844079614 ], [ 584078.415358806611039, 4447300.162667918018997 ], [ 584107.700543238432147, 4447395.77845099195838 ], [ 584136.985727670253254, 4447491.39423406496644 ], [ 584166.270912102074362, 4447587.010017138905823 ], [ 584195.55609653389547, 4447682.625800212845206 ], [ 584224.841280965716578, 4447778.241583286784589 ], [ 584254.126465397537686, 4447873.85736635979265 ], [ 584280.609490946750157, 4447970.224223556928337 ], [ 584303.071107142837718, 4448067.668955573812127 ], [ 584325.53272333892528, 4448165.113687590695918 ], [ 584347.994339535012841, 4448262.558419607579708 ], [ 584372.84798960282933, 4448359.255859290249646 ], [ 584409.852202739333734, 4448452.157356642186642 ], [ 584446.856415875721723, 4448545.058853993192315 ], [ 584483.860629012226127, 4448637.960351345129311 ], [ 584520.864842148730531, 4448730.861848697066307 ], [ 584535.092882999568246, 4448827.966619444079697 ], [ 584533.686229233746417, 4448927.956725580617785 ], [ 584532.279575467924587, 4449027.946831716224551 ], [ 584535.291666188975796, 4449127.65394464507699 ], [ 584549.442004879936576, 4449226.647721797227859 ], [ 584563.592343570897356, 4449325.641498950310051 ], [ 584577.742682261974551, 4449424.635276102460921 ], [ 584591.893020952935331, 4449523.629053255543113 ], [ 584606.04335964389611, 4449622.622830407693982 ], [ 584620.19369833485689, 4449721.616607560776174 ], [ 584634.34403702581767, 4449820.610384712927043 ], [ 584648.494375716894865, 4449919.604161865077913 ], [ 584662.644714407855645, 4450018.597939018160105 ], [ 584676.795053098816425, 4450117.591716170310974 ], [ 584690.945391789777204, 4450216.585493323393166 ], [ 584708.129864226095378, 4450314.970018536783755 ], [ 584733.291316235787235, 4450411.752771818079054 ], [ 584758.452768245479092, 4450508.535525100305676 ], [ 584783.614220255170949, 4450605.318278381600976 ], [ 584808.77567226474639, 4450702.101031662896276 ], [ 584833.937124274438247, 4450798.883784945122898 ], [ 584859.098576284130104, 4450895.666538226418197 ], [ 584884.260028293705545, 4450992.449291507713497 ], [ 584909.421480303397402, 4451089.232044789940119 ], [ 584934.582932313089259, 4451186.014798071235418 ], [ 584959.744384322781116, 4451282.797551352530718 ], [ 584984.905836332356557, 4451379.58030463475734 ], [ 585010.067288342048414, 4451476.363057916052639 ], [ 585035.228740351740271, 4451573.145811197347939 ], [ 585060.390192361315712, 4451669.928564478643239 ], [ 585085.551644371007569, 4451766.711317760869861 ], [ 585110.713096380699426, 4451863.49407104216516 ], [ 585135.874548390391283, 4451960.27682432346046 ], [ 585161.036000399966724, 4452057.059577605687082 ], [ 585186.197452409658581, 4452153.842330886982381 ], [ 585211.358904419350438, 4452250.625084168277681 ], [ 585236.520356429042295, 4452347.407837450504303 ], [ 585261.681808438617736, 4452444.190590731799603 ], [ 585286.843260448309593, 4452540.973344013094902 ], [ 585312.00471245800145, 4452637.756097295321524 ], [ 585337.166164467576891, 4452734.538850576616824 ], [ 585362.327616477268748, 4452831.321603857912123 ], [ 585387.489068486960605, 4452928.104357140138745 ], [ 585412.650520496652462, 4453024.887110421434045 ], [ 585437.811972506227903, 4453121.669863702729344 ], [ 585462.97342451591976, 4453218.452616984955966 ], [ 585488.134876525611617, 4453315.235370266251266 ], [ 585513.296328535187058, 4453412.018123547546566 ], [ 585538.457780544878915, 4453508.800876829773188 ], [ 585563.619232554570772, 4453605.583630111068487 ], [ 585573.71842673921492, 4453704.725763434544206 ], [ 585579.356474557425827, 4453804.56669901125133 ] ] } },
{ "type": "Feature", "properties": { "id": 9, "raw_piece": 0, "length_km": 13.5, "n_vertices": 136, "z_raw_median": -5.06, "z_raw_min": -6.98, "z_raw_max": -1.71, "frac_off_by_1p5m": 0.132, "n_level_flags": 0, "y_south": 4457135, "y_north": 4470533 }, "geometry": { "type": "LineString", "coordinates": [ [ 586209.591812422848307, 4457135.166756038554013 ], [ 586218.179558330099098, 4457234.797326750122011 ], [ 586232.101622892892919, 4457333.552870844490826 ], [ 586255.793683815165423, 4457430.705772238783538 ], [ 586279.485744737554342, 4457527.858673632144928 ], [ 586303.177805659826845, 4457625.01157502643764 ], [ 586326.869866582215764, 4457722.164476420730352 ], [ 586350.561927504488267, 4457819.317377814091742 ], [ 586374.25398842676077, 4457916.470279208384454 ], [ 586397.946049349149689, 4458013.623180601745844 ], [ 586421.638110271422192, 4458110.776081996038556 ], [ 586443.128099091234617, 4458208.402172408998013 ], [ 586461.437689509475604, 4458306.711678046733141 ], [ 586479.747279927833006, 4458405.021183684468269 ], [ 586498.056870346073993, 4458503.330689322203398 ], [ 586516.366460764431395, 4458601.640194959938526 ], [ 586534.676051182788797, 4458699.949700596742332 ], [ 586552.985641601029783, 4458798.25920623447746 ], [ 586571.295232019387186, 4458896.568711872212589 ], [ 586589.604822437628172, 4458994.878217509947717 ], [ 586607.914412855985574, 4459093.187723147682846 ], [ 586626.224003274342977, 4459191.497228785417974 ], [ 586644.533593692583963, 4459289.806734423153102 ], [ 586662.843184110941365, 4459388.116240060888231 ], [ 586679.071426360285841, 4459486.780574501492083 ], [ 586694.369037356227636, 4459585.603563212789595 ], [ 586709.666648352169432, 4459684.426551924087107 ], [ 586724.964259348111227, 4459783.249540635384619 ], [ 586740.261870344053023, 4459882.072529346682131 ], [ 586755.559481339994818, 4459980.895518057979643 ], [ 586770.857092335936613, 4460079.718506769277155 ], [ 586786.154703331878409, 4460178.541495480574667 ], [ 586801.452314327820204, 4460277.36448419187218 ], [ 586816.749925323762, 4460376.187472903169692 ], [ 586832.047536319703795, 4460475.010461613535881 ], [ 586847.34514731564559, 4460573.833450324833393 ], [ 586862.642758311587386, 4460672.656439036130905 ], [ 586877.940369307529181, 4460771.479427747428417 ], [ 586893.237980303470977, 4460870.302416458725929 ], [ 586908.535591299412772, 4460969.125405170023441 ], [ 586923.833202295354567, 4461067.948393881320953 ], [ 586939.130813291412778, 4461166.771382592618465 ], [ 586954.428424287354574, 4461265.594371303915977 ], [ 586969.726035283296369, 4461364.41736001521349 ], [ 586985.023646279238164, 4461463.240348726511002 ], [ 587000.32125727517996, 4461562.063337436877191 ], [ 587015.618868271121755, 4461660.886326148174703 ], [ 587025.796296154265292, 4461760.318725832737982 ], [ 587034.121542110224254, 4461859.971574661321938 ], [ 587042.446788066183217, 4461959.624423490837216 ], [ 587050.772034022025764, 4462059.277272320352495 ], [ 587059.097279977984726, 4462158.93012114893645 ], [ 587067.422525933943689, 4462258.582969978451729 ], [ 587075.747771889786236, 4462358.235818807967007 ], [ 587084.073017845745198, 4462457.888667636550963 ], [ 587092.398263801704161, 4462557.541516466066241 ], [ 587100.723509757663123, 4462657.19436529558152 ], [ 587109.04875571350567, 4462756.847214124165475 ], [ 587117.374001669464633, 4462856.500062953680754 ], [ 587125.699247625423595, 4462956.152911783196032 ], [ 587134.024493581266142, 4463055.805760611779988 ], [ 587142.349739537225105, 4463155.458609441295266 ], [ 587150.674985493184067, 4463255.111458270810544 ], [ 587159.00023144914303, 4463354.7643070993945 ], [ 587167.325477404985577, 4463454.417155928909779 ], [ 587175.650723360944539, 4463554.070004758425057 ], [ 587183.975969316903502, 4463653.722853587009013 ], [ 587192.301215272746049, 4463753.375702416524291 ], [ 587200.626461228705011, 4463853.028551245108247 ], [ 587208.951707184663974, 4463952.681400074623525 ], [ 587217.276953140506521, 4464052.334248904138803 ], [ 587225.602199096465483, 4464151.987097732722759 ], [ 587238.69096446945332, 4464251.124233835376799 ], [ 587251.886064975755289, 4464350.249857781454921 ], [ 587265.081165482057258, 4464449.37548172660172 ], [ 587278.276265988359228, 4464548.501105672679842 ], [ 587291.471366494661197, 4464647.626729618757963 ], [ 587304.666467000963166, 4464746.752353563904762 ], [ 587317.861567507265136, 4464845.877977509982884 ], [ 587331.056668013567105, 4464945.003601455129683 ], [ 587344.251768519869074, 4465044.129225401207805 ], [ 587357.446869026171044, 4465143.254849347285926 ], [ 587370.59682419791352, 4465242.382058051414788 ], [ 587364.384950383449905, 4465342.188934687525034 ], [ 587358.173076568986289, 4465441.995811322703958 ], [ 587351.961202754522674, 4465541.802687957882881 ], [ 587351.9257865564432, 4465641.747840656898916 ], [ 587353.664802468731068, 4465741.732718631625175 ], [ 587355.403818380902521, 4465841.717596606351435 ], [ 587357.14283429319039, 4465941.702474581077695 ], [ 587358.881850205361843, 4466041.687352555803955 ], [ 587360.620866117649712, 4466141.672230531461537 ], [ 587362.359882029821165, 4466241.657108506187797 ], [ 587364.098897942109033, 4466341.641986480914056 ], [ 587365.837913854396902, 4466441.626864455640316 ], [ 587367.576929766568355, 4466541.611742430366576 ], [ 587369.315945678856224, 4466641.596620405092835 ], [ 587371.054961591027677, 4466741.581498380750418 ], [ 587379.033290614257567, 4466841.212232670746744 ], [ 587388.619286136701703, 4466940.751715741120279 ], [ 587398.205281659262255, 4467040.291198811493814 ], [ 587407.791277181822807, 4467139.830681880936027 ], [ 587417.377272704383358, 4467239.370164951309562 ], [ 587426.963268226827495, 4467338.909648020751774 ], [ 587436.549263749388047, 4467438.449131091125309 ], [ 587443.43051876174286, 4467538.110633661039174 ], [ 587442.846310866298154, 4467638.108927152119577 ], [ 587442.262102970969863, 4467738.10722064319998 ], [ 587441.677895075525157, 4467838.105514134280384 ], [ 587441.093687180196866, 4467938.103807625360787 ], [ 587440.50947928475216, 4468038.10210111644119 ], [ 587439.925271389307454, 4468138.100394607521594 ], [ 587439.341063493979163, 4468238.098688098601997 ], [ 587438.756855598534457, 4468338.0969815896824 ], [ 587438.172647703206167, 4468438.095275080762804 ], [ 587437.588439807761461, 4468538.093568571843207 ], [ 587432.863851492176764, 4468637.898022714070976 ], [ 587424.102781966445036, 4468737.513501736335456 ], [ 587415.341712440596893, 4468837.128980757668614 ], [ 587406.580642914748751, 4468936.744459779933095 ], [ 587397.819573388900608, 4469036.359938802197576 ], [ 587389.058503863052465, 4469135.975417823530734 ], [ 587380.297434337204322, 4469235.590896845795214 ], [ 587371.536364811356179, 4469335.206375867128372 ], [ 587362.775295285624452, 4469434.821854889392853 ], [ 587354.014225759776309, 4469534.437333911657333 ], [ 587345.253156233928166, 4469634.052812932990491 ], [ 587339.36635697085876, 4469733.865157655440271 ], [ 587334.46351804130245, 4469833.744896193966269 ], [ 587329.560679111862555, 4469933.624634731560946 ], [ 587324.65784018242266, 4470033.504373270086944 ], [ 587319.75500125286635, 4470133.38411180768162 ], [ 587314.852162323426455, 4470233.263850346207619 ], [ 587309.94932339398656, 4470333.143588883802295 ], [ 587305.04648446443025, 4470433.023327422328293 ], [ 587300.143645534990355, 4470532.903065959922969 ] ] } },
{ "type": "Feature", "properties": { "id": 10, "raw_piece": 0, "length_km": 3.5, "n_vertices": 36, "z_raw_median": -5.21, "z_raw_min": -6.29, "z_raw_max": -3.34, "frac_off_by_1p5m": 0.028, "n_level_flags": 0, "y_south": 4475647, "y_north": 4479069 }, "geometry": { "type": "LineString", "coordinates": [ [ 586490.058098558802158, 4475647.073355392552912 ], [ 586474.067351955454797, 4475745.786556247621775 ], [ 586458.076605352107435, 4475844.499757102690637 ], [ 586442.085858748760074, 4475943.2129579577595 ], [ 586426.095112145412713, 4476041.926158812828362 ], [ 586410.104365541948937, 4476140.639359667897224 ], [ 586394.113618938601576, 4476239.352560522966087 ], [ 586385.810809458256699, 4476338.586945313028991 ], [ 586388.332461131038144, 4476438.555146621540189 ], [ 586390.854112803819589, 4476538.523347930051386 ], [ 586393.375764476484619, 4476638.491549238562584 ], [ 586395.897416149266064, 4476738.459750546142459 ], [ 586398.419067821931094, 4476838.427951854653656 ], [ 586400.940719494712539, 4476938.396153163164854 ], [ 586403.462371167377569, 4477038.364354471676052 ], [ 586405.984022840159014, 4477138.332555780187249 ], [ 586408.505674512940459, 4477238.300757088698447 ], [ 586409.278274364536628, 4477338.168080414645374 ], [ 586395.280081762932241, 4477437.183486306108534 ], [ 586381.281889161444269, 4477536.198892198503017 ], [ 586367.283696559839882, 4477635.214298089966178 ], [ 586353.285503958235495, 4477734.229703981429338 ], [ 586339.287311356747523, 4477833.245109872892499 ], [ 586325.289118755143136, 4477932.260515764355659 ], [ 586311.290926153655164, 4478031.275921656750143 ], [ 586287.661015040474012, 4478128.273607656359673 ], [ 586260.741380405030213, 4478224.582139319740236 ], [ 586233.821745769469999, 4478320.890670983120799 ], [ 586206.902111133909784, 4478417.19920264557004 ], [ 586179.98247649834957, 4478513.507734308950603 ], [ 586153.062841862905771, 4478609.816265971399844 ], [ 586114.529533588211052, 4478701.988054051063955 ], [ 586074.502728770370595, 4478793.627864701673388 ], [ 586034.475923952646554, 4478885.267675352282822 ], [ 585994.449119134922512, 4478976.907486002892256 ], [ 585954.42231431719847, 4479068.547296653501689 ] ] } }
]
}
