{
 "type": "FeatureCollection",
 "features": [
  {
   "type": "Feature",
   "properties": {
    "name": "v1_5_raritan",
    "note": "Generated by scripts/build_region_v1_5.py \u2014 edit the vertices THERE, never this file. The region is a container: create_active(zmin=mask_zmin) trims seaward before this is applied, and land_boxes excludes Staten Island and Jamaica Bay.",
    "segments": {
     "A_sw_south_limb": "ocean",
     "B_se_corner": "ocean",
     "C_ne_corner": "ocean",
     "D_isobath_east": "ocean",
     "E_rockaway_point": "land",
     "F_coney_island": "land",
     "G_narrows_bkln": "narrows",
     "H_narrows_si": "land",
     "I_si_east": "land",
     "J_great_kills": "land",
     "K_si_southwest": "land",
     "L_ward_point": "arthur_kill",
     "M_perth_amboy": "land",
     "N_raritan_west": "inland",
     "O_w_limit_south": "inland",
     "P_notch_east": "inland"
    }
   },
   "geometry": {
    "type": "Polygon",
    "coordinates": [
     [
      [
       -74.09596,
       40.15037
      ],
      [
       -73.45,
       40.15
      ],
      [
       -73.45,
       40.45
      ],
      [
       -73.9462,
       40.45
      ],
      [
       -73.9364,
       40.5497
      ],
      [
       -73.98,
       40.575
      ],
      [
       -74.034,
       40.606
      ],
      [
       -74.0555,
       40.601
      ],
      [
       -74.08,
       40.575
      ],
      [
       -74.135,
       40.535
      ],
      [
       -74.2,
       40.51
      ],
      [
       -74.25,
       40.501
      ],
      [
       -74.266,
       40.506
      ],
      [
       -74.28,
       40.5
      ],
      [
       -74.28,
       40.38
      ],
      [
       -74.09289,
       40.38034
      ],
      [
       -74.09596,
       40.15037
      ]
     ]
    ]
   }
  }
 ]
}