{
 "type": "FeatureCollection",
 "name": "region_v4_PROVISIONAL_bbox",
 "crs": {
  "type": "name",
  "properties": {
   "name": "urn:ogc:def:crs:OGC:1.3:CRS84"
  }
 },
 "features": [
  {
   "type": "Feature",
   "properties": {
    "note": "ACQUISITION-ONLY rectangle, 2026-09-24: v3's bbox extended west to the Delaware (Reedy Point / Delaware City -75.59, Lewes 38.78) and up to Trenton; NOT a modelling polygon"
   },
   "geometry": {
    "type": "Polygon",
    "coordinates": [
     [
      [
       -75.65,
       38.74
      ],
      [
       -73.55,
       38.74
      ],
      [
       -73.55,
       40.62
      ],
      [
       -75.65,
       40.62
      ],
      [
       -75.65,
       38.74
      ]
     ]
    ]
   }
  }
 ]
}