{
"type": "FeatureCollection",
"name": "region_v4_DRAFT",
"crs": { "type": "name", "properties": { "name": "urn:ogc:def:crs:OGC:1.3:CRS84" } },
"features": [
{"type":"Feature","properties":{"name":"region_v4_DRAFT","note":"drafted 2026-09-24 by scripts/draft_region_v4.py from v4_region_first_edit.geojson; rules: +10 m inland edge, far banks computed, cuts at head of tide; buf 2000 tol 1600"},"geometry":{"type":"Polygon","coordinates":[[[-75.724651103073285,39.505720435938137],[-75.68984326112529,39.514492102182629],[-75.714493103474567,39.592733384720532],[-75.64721773459658,39.68107549420737],[-75.618000090296874,39.68107905573968],[-75.617999997373445,39.700900995812276],[-75.618000002779581,39.73290099086033],[-75.618000090357128,39.75092077878314],[-75.632079368907412,39.75091986993538],[-75.627678025497147,39.780196237887274],[-75.609526128879736,39.782426551469804],[-75.609519623155606,39.771993501332382],[-75.583832397193035,39.772000180246749],[-75.583832397193035,39.772000180246756],[-75.546832392782377,39.771999808006029],[-75.546832392782377,39.771999808006044],[-75.523480222460222,39.771993501294531],[-75.523447784942519,39.824411863618977],[-75.497207305416396,39.824527282420156],[-75.431565460006439,39.885156899800791],[-75.299537352035429,39.915305819505328],[-75.29969645927234,39.95179544093611],[-75.235276720396087,39.942483706932258],[-75.201578417458919,39.972000495563648],[-75.166828968111346,39.971999807196617],[-75.166828968111346,39.971999807196624],[-75.13755316154419,39.971991142406921],[-75.137513229701881,40.028018908565791],[-75.129518322572636,40.035000702495971],[-75.083807686473946,40.036394240496698],[-74.960741679292354,40.11199451315386],[-74.94617343201989,40.111999664791085],[-74.94617343201989,40.111999664791078],[-74.881173430845436,40.112000323320395],[-74.881173430845436,40.112000323320395],[-74.849490814405428,40.111987420887985],[-74.849440199352657,40.166718138663477],[-74.835536006869233,40.188119956863268],[-74.845753492318451,40.237981468645621],[-74.798824399595304,40.238000237808627],[-74.750824401862189,40.237999750250587],[-74.654293698769166,40.237938496808056],[-74.590519582606504,40.201927748251649],[-74.609716346624793,40.132620862351942],[-74.713817744764199,40.079768160342724],[-74.728659078293333,40.034304906890625],[-74.768510111269478,40.034391371244176],[-74.697166165224033,39.999539326980688],[-74.70276574967032,39.923871157115613],[-74.761411873885891,39.884813428870025],[-74.929838697331448,39.873324621537279],[-75.013427230555052,39.768828116033696],[-75.280969370332727,39.665772264224287],[-75.2990022917555,39.521560639612488],[-75.285277621026751,39.520414481254143],[-75.285213770018331,39.439989581940068],[-75.25616206904219,39.43999974442827],[-75.20616207149439,39.44000024396221],[-75.174786128300568,39.439989581908151],[-75.174755820491114,39.478405408998569],[-75.150583603987869,39.484003233968934],[-75.105250032937093,39.468877838130936],[-75.1051979781125,39.402989592145325],[-75.073838538866724,39.403000243773874],[-75.073838538866724,39.403000243773889],[-75.023838538350944,39.402999744631323],[-75.023838538350944,39.402999744631337],[-74.994801999775277,39.402989592138375],[-74.994786796319332,39.422271540659054],[-74.955851955816158,39.422819913226249],[-74.887377421494691,39.37862118563266],[-74.791891284821361,39.472651256138398],[-74.81916368631164,39.491619124646988],[-74.807395100644683,39.542059280610012],[-74.745705617432947,39.54464383991953],[-74.718111768641251,39.604950172845612],[-74.736430855263151,39.688789288990364],[-74.697695888158208,39.745909809642882],[-74.649841580397577,39.745775322703842],[-74.622580130694431,39.715055253034201],[-74.341901070149703,39.725066237588038],[-74.248406255115896,40.113271068207041],[-74.188729515742196,40.148455721439241],[-74.190008665779473,40.189006916030507],[-74.144751415641394,40.191384206902711],[-74.148825729818597,40.335111394989291],[-74.286907984719804,40.358567963453183],[-74.395506743349785,40.330357182703935],[-74.399470994326535,40.347945756298337],[-74.450083227790017,40.350449763074067],[-74.454768443408213,40.426599093444395],[-74.504999820281697,40.464187848673994],[-74.505000002441889,40.498900882937235],[-74.504999997435291,40.535900877172075],[-74.504999631165774,40.588956486848488],[-74.31538893628688,40.569550085865245],[-74.315123463325676,40.577079346235834],[-74.289999908495204,40.577082178792132],[-74.290000002435292,40.596900847090474],[-74.29,40.622],[-74.263228364038227,40.63921068600434],[-74.26214888619522,40.639106330970542],[-74.262,40.64],[-74.261096060278007,40.640580827146621],[-74.261797667715086,40.641214431390239],[-74.258,40.664],[-74.191110440792357,40.640392378740927],[-74.191164889137326,40.640155152032705],[-74.19,40.64],[-74.188927245184345,40.639620923292128],[-74.188794208108888,40.639839387002652],[-74.161471090168149,40.636196337867624],[-74.161046837515272,40.635581080381719],[-74.16,40.636],[-74.158835260436746,40.635844534886644],[-74.158677811212414,40.636529087476688],[-74.137895772499832,40.644842124339867],[-74.123387754057717,40.636437873147287],[-74.118802833043802,40.632661343527026],[-74.118802833043802,40.632661343527026],[-74.10478011203098,40.621107290890869],[-74.102738682970937,40.614038525824846],[-74.097268129342083,40.614915450045785],[-74.093120022945186,40.611495628666091],[-74.087361551699786,40.6155515700884],[-74.053878571557306,40.596118057296188],[-74.04671631058126,40.603283483265457],[-74.04671631058126,40.603283483265457],[-74.032,40.618],[-73.95,40.602],[-73.902,40.58],[-73.929367883461993,40.546768033984939],[-73.929491684193167,40.546813073318781],[-73.93,40.546],[-73.930627880819571,40.545237091276526],[-73.930511720597067,40.545181457904548],[-73.940508058260463,40.529186874908625],[-73.940508058260463,40.529186874908625],[-73.950666610384715,40.512923847977355],[-73.912376927761159,40.498986525732668],[-73.919486308485929,40.46833008070125],[-73.828186299890021,40.468276784181704],[-73.822901776323903,40.466346213828281],[-73.821696633536845,40.46827025007461],[-73.526117942128465,40.467586333665459],[-73.527519875257781,38.83683316888493],[-74.994766523252906,38.764449428106936],[-74.994765410509601,38.764894212438023],[-75.086848954755666,38.764999147400715],[-75.258848961113131,38.765000841260701],[-75.35323378935739,38.764894213249306],[-75.353181409132858,38.743941448153343],[-75.380875211182428,38.742310623626004],[-75.400248655021429,38.811635636753927],[-75.447578133130037,38.82858591004895],[-75.462235061650105,38.868179562718922],[-75.500288848059256,38.870275621119461],[-75.505282638766332,38.924322769808036],[-75.564121537122062,38.924954405323369],[-75.583172967790645,38.99740190147056],[-75.551946354870381,39.065588519098775],[-75.588114436176085,39.105961795079502],[-75.575254257213075,39.160092305641136],[-75.597827282428867,39.160429245215155],[-75.596441340872389,39.201886839964743],[-75.666044637806465,39.214124987982586],[-75.649760798186463,39.269633773053151],[-75.684575551264047,39.273489170008929],[-75.684930986828746,39.309980722321107],[-75.662628588366502,39.343449506295286],[-75.716080030327589,39.350341461406309],[-75.716356120302251,39.377371723097099],[-75.747754382302318,39.38213002619883],[-75.724651103073285,39.505720435938137]]]}}
]
}
