{
 "type": "FeatureCollection",
 "name": "region_v1_5_raritan",
 "features": [
  {
   "type": "Feature",
   "properties": {
    "name": "v1_5_raritan",
    "provenance": "Hand-drawn in QGIS over Esri imagery + CUDEM, 2026-08-13. THIS FILE IS THE AUTHORITY for the v1.5 region; nothing generates it. Its gate is scripts/validate_region_v1_5.py, which reads it and never writes.",
    "note": "Per-segment tags were REMOVED 2026-08-13. They were carried over from the retired 16-vertex generator and no longer matched this 40-vertex ring, which is how 1.79 km of dry ground came to be recorded as 'the Raritan River cut'. Water crossings are declared as coordinate boxes in CROSSINGS in the validator and matched against the bed, not against vertex pairs."
   },
   "geometry": {
    "type": "Polygon",
    "coordinates": [
     [
      [
       -74.09596,
       40.15037
      ],
      [
       -73.45,
       40.15
      ],
      [
       -73.45,
       40.45
      ],
      [
       -73.9462,
       40.45
      ],
      [
       -73.9364,
       40.5497
      ],
      [
       -73.973216,
       40.579398399999924
      ],
      [
       -73.99055359999991,
       40.58668119999992
      ],
      [
       -73.99483759999991,
       40.59260319999992
      ],
      [
       -74.00989459999991,
       40.60488819999992
      ],
      [
       -74.0294119999999,
       40.61089839999992
      ],
      [
       -74.05864399999989,
       40.60207839999992
      ],
      [
       -74.08333999999988,
       40.578894399999925
      ],
      [
       -74.1108205999999,
       40.553165199999924
      ],
      [
       -74.1173725999999,
       40.549385199999925
      ],
      [
       -74.12549959999988,
       40.54585719999993
      ],
      [
       -74.12997259999989,
       40.54963719999993
      ],
      [
       -74.14230799999987,
       40.546890399999924
      ],
      [
       -74.14559659999988,
       40.53980919999993
      ],
      [
       -74.15309359999988,
       40.53432819999993
      ],
      [
       -74.16909559999986,
       40.52891019999993
      ],
      [
       -74.19593359999986,
       40.51523919999993
      ],
      [
       -74.20329199999986,
       40.51614639999993
      ],
      [
       -74.21023459999985,
       40.511900199999936
      ],
      [
       -74.21609359999984,
       40.50679719999994
      ],
      [
       -74.21760559999984,
       40.50484419999994
      ],
      [
       -74.22018859999984,
       40.50377319999994
      ],
      [
       -74.22522859999984,
       40.50263919999994
      ],
      [
       -74.22825259999983,
       40.503080199999935
      ],
      [
       -74.23152859999983,
       40.50263919999994
      ],
      [
       -74.24053759999984,
       40.49961519999994
      ],
      [
       -74.24734159999983,
       40.49728419999994
      ],
      [
       -74.24923159999983,
       40.49816619999994
      ],
      [
       -74.25187759999983,
       40.50062319999994
      ],
      [
       -74.25379279999983,
       40.503722799999935
      ],
      [
       -74.266,
       40.506
      ],
      [
       -74.29929139999983,
       40.51680159999995
      ],
      [
       -74.30042539999984,
       40.495318599999955
      ],
      [
       -74.28354139999983,
       40.48567959999996
      ],
      [
       -74.28,
       40.38
      ],
      [
       -74.09289,
       40.38034
      ],
      [
       -74.09596,
       40.15037
      ]
     ]
    ]
   }
  }
 ]
}