{
"type": "FeatureCollection",
"name": "region_v3_EDITED_inland",
"crs": { "type": "name", "properties": { "name": "urn:ogc:def:crs:OGC:1.3:CRS84" } },
"features": [
{"type":"Feature","properties":{"name":"region_v3_DRAFT_inland","note":"2026-08-24 candidate: landward edge moved to the head of tide of the Wading, Mullica, Great Egg and Tuckahoe; Cape May Canal left uncut via a Delaware Bay wedge. DRAFT for QGIS editing, not the ring. 2026-08-24 later: Toms and Metedeconk cuts moved to their gauges (dry) too — NO wet river cuts remain.","parent":"region_v3_EDITED.geojson"},"geometry":{"type":"Polygon","coordinates":[[[-73.55,40.45],[-73.9462,40.45],[-73.9364,40.5497],[-73.973216,40.579398399999924],[-73.990553599999913,40.586681199999923],[-73.994837599999912,40.592603199999921],[-74.00989459999991,40.60488819999992],[-74.029411999999894,40.610898399999918],[-74.058643999999887,40.602078399999918],[-74.083339999999879,40.578894399999925],[-74.110820599999897,40.553165199999924],[-74.117372599999896,40.549385199999925],[-74.125499599999884,40.545857199999929],[-74.129972599999888,40.549637199999928],[-74.142307999999872,40.546890399999924],[-74.145596599999877,40.539809199999929],[-74.153093599999877,40.534328199999933],[-74.169095599999864,40.528910199999927],[-74.195933599999861,40.515239199999932],[-74.203291999999863,40.516146399999933],[-74.210234599999851,40.511900199999936],[-74.216093599999837,40.506797199999937],[-74.217605599999843,40.504844199999937],[-74.220188599999844,40.503773199999941],[-74.225228599999838,40.50263919999994],[-74.228252599999834,40.503080199999935],[-74.231528599999834,40.50263919999994],[-74.24053759999984,40.499615199999937],[-74.247341599999828,40.497284199999939],[-74.249231599999831,40.498166199999943],[-74.25187759999983,40.500623199999943],[-74.253792799999829,40.503722799999935],[-74.266,40.506],[-74.299291399999831,40.516801599999951],[-74.300425399999838,40.495318599999955],[-74.283541399999834,40.485679599999962],[-74.28,40.38],[-74.125302631578919,40.353158408536522],[-74.119396381578909,40.158032674628487],[-74.225,40.095],[-74.235,39.995],[-74.318665981366507,39.707040707211142],[-74.555,39.7],[-74.69,39.69],[-74.68,39.62],[-74.745,39.478],[-74.835,39.322],[-74.759,39.177],[-74.8801,39.0203],[-74.958,38.985],[-74.985,38.975],[-74.985,38.88],[-73.55,38.855],[-73.55,40.45]]]}}
]
}
