{
 "type": "FeatureCollection",
 "name": "region_v4",
 "crs": {
  "type": "name",
  "properties": {
   "name": "urn:ogc:def:crs:OGC:1.3:CRS84"
  }
 },
 "features": [
  {
   "type": "Feature",
   "properties": {
    "name": "region_v4",
    "source": "data/v4_design/region_v4_vertices.csv",
    "source_sha256": "f4da0ea3eef92c70f4ce9649da7cba9428f2a832b483aa89aa9ddc828d61d050",
    "n_vertices": 194,
    "note": "DERIVED \u2014 edit the source CSV and re-run scripts/ring_to_geojson.py; never edit this file."
   },
   "geometry": {
    "type": "Polygon",
    "coordinates": [
     [
      [
       -73.55,
       38.855
      ],
      [
       -74.97,
       38.76
      ],
      [
       -74.985,
       38.725
      ],
      [
       -75.1396,
       38.7256
      ],
      [
       -75.1772,
       38.7396
      ],
      [
       -75.2686,
       38.7305
      ],
      [
       -75.3308,
       38.7465
      ],
      [
       -75.3629,
       38.8248
      ],
      [
       -75.4126,
       38.8517
      ],
      [
       -75.4312,
       38.8854
      ],
      [
       -75.4728,
       38.8992
      ],
      [
       -75.4909,
       38.9352
      ],
      [
       -75.5297,
       38.949
      ],
      [
       -75.5421,
       38.9836
      ],
      [
       -75.5213,
       39.0635
      ],
      [
       -75.5412,
       39.0985
      ],
      [
       -75.5365,
       39.1571
      ],
      [
       -75.5682,
       39.2133
      ],
      [
       -75.6274,
       39.2351
      ],
      [
       -75.6243,
       39.2725
      ],
      [
       -75.65,
       39.3007
      ],
      [
       -75.644,
       39.3399
      ],
      [
       -75.6884,
       39.3703
      ],
      [
       -75.7239,
       39.4345
      ],
      [
       -75.7143,
       39.46
      ],
      [
       -75.699,
       39.46
      ],
      [
       -75.699,
       39.5002
      ],
      [
       -75.699,
       39.535
      ],
      [
       -75.699,
       39.552
      ],
      [
       -75.699,
       39.561
      ],
      [
       -75.6789,
       39.5884
      ],
      [
       -75.699,
       39.6171
      ],
      [
       -75.699,
       39.62
      ],
      [
       -75.701,
       39.62
      ],
      [
       -75.7091,
       39.6315
      ],
      [
       -75.6732,
       39.7164
      ],
      [
       -75.5946,
       39.7376
      ],
      [
       -75.5598,
       39.7661
      ],
      [
       -75.5085,
       39.7695
      ],
      [
       -75.4213,
       39.8293
      ],
      [
       -75.4028,
       39.8641
      ],
      [
       -75.357,
       39.884
      ],
      [
       -75.3099,
       39.8869
      ],
      [
       -75.2721,
       39.9262
      ],
      [
       -75.2241,
       39.9394
      ],
      [
       -75.2179,
       39.9975
      ],
      [
       -75.259,
       40.0357
      ],
      [
       -75.2532,
       40.0492
      ],
      [
       -75.1687,
       40.0021
      ],
      [
       -75.1312,
       39.9981
      ],
      [
       -74.9419,
       40.0828
      ],
      [
       -74.9213,
       40.1517
      ],
      [
       -74.8691,
       40.1346
      ],
      [
       -74.8298,
       40.1435
      ],
      [
       -74.7961,
       40.2011
      ],
      [
       -74.8607,
       40.2539
      ],
      [
       -74.8659,
       40.2728
      ],
      [
       -74.8494,
       40.2769
      ],
      [
       -74.668,
       40.192
      ],
      [
       -74.6448,
       40.1638
      ],
      [
       -74.6948,
       40.1401
      ],
      [
       -74.7779,
       40.0434
      ],
      [
       -74.7744,
       40.0105
      ],
      [
       -74.7406,
       39.9884
      ],
      [
       -74.7501,
       39.937
      ],
      [
       -74.8087,
       39.9142
      ],
      [
       -74.8466,
       39.9593
      ],
      [
       -74.9192,
       39.9679
      ],
      [
       -75.0251,
       39.876
      ],
      [
       -75.0222,
       39.8157
      ],
      [
       -75.1074,
       39.7882
      ],
      [
       -75.1313,
       39.7665
      ],
      [
       -75.2008,
       39.7655
      ],
      [
       -75.2357,
       39.7285
      ],
      [
       -75.2934,
       39.7185
      ],
      [
       -75.353,
       39.6259
      ],
      [
       -75.3306,
       39.5625
      ],
      [
       -75.3648,
       39.5308
      ],
      [
       -75.3699,
       39.5015
      ],
      [
       -75.3126,
       39.449
      ],
      [
       -75.2372,
       39.4667
      ],
      [
       -75.1829,
       39.3997
      ],
      [
       -75.1892,
       39.3668
      ],
      [
       -75.1688,
       39.333
      ],
      [
       -75.1137,
       39.3106
      ],
      [
       -75.0742,
       39.3196
      ],
      [
       -75.0528,
       39.3548
      ],
      [
       -75.0807,
       39.4088
      ],
      [
       -75.087,
       39.456
      ],
      [
       -75.066,
       39.452
      ],
      [
       -75.0285,
       39.4026
      ],
      [
       -74.9425,
       39.3701
      ],
      [
       -74.9385,
       39.3368
      ],
      [
       -74.913,
       39.3169
      ],
      [
       -74.7894,
       39.342
      ],
      [
       -74.7672,
       39.3757
      ],
      [
       -74.792,
       39.528
      ],
      [
       -74.6896,
       39.4697
      ],
      [
       -74.6574,
       39.3966
      ],
      [
       -74.6226,
       39.392
      ],
      [
       -74.5708,
       39.4126
      ],
      [
       -74.5272,
       39.503
      ],
      [
       -74.556,
       39.5423
      ],
      [
       -74.6252,
       39.547
      ],
      [
       -74.6395,
       39.5962
      ],
      [
       -74.6866,
       39.6265
      ],
      [
       -74.7004,
       39.6572
      ],
      [
       -74.6886,
       39.7008
      ],
      [
       -74.6605,
       39.7152
      ],
      [
       -74.6327,
       39.6727
      ],
      [
       -74.5984,
       39.6609
      ],
      [
       -74.5434,
       39.6936
      ],
      [
       -74.5108,
       39.6908
      ],
      [
       -74.4795,
       39.6555
      ],
      [
       -74.3806,
       39.637
      ],
      [
       -74.2651,
       39.7039
      ],
      [
       -74.2289,
       39.7568
      ],
      [
       -74.2413,
       39.8042
      ],
      [
       -74.215,
       39.9063
      ],
      [
       -74.2541,
       39.9678
      ],
      [
       -74.1708,
       40.0285
      ],
      [
       -74.171,
       40.0591
      ],
      [
       -74.1965,
       40.0859
      ],
      [
       -74.1579,
       40.128
      ],
      [
       -74.158,
       40.1649
      ],
      [
       -74.1055,
       40.1807
      ],
      [
       -74.0363,
       40.2608
      ],
      [
       -74.0547,
       40.2898
      ],
      [
       -74.1064,
       40.2965
      ],
      [
       -74.1297,
       40.3156
      ],
      [
       -74.1124,
       40.3727
      ],
      [
       -74.135,
       40.4039
      ],
      [
       -74.1861,
       40.4151
      ],
      [
       -74.2506,
       40.3921
      ],
      [
       -74.3065,
       40.3974
      ],
      [
       -74.364,
       40.3626
      ],
      [
       -74.3993,
       40.3673
      ],
      [
       -74.4186,
       40.3814
      ],
      [
       -74.3906,
       40.4137
      ],
      [
       -74.3986,
       40.4434
      ],
      [
       -74.5159,
       40.5291
      ],
      [
       -74.5767,
       40.533
      ],
      [
       -74.5843,
       40.5447
      ],
      [
       -74.5209,
       40.5697
      ],
      [
       -74.4728,
       40.5276
      ],
      [
       -74.4016,
       40.5038
      ],
      [
       -74.3234,
       40.5336
      ],
      [
       -74.306,
       40.644
      ],
      [
       -74.1846,
       40.7385
      ],
      [
       -74.1345,
       40.8548
      ],
      [
       -74.1376,
       40.8877
      ],
      [
       -74.0746,
       40.8994
      ],
      [
       -74.0392,
       40.9653
      ],
      [
       -73.9918,
       40.9937
      ],
      [
       -73.9694,
       40.9787
      ],
      [
       -73.9951,
       40.9325
      ],
      [
       -73.9641,
       40.8916
      ],
      [
       -73.9661,
       40.8834
      ],
      [
       -73.9856,
       40.8393
      ],
      [
       -73.995,
       40.828
      ],
      [
       -74.012,
       40.804
      ],
      [
       -74.0146,
       40.79
      ],
      [
       -74.0382,
       40.7592
      ],
      [
       -74.056,
       40.748
      ],
      [
       -74.076,
       40.724
      ],
      [
       -74.086,
       40.708
      ],
      [
       -74.096,
       40.7
      ],
      [
       -74.1,
       40.69
      ],
      [
       -74.106,
       40.679
      ],
      [
       -74.114,
       40.668
      ],
      [
       -74.1,
       40.66
      ],
      [
       -74.09,
       40.6545
      ],
      [
       -74.09,
       40.644
      ],
      [
       -74.08,
       40.639
      ],
      [
       -74.081,
       40.629
      ],
      [
       -74.077,
       40.619
      ],
      [
       -74.068,
       40.61
      ],
      [
       -74.0586,
       40.6021
      ],
      [
       -74.0294,
       40.6109
      ],
      [
       -74.018,
       40.617
      ],
      [
       -73.982,
       40.614
      ],
      [
       -73.953,
       40.619
      ],
      [
       -73.94,
       40.641
      ],
      [
       -73.922,
       40.652
      ],
      [
       -73.915,
       40.65
      ],
      [
       -73.912,
       40.6
      ],
      [
       -73.902,
       40.58
      ],
      [
       -73.91274,
       40.57326
      ],
      [
       -73.90216,
       40.53836
      ],
      [
       -73.90345,
       40.53067
      ],
      [
       -73.90721,
       40.51193
      ],
      [
       -73.92199,
       40.50596
      ],
      [
       -73.94,
       40.45
      ],
      [
       -73.55,
       40.45
      ],
      [
       -73.55,
       38.855
      ]
     ]
    ]
   }
  }
 ]
}
