{
"type": "FeatureCollection",
"name": "v4_crossings",
"crs": { "type": "name", "properties": { "name": "urn:ogc:def:crs:OGC:1.3:CRS84" } },
"features": [
{"type":"Feature","properties":{"name":"delaware_trenton","kind":"cut","role":"river head of tide","excluded_side":"N","span_km":2.47,"status":"checked 2026-09-25 on the corrected elevation stack","note":"Falls of the Delaware, 1.8 km above the Calhoun St gauge 01463500 (MOTF reached 40.232); west end moved -74.800 -> -74.835 (09-25 audit: the river at 40.238 runs at -74.806..-74.816)","drawn_line":"LINESTRING (-74.835 40.238, -74.752 40.238)"},"geometry":{"type":"LineString","coordinates":[[-74.831179294688894,40.238001306923657],[-74.802083165807517,40.238007122049993]]}},
{"type":"Feature","properties":{"name":"raritan_bound_brook","kind":"cut","role":"river head of tide","excluded_side":"W","span_km":1.78,"status":"checked 2026-09-25 on the corrected elevation stack","note":"09-25: moved up from -74.505 (N end sat on 3.8 m, HWM 6208 at 4.21 m lay 800 m upstream OUTSIDE); water surface 3.3 m, ends 17.6 / 12.1 m; source = Bound Brook 01403060 (2.4 km upstream) + Lawrence + Middle Brook","drawn_line":"LINESTRING (-74.52 40.54, -74.52 40.56)"},"geometry":{"type":"LineString","coordinates":[[-74.52000000386812,40.543153070832822],[-74.520000001194006,40.559143617858865]]}},
{"type":"Feature","properties":{"name":"rahway_dam","kind":"cut","role":"river head of tide","excluded_side":"W","span_km":3.95,"status":"checked 2026-09-25 on the corrected elevation stack","note":"Rahway River head of tide at Rahway (09-25: the Elizabeth leg to the old Goethals line dropped — Newark Bay IN; S end moved 40.596 -> 40.585, past a 2.8 m dip onto +10 m ground)","drawn_line":"LINESTRING (-74.29 40.585, -74.29 40.622, -74.262 40.64)"},"geometry":{"type":"LineString","coordinates":[[-74.290000013678352,40.588828606426873],[-74.29,40.622],[-74.287580966220077,40.623555749195724]]}},
{"type":"Feature","properties":{"name":"kvk_east","kind":"forced","role":"other water body (Upper Bay)","excluded_side":"E","span_km":1.09,"status":"NACCS nodes needed (user fetching)","note":"Kill van Kull east mouth, St George hill (34 m) -> Constable Hook (~3 m), 16 m channel; Newark Bay IN (user 09-25). ⚠️ NO NACCS points here yet — the user fetches them","drawn_line":"LINESTRING (-74.09 40.644, -74.09 40.6545)"},"geometry":{"type":"LineString","coordinates":[[-74.090000000916348,40.64467561047168],[-74.09,40.6545]]}},
{"type":"Feature","properties":{"name":"narrows","kind":"forced","role":"other water body (Upper Bay)","excluded_side":"N","span_km":2.36,"status":"checked 2026-09-25 on the corrected elevation stack","note":"v1.5's Narrows segment verbatim (same NACCS support and Q audit as v1.5 / v3), Fort Wadsworth -> Brooklyn shore","drawn_line":"LINESTRING (-74.0586 40.6021, -74.0294 40.6109)"},"geometry":{"type":"LineString","coordinates":[[-74.055302982023818,40.603094110429346],[-74.0294,40.6109]]}},
{"type":"Feature","properties":{"name":"rockaway_inlet","kind":"forced","role":"other water body (Jamaica Bay)","excluded_side":"E","span_km":6.42,"status":"2.4 km of dry Breezy Point sand on the line — wall those cells at the build","note":"Jamaica Bay stays OUT but its mouth is a forced water-level line, not a wall (23 NACCS pts, 3.0-3.4 m); crosses 2.4 km of dry Breezy Point (1.3-3.3 m) — wall those cells at the build","drawn_line":"LINESTRING (-73.94 40.53, -73.93 40.546, -73.902 40.58)"},"geometry":{"type":"LineString","coordinates":[[-73.94,40.53],[-73.93,40.546],[-73.902,40.58]]}},
{"type":"Feature","properties":{"name":"brooklyn_wall","kind":"wall","role":"other water body (Jamaica Bay) — land wall","excluded_side":"N","span_km":11.48,"status":"UNDER REVIEW: east ~1.4 km crosses water (Plumb Beach / Sheepshead Bay channels); all of it on 2-9.6 m ground","note":"Floyd Bennett -> the Narrows' Brooklyn end across Gravesend: the one +10 m exception (09-25: no longer runs 1.2 km into the Narrows channel)","drawn_line":"LINESTRING (-73.902 40.58, -73.95 40.602, -74.0294 40.6109)"},"geometry":{"type":"LineString","coordinates":[[-73.902,40.58],[-73.95,40.602],[-74.028758027585383,40.610828268781752]]}},
{"type":"Feature","properties":{"name":"cape_henlopen","kind":"cut","role":"other water body (Rehoboth Bay)","excluded_side":"S","span_km":15.39,"status":"checked 2026-09-25 on the corrected elevation stack","note":"09-25: moved 38.765 -> 38.725 where the Lewes-Rehoboth lowland pinches (0.5 km < +2 m vs 4.9); 5-9 m ground, low only at the canal (0.4 m) and two creeks; the mouth line ends on the Henlopen dune","drawn_line":"LINESTRING (-75.26 38.725, -75.083 38.725)"},"geometry":{"type":"LineString","coordinates":[[-75.26,38.725],[-75.083,38.725]]}},
{"type":"Feature","properties":{"name":"schuylkill_fairmount","kind":"cut","role":"river head of tide","excluded_side":"N","span_km":0.63,"status":"checked 2026-09-25 on the corrected elevation stack","note":"Fairmount Dam = USGS 01474500 (25,700 cfs on the peak day)","drawn_line":"LINESTRING (-75.205 39.972, -75.168 39.972)"},"geometry":{"type":"LineString","coordinates":[[-75.195338997165251,39.972001139244547],[-75.188020053284674,39.972001466269106]]}},
{"type":"Feature","properties":{"name":"brandywine_wilmington","kind":"cut","role":"river head of tide","excluded_side":"N","span_km":0.3,"status":"checked 2026-09-25 on the corrected elevation stack","note":"Brandywine gorge above the Wilmington riverfront (39.762 was on 2 m ground, wet at +2 m); USGS 01481500 just below","drawn_line":"LINESTRING (-75.585 39.772, -75.548 39.772)"},"geometry":{"type":"LineString","coordinates":[[-75.580621488704097,39.772000615356305],[-75.577118678169114,39.772000988705777]]}},
{"type":"Feature","properties":{"name":"christina_white_clay","kind":"cut","role":"river head of tide","excluded_side":"W","span_km":9.76,"status":"checked 2026-09-25 on the corrected elevation stack","note":"09-25: the old -75.618 line sat on TIDAL water and the ring then ran ALONG the Christina for 4 km. Now one bent line across the heads of tide: Red Clay / White Clay (~-75.66) and the Christina main stem (~-75.68, 39.645)","drawn_line":"LINESTRING (-75.662 39.728, -75.662 39.688, -75.69 39.655, -75.672 39.638)"},"geometry":{"type":"LineString","coordinates":[[-75.661999964050764,39.714485179936098],[-75.662,39.688],[-75.69,39.655],[-75.672,39.638]]}},
{"type":"Feature","properties":{"name":"cd_canal","kind":"forced","role":"other water body (Chesapeake)","excluded_side":"W","span_km":1.03,"status":"NACCS nodes needed (user fetching); wall it if ADCIRC has none in the canal","note":"C&D Canal (09-25 audit: an UNDECLARED crossing): 250 m of -13 m canal between 20 m banks; 9 NACCS pts 1.76-1.82 m; forced, not walled (a short channel with the level uniform across it)","drawn_line":"LINESTRING (-75.699 39.535, -75.699 39.552)"},"geometry":{"type":"LineString","coordinates":[[-75.698999993507201,39.540180820475499],[-75.698999996050006,39.549416184704477]]}},
{"type":"Feature","properties":{"name":"neshaminy","kind":"cut","role":"river head of tide","excluded_side":"N","span_km":2.41,"status":"checked 2026-09-25 on the corrected elevation stack","note":"Neshaminy head of tide below Langhorne 01465500","drawn_line":"LINESTRING (-74.945 40.112, -74.88 40.112)"},"geometry":{"type":"LineString","coordinates":[[-74.908330254046234,40.11200448468967],[-74.88,40.112]]}},
{"type":"Feature","properties":{"name":"cohansey_bridgeton","kind":"cut","role":"river head of tide","excluded_side":"N","span_km":0.98,"status":"checked 2026-09-25 on the corrected elevation stack","note":"Cohansey head of tide at Bridgeton; 01412800 upstream","drawn_line":"LINESTRING (-75.255 39.44, -75.205 39.44)"},"geometry":{"type":"LineString","coordinates":[[-75.241636201072581,39.440002104616923],[-75.230306017114003,39.440002686256975]]}},
{"type":"Feature","properties":{"name":"maurice_millville","kind":"cut","role":"river head of tide","excluded_side":"N","span_km":1.93,"status":"checked 2026-09-25 on the corrected elevation stack","note":"Union Lake dam, Millville (39.412 crossed the lake); 01411500 upstream","drawn_line":"LINESTRING (-75.075 39.403, -75.025 39.403)"},"geometry":{"type":"LineString","coordinates":[[-75.064837214250645,39.403001739889085],[-75.042479080606157,39.403002442874737]]}},
{"type":"Feature","properties":{"name":"passaic_dundee","kind":"cut","role":"river head of tide","excluded_side":"N","span_km":0.45,"status":"checked 2026-09-25 on the corrected elevation stack","note":"Passaic at Dundee Dam: the 7.4 m pool turns into 0-5 m tidal water at (-74.128, 40.884); line across the pool just above the dam, both ends > +10 m","drawn_line":"LINESTRING (-74.134 40.8805, -74.121 40.8885)"},"geometry":{"type":"LineString","coordinates":[[-74.130312681984179,40.882769467218296],[-74.126164148911741,40.885322472806862]]}},
{"type":"Feature","properties":{"name":"hackensack_new_milford","kind":"cut","role":"river head of tide","excluded_side":"N","span_km":2.07,"status":"checked 2026-09-25 on the corrected elevation stack","note":"Hackensack head of tide below Oradell Dam (1.0 m tidal water at 40.945, 3.3 m at 40.950); 01378500 at New Milford; runs east over the Palisades plateau to the Hudson exclusion polygon","drawn_line":"LINESTRING (-74.05 40.949, -73.957 40.949)"},"geometry":{"type":"LineString","coordinates":[[-74.031585562049955,40.949005956836814],[-74.006934062011169,40.949009326826371]]}},
{"type":"Feature","properties":{"name":"delaware_mouth","kind":"forced","role":"ocean (bay mouth)","excluded_side":"","span_km":19.09,"status":"7 NACCS pts within 1.5 km; lies INSIDE a ring that keeps the shelf (Track C) — forcing comes from mask declarations","note":"Cape May Point -> Cape Henlopen; DE end on 0.8-5.5 m spit, not the Great Dune","drawn_line":""},"geometry":{"type":"LineString","coordinates":[[-75.093,38.795],[-74.96,38.932]]}},
{"type":"Feature","properties":{"name":"upper_bay_hudson_route","kind":"edge_route","role":"land edge keeping the Upper Bay / Hudson out (Newark Bay IN)","excluded_side":"E","span_km":55.73,"status":"checked 2026-09-25: SI east ridge >= +10 m; Bayonne 1.7-2.9 m for ~3 km south of 40.68 (Sandy wets it — wall at build); Palisades crest","note":"Fort Wadsworth -> SI ridge -> St George -> KvK east line -> Bayonne spine -> Jersey City Heights -> Palisades crest to lat 41","drawn_line":""},"geometry":{"type":"LineString","coordinates":[[-74.0586,40.6021],[-74.068,40.61],[-74.077,40.619],[-74.081,40.629],[-74.08,40.639],[-74.09,40.644],[-74.09,40.6545],[-74.1,40.66],[-74.114,40.668],[-74.106,40.679],[-74.1,40.69],[-74.096,40.7],[-74.086,40.708],[-74.076,40.724],[-74.056,40.748],[-74.018,40.772],[-74.012,40.804],[-73.995,40.828],[-73.975,40.852],[-73.968,40.876],[-73.962,40.9],[-73.955,40.93],[-73.95,41.05]]}}
]
}
